Brand,Store Number,Store Name,Ownership Type,Street Address,City,State/Province,Country,Postcode,Phone Number,Timezone,Longitude,Latitude
Starbucks,5983-53919,"Florida & Kirby, Hemet",Company Owned,"2350 W. Florida Avenue, 1A",Hemet,CA,US,925454613,951-765-0443,GMT-08:00 America/Los_Angeles,-117,33.75
Starbucks,76364-97139,Target Hemet T-761,Licensed,3527 W. Florida Ave,Hemet,CA,US,925453564,951-652-9585,GMT-08:00 America/Los_Angeles,-117.01,33.75
Starbucks,10893-102951,"Sanderson & Esplanade, San Jacinto",Company Owned,"2281 W. Esplanade Ave., Suite A",San Jacinto,CA,US,925824704,951-487-1106,GMT-08:00 America/Los_Angeles,-117.01,33.77
Starbucks,6438-245084,Yucaipa & 6th,Company Owned,"34050 Yucaipa Blvd., 200",Yucaipa,CA,US,92399,9097977224,GMT-08:00 America/Los_Angeles,-117.06,34.03
Starbucks,79654-108478,Vons - Yucaipa #1796,Licensed,33644 YUCAIPA BLVD,YUCAIPA,CA,US,923992071,,GMT-08:00 America/Los_Angeles,-117.07,34.04
Starbucks,9974-98559,"Yucaipa & Hampton, Yucaipa",Company Owned,"31364 Yucaipa Blvd., A",Yucaipa,CA,US,923991570,909-389-9587,GMT-08:00 America/Los_Angeles,-117.12,34.03
Starbucks,22308-215004,Lugonia & Wabash,Company Owned,1755 E. Lugonia Avenue,Redlands,CA,US,92374,909-794-5104,GMT-08:00 America/Los_Angeles,-117.14,34.07
Starbucks,28266-246805,Ralphs Menifee 140,Licensed,30125 Antelope Road,Menifee,CA,US,92584,9516792117,GMT-08:00 America/Los_Angeles,-117.17,33.68
Starbucks,73620-87553,Albertsons-Redlands #6519,Licensed,"450 W Cypress Ave, Orange Tree Marketplace",Redlands,CA,US,923736115,909-792-1114,GMT-08:00 America/Los_Angeles,-117.17,34.05
Starbucks,23319-226064,Redlands & Clark,Company Owned,625 East Redlands Blvd.,Redlands,CA,US,92373,(909) 809-0666,GMT-08:00 America/Los_Angeles,-117.17,34.05
Starbucks,14488-107911,"Haun & Newport, Menifee",Company Owned,"30010 Haun Road, #260",Menifee,CA,US,925846812,951-301-6847,GMT-08:00 America/Los_Angeles,-117.18,33.68
Starbucks,76971-136441,Super Target Menifee ST-2471,Licensed,30340 Haun Rd,Menifee,CA,US,925846806,951-672-8580,GMT-08:00 America/Los_Angeles,-117.18,33.68
Starbucks,9899-97042,Moreno Beach & Hwy 60,Company Owned,12751 Moreno Beach Drive,Moreno Valley,CA,US,925554411,951-485-6878,GMT-08:00 America/Los_Angeles,-117.18,33.94
Starbucks,74981-103364,Vons - Redlands #1734,Licensed,522 NORTH ORANGE,Redlands,CA,US,923743208,909-793-0447,GMT-08:00 America/Los_Angeles,-117.18,34.06
Starbucks,5693-1231,Orange & Pearl- Redlands,Company Owned,"627 Orange St, Suite D",Redlands,CA,US,923743246,909-748-0691,GMT-08:00 America/Los_Angeles,-117.18,34.06
Starbucks,11099-102097,"I-215 & Ethanac, Perris",Company Owned,"3150 Case Road, Bldg H, Suite 1",Perris,CA,US,925705552,951-943-0726,GMT-08:00 America/Los_Angeles,-117.19,33.74
Starbucks,76767-107985,Super Target Moreno Valley East ST-,Licensed,27100 Eucalyptus,Moreno Valley,CA,US,925554522,951-571-8014,GMT-08:00 America/Los_Angeles,-117.19,33.94
Starbucks,8907-94885,"Lugonia & Alabama, Redlands",Company Owned,"27512 W.  Lugonia Avenue, A",Redlands,CA,US,923742053,909-307-8095,GMT-08:00 America/Los_Angeles,-117.2,34.07
Starbucks,6768-77841,Baseline & Hwy 30,Company Owned,27615 Baseline Street,Highland,CA,US,923466408,909-864-2689,GMT-08:00 America/Los_Angeles,-117.2,34.12
Starbucks,17824-180665,Iris & Lassell,Company Owned,"25960 Iris Avenue, Suite 1C",Moreno Valley,CA,US,925511659,951-924-7202,GMT-08:00 America/Los_Angeles,-117.21,33.89
Starbucks,10004-98481,Alabama & Orange Tree Lane,Company Owned,1265 Alabama Street,Redlands,CA,US,923742813,909-798-1426,GMT-08:00 America/Los_Angeles,-117.21,34.07
Starbucks,76159-93363,Target Redlands T-1869,Licensed,27320 Lugonia Ave,Redlands,CA,US,923742041,909-307-1602,GMT-08:00 America/Los_Angeles,-117.21,34.07
Starbucks,10665-100382,"Ramona Expressway & Perris, Perris",Company Owned,120 E Ramona Expressway,Perris,CA,US,925719712,951-943-6862,GMT-08:00 America/Los_Angeles,-117.22,33.85
Starbucks,6703-75480,"Nuevo & I-215, Perris",Company Owned,"1688 North Perris Blvd., G-4",Perris,CA,US,925714709,951-943-9025,GMT-08:00 America/Los_Angeles,-117.23,33.8
Starbucks,10344-101112,"Hemlock & Perris, Moreno Valley",Company Owned,"12190 Perris Blvd., A",Moreno Valley,CA,US,925577421,951-243-6149,GMT-08:00 America/Los_Angeles,-117.23,33.94
Starbucks,13221-106687,"California & Barton, Loma Linda",Company Owned,"11245 California Street, #A",Loma Linda,CA,US,92354,909-793-1635,GMT-08:00 America/Los_Angeles,-117.23,34.05
Starbucks,22997-226184,Mountain View & Barton,Company Owned,25775 Barton Road,Loma Linda,CA,US,92354,909-796-6325,GMT-08:00 America/Los_Angeles,-117.24,34.05
Starbucks,9346-96040,"Frederick & Hwy 60, Moreno Valley",Company Owned,"12515 Frederick Street, #1A, Lakeside Plaza",Moreno Valley,CA,US,925535265,951-653-0084,GMT-08:00 America/Los_Angeles,-117.26,33.94
Starbucks,11777-105633,Tippecanoe & Hospitality,Company Owned,"1760 S. Tippecanoe Ave., The Palm Travel Center",San Bernardino,CA,US,924084308,909-796-5216,GMT-08:00 America/Los_Angeles,-117.26,34.07
Starbucks,8944-94756,"Day & The 60 Fwy, Moreno Valley",Company Owned,"12430 Day Street, #C1",Moreno Valley,CA,US,925537537,951-653-7372,GMT-08:00 America/Los_Angeles,-117.28,33.94
Starbucks,10346-100564,I-10 & Waterman,Company Owned,126 E.  Redlands Blvd.,San Bernardino,CA,US,924083709,909-514-0747,GMT-08:00 America/Los_Angeles,-117.28,34.06
Starbucks,10433-97237,40th & Waterman,Company Owned,292 E. 40th Street,San Bernardino,CA,US,924041356,909-886-1326,GMT-08:00 America/Los_Angeles,-117.28,34.17
Starbucks,74834-98876,Vons - Lake Elsinore #2373,Licensed,31564 Grape St,Lake Elsinore,CA,US,925329700,951-245-2002,GMT-08:00 America/Los_Angeles,-117.29,33.66
Starbucks,8704-94421,Main & C,Company Owned,"16922 Main Street, Suite J, El Rancho Center",Hesperia,CA,US,923456011,760-949-3236,GMT-08:00 America/Los_Angeles,-117.29,34.42
Starbucks,10489-101005,Hesperia & Bear Valley,Company Owned,17003 Bear Valley Rd,Hesperia,CA,US,923451419,760-948-4300,GMT-08:00 America/Los_Angeles,-117.29,34.47
Starbucks,74873-96290,Vons-Victorville #2131,Licensed,12199 Hesperia Rd,Victorville,CA,US,923954756,760-241-2288,GMT-08:00 America/Los_Angeles,-117.29,34.47
Starbucks,6675-70480,"Grape & Railroad Canyon Road, Lake",Company Owned,"31800 Grape Street, #A",Lake Elsinore,CA,US,925329701,951-245-0755,GMT-08:00 America/Los_Angeles,-117.3,33.66
Starbucks,11465-105235,2nd & F Street,Company Owned,"601 W 2ND ST, University Village",SAN BERNARDINO,CA,US,924103205,909 381-3129,GMT-08:00 America/Los_Angeles,-117.3,34.1
Starbucks,73641-93058,Albertsons-Riverside #6514,Licensed,8938 Trautwein Rd,Riverside,CA,US,925089401,951-656-6603,GMT-08:00 America/Los_Angeles,-117.32,33.89
Starbucks,24630-223790,UCR at Glen Mor,Licensed,400 W Big Springs Rd,Riverside,CA,US,925070001,9518277567,GMT-08:00 America/Los_Angeles,-117.32,33.98
Starbucks,26191-243770,Valley Center & Lorene,Company Owned,14508 Valley Center,Victorville,CA,US,92395,760-552-2623,GMT-08:00 America/Los_Angeles,-117.32,34.51
Starbucks,6864-80841,"Wood & Van Buren, Riverside",Company Owned,"19040 Van Buren Blvd., 115",Riverside,CA,US,925089159,951-776-2330,GMT-08:00 America/Los_Angeles,-117.33,33.89
Starbucks,17691-164144,Alessandro & Mission Grove,Company Owned,"371 Alessandro Blvd., Galleria at Tyler",Riverside,CA,US,92508,9517762263,GMT-08:00 America/Los_Angeles,-117.33,33.92
Starbucks,9628-97235,"Canyon Crest & Central, Riverside",Company Owned,"5225 Canyon Crest Drive, 88",Riverside,CA,US,925076301,951-683-4981,GMT-08:00 America/Los_Angeles,-117.33,33.96
Starbucks,6462-40020,University & I-215,Company Owned,"4275 N. UNIVERSITY PARKWAY, The Shops at Tanforan",San Bernardino,CA,US,924077052,909-887-2256,GMT-08:00 America/Los_Angeles,-117.33,34.17
Starbucks,75232-103008,CSU/San Bernadino Student Union Rel,Licensed,5500 University Pkwy,San Bernardino,CA,US,924072393,909-880-7159,GMT-08:00 America/Los_Angeles,-117.33,34.18
Starbucks,75232-94113,CSU/San Bernadino - Commons Bldg,Licensed,5500 University Pkwy,San Bernardino,CA,US,924072393,909-880-7159,GMT-08:00 America/Los_Angeles,-117.33,34.18
Starbucks,11472-105237,Palmdale & Kentwood,Company Owned,15327 Palmdale Road,Victorville,CA,US,923922403,760 245-5192,GMT-08:00 America/Los_Angeles,-117.33,34.51
Starbucks,10672-101357,Roy Rogers & Civic Drive,Company Owned,"15617 Roy Rogers Dr., C1",Victorville,CA,US,923942154,760-843-3557,GMT-08:00 America/Los_Angeles,-117.33,34.52
Starbucks,10809-102531,"Collier & Central, Lake Elsinore",Company Owned,"18285 Collier Avenue, N",Lake Elsinore,CA,US,925302786,951-245-4701,GMT-08:00 America/Los_Angeles,-117.34,33.69
Starbucks,76693-98339,Target Lake Elsinore T-2195,Licensed,18287 Collier Ave,Lake Elsinore,CA,US,925302755,951-674-2620,GMT-08:00 America/Los_Angeles,-117.34,33.69
Starbucks,5370-1092,University & Iowa - Riverside,Company Owned,"1201 University Avenue, Ste. 101",Riverside,CA,US,925074506,(951) 274-9605,GMT-08:00 America/Los_Angeles,-117.34,33.98
Starbucks,10666-101361,"Blaine & Iowa, Riverside",Company Owned,"1280 W. Blaine Street, A",Riverside,CA,US,925079101,951-686-5947,GMT-08:00 America/Los_Angeles,-117.34,33.98
Starbucks,11466-105236,Bear Valley & Cottonwood,Company Owned,"14848 Bear Valley Road, Dunia Plaza",Victorville,CA,US,923959009,760 243-0613,GMT-08:00 America/Los_Angeles,-117.34,34.47
Starbucks,5903-34379,Bear Valley & I-15,Company Owned,"14329 Bear Valley Road, #5",Victorville,CA,US,923927643,760-244-8551,GMT-08:00 America/Los_Angeles,-117.35,34.47
Starbucks,11748-106190,Mall of Victor Valley First Floor,Company Owned,"14400 Bear Valley Rd, K07",Victorville,CA,US,923925470,760-245-2768,GMT-08:00 America/Los_Angeles,-117.35,34.47
Starbucks,9323-95841,Little League & I-215,Company Owned,3225 Little League Drive,San Bernardino,CA,US,92407,909-473-8940,GMT-08:00 America/Los_Angeles,-117.36,34.19
Starbucks,73659-95044,Albertsons-Lake Elsinore #6798,Licensed,"30901 Riverside Dr, Lake Elsinore City Center",Lake Elsinore,CA,US,925304934,951-245-5492,GMT-08:00 America/Los_Angeles,-117.37,33.69
Starbucks,11463-103816,"Van Buren & King, Riverside",Company Owned,"16810 Van Buren Blvd., 101",Riverside,CA,US,925045769,951-780-6576,GMT-08:00 America/Los_Angeles,-117.37,33.88
Starbucks,10889-102536,"3rd & Market , Riverside",Company Owned,3311 Market Street,Riverside,CA,US,925012828,9517829836,GMT-08:00 America/Los_Angeles,-117.37,33.99
Starbucks,2996-93285,Riverside & Valley,Company Owned,1611 S. Riverside Avenue,Rialto,CA,US,923767707,909-879-0279,GMT-08:00 America/Los_Angeles,-117.37,34.07
Starbucks,10222-99070,Riverside & I-210,Company Owned,2004 North Riverside,Rialto,CA,US,923774600,909-875-8452,GMT-08:00 America/Los_Angeles,-117.37,34.14
Starbucks,16007-162926,Target Riverside T-291,Licensed,3333 Arlington Ave,Riverside,CA,US,925063252,951-784-6430,GMT-08:00 America/Los_Angeles,-117.38,33.95
Starbucks,9454-95104,Main & Mountain Vista,Company Owned,13166 Main Street,Hesperia,CA,US,923454667,760-956-8674,GMT-08:00 America/Los_Angeles,-117.38,34.43
Starbucks,6977-39999,Arlington & 91 Fwy,Company Owned,3434 Arlington Avenue,Riverside,CA,US,925063921,9517820584,GMT-08:00 America/Los_Angeles,-117.39,33.95
Starbucks,74672-95989,Vons-Riverside #2659,Licensed,3520 Riverside Ave,Riverside,CA,US,92506,951-342-7924,GMT-08:00 America/Los_Angeles,-117.39,33.96
Starbucks,76970-136440,Super Target Hesperia ST-2468,Licensed,12795 Main St,Hesperia,CA,US,923459110,760-949-3062,GMT-08:00 America/Los_Angeles,-117.39,34.43
Starbucks,2892-91364,Arlington & Brockton,Company Owned,"3707 Arlington Avenue, Tyler Center",Riverside,CA,US,925062608,951-276-0924,GMT-08:00 America/Los_Angeles,-117.4,33.95
Starbucks,11236-104237,Arlington & Streeter,Company Owned,"5200 Arlington Avenue, Jurupa Valley Spectrum",Riverside,CA,US,925042604,951-509-2673,GMT-08:00 America/Los_Angeles,-117.42,33.95
Starbucks,76298-95039,Target-Fontana T-660,Licensed,16964 Slover Ave,Fontana,CA,US,923377556,909-356-4242,GMT-08:00 America/Los_Angeles,-117.43,34.06
Starbucks,10132-99746,Sierra & Jurupa,Company Owned,"11255 SIerra Avenue, 1",Fontana,CA,US,923377579,909-350-0667,GMT-08:00 America/Los_Angeles,-117.44,34.05
Starbucks,21888-206411,Sierra & Valley,Company Owned,10067 Sierra Avenue,Fontana,CA,US,92335,909-320-0082,GMT-08:00 America/Los_Angeles,-117.44,34.07
Starbucks,23759-232344,Sierra Lakes & Citrus,Company Owned,16595 Sierra Lakes Parkway,Fontana,CA,US,92336,909-368-3915,GMT-08:00 America/Los_Angeles,-117.44,34.14
Starbucks,16388-162744,Indian Truck & I-15,Company Owned,"11762 De Palma Road, 1A",Corona,CA,US,928835240,951-277-1834,GMT-08:00 America/Los_Angeles,-117.45,33.75
Starbucks,79760-108476,Vons - South Corona #2818,Licensed,11800 De Palma Road,SOUTH CORONA,CA,US,928838498,951-603-0810,GMT-08:00 America/Los_Angeles,-117.45,33.75
Starbucks,11025-103449,Van Buren & Arlington,Company Owned,"6390 Van Buren Blvd., 102",Riverside,CA,US,925032176,951-359-1385,GMT-08:00 America/Los_Angeles,-117.45,33.95
Starbucks,11226-104852,Foothill & Citrus,Company Owned,16192 Foothill Blvd,Fontana,CA,US,923353356,909 356-5254,GMT-08:00 America/Los_Angeles,-117.45,34.11
Starbucks,6616-67300,Magnolia & Tyler Center,Company Owned,"3782 Tyler Street, C, University Village",Riverside,CA,US,925034174,951-688-1210,GMT-08:00 America/Los_Angeles,-117.46,33.91
Starbucks,5369-1133,Galleria at Tyler Mall Floor 2,Company Owned,2264 Galleria at Tyler,Riverside,CA,US,925034144,951-637-0198,GMT-08:00 America/Los_Angeles,-117.46,33.91
Teavana,28381-250045,Teavana - Galleria at Tyler,Company Owned,"1299 Galleria at Tyler, #G209",Riverside,CA,US,92503,951-689-0525,GMT-08:00 America/Los_Angeles,-117.46,33.91
Starbucks,5685-5119,Clay & Limonite,Company Owned,"8022 Limonite Ave, Suite 107",Riverside,CA,US,925096117,9516817115,GMT-08:00 America/Los_Angeles,-117.46,33.98
Starbucks,10224-99737,La Sierra & Indiana,Company Owned,3312 La Sierra Ave.,Riverside,CA,US,925035224,951-509-0648,GMT-08:00 America/Los_Angeles,-117.47,33.9
Starbucks,76303-90544,Target Fontana North T-1958,Licensed,"15272 Summit Ave, Falconridge Town Center",Fontana,CA,US,923360231,909-463-7214,GMT-08:00 America/Los_Angeles,-117.47,34.15
Starbucks,2846-80381,Summit & I-15,Company Owned,"15270 Summit Avenue, #100",Fontana,CA,US,923360235,909-803-2571,GMT-08:00 America/Los_Angeles,-117.47,34.15
Starbucks,7974-95460,Pierce & 91 Fwy,Company Owned,"3950 Pierce Street, Suite N",Riverside,CA,US,925053809,951-359-1453,GMT-08:00 America/Los_Angeles,-117.49,33.9
Starbucks,74627-90542,Vons-Fontana #1742,Licensed,"7930 Cherry Ave, Fontana Retail Center",Fontana,CA,US,923364017,909-429-3928,GMT-08:00 America/Los_Angeles,-117.49,34.11
Starbucks,6449-39939,Baseline & I-15,Company Owned,13518 Baseline Avenue,Fontana,CA,US,923365473,909-899-3596,GMT-08:00 America/Los_Angeles,-117.51,34.12
Starbucks,29837-255025,Target Corona T-1548,Licensed,2615 Tuscany St,Corona,CA,US,92881,951-277-3075,GMT-08:00 America/Los_Angeles,-117.52,33.82
Starbucks,9621-97363,Cajalco & Highway 15,Company Owned,"2690 Tuscany Street, 101",Corona,CA,US,928814652,951-340-0424,GMT-08:00 America/Los_Angeles,-117.52,33.82
Starbucks,74567-79466,Vons-Corona #2381,Licensed,535 N McKinley St,Corona,CA,US,928791297,951-278-8012,GMT-08:00 America/Los_Angeles,-117.52,33.89
Starbucks,13306-105328,McKinley & Griffin,Company Owned,"344 N. McKinley St., 101, The Shops @ Sycamore Creek",Corona,CA,US,928797108,951-340-2002,GMT-08:00 America/Los_Angeles,-117.52,33.89
Starbucks,6978-82123,Ontario & I-15,Company Owned,1575 E. Ontario Ave.,Corona,CA,US,928813608,951-371-0497,GMT-08:00 America/Los_Angeles,-117.53,33.84
Starbucks,8942-263704,Victoria Gardens South Mainstreet,Company Owned,"12443 S. Mainstreet, Space 1250",Rancho Cucamonga,CA,US,91739,,GMT-08:00 America/Los_Angeles,-117.53,34.11
Teavana,28475-250162,Teavana - Victoria Gardens,Company Owned,"12478 N. Main St., Unit No. 3320",Rancho Cucamonga,CA,US,91701,909-463-1272,GMT-08:00 America/Los_Angeles,-117.53,34.11
Starbucks,20162-171186,Macy's-Victoria Gardens #533,Licensed,7855 Kew Ave,Rancho Cucamunga,CA,US,917398801,9096463333,GMT-08:00 America/Los_Angeles,-117.53,34.11
Starbucks,73223-21731,Albertsons-Corona #6796,Licensed,1260 E Ontario Ave,Corona,CA,US,928813600,951-734-8451,GMT-08:00 America/Los_Angeles,-117.54,33.85
Starbucks,9509-96446,Day Creek & Foothill,Company Owned,8025 Day Creek Blvd.,Rancho Cucamonga,CA,US,917398029,909-463-0423,GMT-08:00 America/Los_Angeles,-117.54,34.11
Starbucks,6673-65581,Day Creek & Highland,Company Owned,"12273 Highland Avenue, 100, Victoria Gardens",Rancho Cucamonga,CA,US,917392575,909-899-8960,GMT-08:00 America/Los_Angeles,-117.54,34.13
Starbucks,9627-96925,Jurupa & I-15,Company Owned,"4880 E. Motor Lane, B",Ontario,CA,US,917612251,909-974-0174,GMT-08:00 America/Los_Angeles,-117.55,34.05
Starbucks,17852-181644,Ontario Mills Mall Floor 1,Company Owned,"1 Mills Circle, 319, Village at Ontario Center",Ontario,CA,US,917645209,909-481-6814,GMT-08:00 America/Los_Angeles,-117.55,34.07
Starbucks,26799-243984,Ontario Mills Mall 2,Company Owned,"1 Mills Circle, KI01",Ontario,CA,US,91764,9092297474,GMT-08:00 America/Los_Angeles,-117.55,34.07
Teavana,28549-250026,Teavana - Ontario Mills,Company Owned,"One Mills Circle, #707",Ontario,CA,US,91764,909-484-5931,GMT-08:00 America/Los_Angeles,-117.55,34.07
Starbucks,5453-238624,Ontario Mills & Mills Circle,Company Owned,"960 Ontario Mills Drive, Vineyard & Walnut",Ontario,CA,US,91764,9099878303,GMT-08:00 America/Los_Angeles,-117.55,34.08
Starbucks,5715-5488,Magnolia & Ontario,Company Owned,"469 Magnolia Ave, #110",Corona,CA,US,928793303,951-280-0953,GMT-08:00 America/Los_Angeles,-117.56,33.85
Starbucks,76197-92524,Target Norco T-736,Licensed,1290 Hamner Ave,Norco,CA,US,928603117,951-371-1872,GMT-08:00 America/Los_Angeles,-117.56,33.9
Starbucks,11596-104820,Hidden Valley & The 15 Fwy,Company Owned,455 Hidden Valley Parkway,Norco,CA,US,928603972,951-272-0274,GMT-08:00 America/Los_Angeles,-117.56,33.9
Starbucks,9549-96447,6th Street & Hamner,Company Owned,"3699 Hamner Avenue, #A",Norco,CA,US,928603624,951-808-4832,GMT-08:00 America/Los_Angeles,-117.56,33.94
Starbucks,8902-93274,Limonite and Hamner,Company Owned,"12700 Limonite Avenue, C-1",Corona,CA,US,928809630,951-738-8256,GMT-08:00 America/Los_Angeles,-117.56,33.98
Starbucks,76397-95760,Target Mira Loma T-1961,Licensed,"12471 Limonite Ave, Mission Hills Village",Mira Loma,CA,US,917522457,951-256-5261,GMT-08:00 America/Los_Angeles,-117.56,33.98
Starbucks,74670-96200,Vons-Riverside #2688,Licensed,6170 Hamner Ave,Riverside,CA,US,92505,951-360-1901,GMT-08:00 America/Los_Angeles,-117.56,33.98
Starbucks,6940-83521,Milliken & 4th,Company Owned,1041 N. Milliken Avenue,Ontario,CA,US,917645023,909-481-6117,GMT-08:00 America/Los_Angeles,-117.56,34.08
Starbucks,76744-106253,Target Ontario T-2245,Licensed,4200 E 4th St,Ontario,CA,US,917645250,909-579-3040,GMT-08:00 America/Los_Angeles,-117.56,34.08
Starbucks,26995-245954,Ralphs Rancho Cucamonga # 13,Licensed,7369 Milliken Ave,Rancho Cucamonga,CA,US,91730,909-944-4827,GMT-08:00 America/Los_Angeles,-117.56,34.12
Starbucks,73545-53560,Albertsons - Rancho Cucamonga #6520,Licensed,"11358 Kenyon Way, Terra Vista Village",Rancho Cucamonga,CA,US,917019231,909-941-7166,GMT-08:00 America/Los_Angeles,-117.56,34.14
Starbucks,6752-75820,Foothill & Spruce,Company Owned,10831 Foothill Blvd.,Rancho Cucamonga,CA,US,917303859,909-466-0622,GMT-08:00 America/Los_Angeles,-117.57,34.11
Starbucks,3940-146324,Target Rancho Cucamonga T-301,Licensed,10576 Foothill Blvd,Rancho Cucamonga,CA,US,917303890,,GMT-08:00 America/Los_Angeles,-117.57,34.11
Starbucks,5916-35279,Baseline & Haven,Company Owned,"10540 Baseline Road, B",Rancho Cucamonga,CA,US,917016328,909-581-1295,GMT-08:00 America/Los_Angeles,-117.57,34.12
Starbucks,5267-433,Santa Margarita Pkwy & Antonio Pkwy,Company Owned,31437 Santa Margarita Parkway,Rancho Santa Margarita,CA,US,926881831,(949) 888-8510,GMT-08:00 America/Los_Angeles,-117.58,33.65
Starbucks,15955-106079,Albertsons - Corona #6641,Licensed,"7070 Archibald St, Corona Crossing",Corona,CA,US,92880,951-279-0333,GMT-08:00 America/Los_Angeles,-117.59,33.96
Starbucks,20179-179044,Archibald & Schleisman,Company Owned,"14268 Schleisman Road, 440",Eastvale,CA,US,92880,951-737-7259,GMT-08:00 America/Los_Angeles,-117.59,33.96
Starbucks,20768-206407,Archibald & 60 fwy,Company Owned,2548 S. Archibald Ave,Ontario,CA,US,91761,909-930-1040,GMT-08:00 America/Los_Angeles,-117.59,34.03
Starbucks,2823-95248,Archibald & Inland Empire,Company Owned,791 N. Archibald Avenue,Ontario,CA,US,917644600,909-605-6518,GMT-08:00 America/Los_Angeles,-117.59,34.07
Starbucks,9625-95615,Foothill & Archibald,Company Owned,9754 Foothill Blvd.,Rancho Cucamonga,CA,US,917303694,909-483-6876,GMT-08:00 America/Los_Angeles,-117.59,34.11
Starbucks,76395-92526,Target Rancho Santa Margarita T-914,Licensed,30602 Santa Margarita Pkwy,Rancho Santa Margarita,CA,US,926882815,949-459-1543,GMT-08:00 America/Los_Angeles,-117.6,33.64
Starbucks,6531-39920,Vineyard & Walnut,Company Owned,2570 S. Vineyard Avenue,Ontario,CA,US,917616481,909-947-6650,GMT-08:00 America/Los_Angeles,-117.61,34.03
Starbucks,11746-104778,Vineyard & Holt,Company Owned,111 N. Vineyard Avenue,Ontario,CA,US,917644494,909-390-2759,GMT-08:00 America/Los_Angeles,-117.61,34.06
Starbucks,47588-258973,Albertsons - Rancho Cucamonga 3177,Licensed,"8850 Foothill Blvd, Day Creek Village",Rancho Cucamonga,CA,US,91730,909-484-7237,GMT-08:00 America/Los_Angeles,-117.61,34.11
Starbucks,74525-63240,Vons-Rancho Cucamonga #2147,Licensed,8778  19th St,Rancho Cucamonga,CA,US,917014608,909-989-1000,GMT-08:00 America/Los_Angeles,-117.61,34.13
Starbucks,13681-108130,Carnelian & 19th,Company Owned,"8678 19th Street, 100",Rancho Cucamonga,CA,US,917014559,909-481-2784,GMT-08:00 America/Los_Angeles,-117.62,34.13
Starbucks,49572-267936,Albertsons -Upland #599,Licensed,1910 N. Campus Ave,Upland,CA,US,91784,909-946-4447,GMT-08:00 America/Los_Angeles,-117.64,34.13
Starbucks,8858-94195,Campus & 19th,Company Owned,"1943 North Campus Avenue, #D",Upland,CA,US,917848218,909-931-4419,GMT-08:00 America/Los_Angeles,-117.64,34.13
Starbucks,76304-90543,Target Upland T-1834,Licensed,1931 N Campus Ave,Upland,CA,US,917841667,909-985-0348,GMT-08:00 America/Los_Angeles,-117.64,34.13
Starbucks,5268-436,Santa Margarita & Los Alisos,Company Owned,27698 Santa Margarita Parkway,Mission Viejo,CA,US,926916674,(949) 830-8374,GMT-08:00 America/Los_Angeles,-117.65,33.65
Starbucks,6812-79895,Portola & Glenn Ranch Rd,Company Owned,"27412 Portola Parkway, G",Lake Forest,CA,US,92630,949-597-0675,GMT-08:00 America/Los_Angeles,-117.65,33.67
Starbucks,74589-83729,Vons-Upland #2681,Licensed,81 West Foothill Blvd,Upland,CA,US,917863846,909-981-7709,GMT-08:00 America/Los_Angeles,-117.65,34.11
Starbucks,19791-199544,Green River Road & SR-91,Company Owned,4718 Green River Road,Corona,CA,US,92880,951-582-9533,GMT-08:00 America/Los_Angeles,-117.66,33.88
Starbucks,10424-97308,Lake Forest & Dimension,Company Owned,20790 Lake Forest Drive,Lake Forest,CA,US,926307737,949-457-1134,GMT-08:00 America/Los_Angeles,-117.67,33.66
Starbucks,76347-88962,Target Foothill Ranch T-913,Licensed,26792 Portola Pkwy,Foothill Ranch,CA,US,926101712,714-454-2360,GMT-08:00 America/Los_Angeles,-117.67,33.69
Starbucks,26570-244451,Mountain & 60,Company Owned,"2304 South Mountain Avenue, Ontario Mills",Ontario,CA,US,91762,909-229-1162,GMT-08:00 America/Los_Angeles,-117.67,34.03
Starbucks,7967-94940,Mountain & 6th,Company Owned,"1520 N. Mountain Ave., B",Ontario,CA,US,917621128,909-391-4245,GMT-08:00 America/Los_Angeles,-117.67,34.09
Starbucks,6428-39980,Foothill & Mullberry,Company Owned,"1013 W. Foothill Blvd., A",Upland,CA,US,917863788,909-981-6424,GMT-08:00 America/Los_Angeles,-117.67,34.11
Starbucks,28797-250719,Alton Pkwy & Rancho Pkwy South,Company Owned,20451 Alton Pkwy,Lake Forest,CA,US,92610,9493223785,GMT-08:00 America/Los_Angeles,-117.68,33.68
Starbucks,24325-237107,Central & The I-10,Company Owned,"9389 Central Avenue, B",Montclair,CA,US,91763,909-519-5296,GMT-08:00 America/Los_Angeles,-117.69,34.08
Starbucks,17693-180530,Montclair Plaza First Floor,Company Owned,"5060 East Montclair Plaza, Suite 5067",Montclair,CA,US,917631500,909-399-5728,GMT-08:00 America/Los_Angeles,-117.69,34.09
Starbucks,669-443,Central & Olive,Company Owned,"9015-A Central Ave, Mart of Montebello",Montclair,CA,US,917631646,(909) 399-9938,GMT-08:00 America/Los_Angeles,-117.69,34.09
Starbucks,5600-1912,Bake & Trabuco,Company Owned,"24531-A Trabuco Road, Lake Forest Village",Lake Forest,CA,US,926302162,949-837-8841,GMT-08:00 America/Los_Angeles,-117.7,33.66
Starbucks,47250-256930,Holt & Ramona,Company Owned,"4490 Holt Blvd, Suite A",Montclair,CA,US,91763,909-294-0620,GMT-08:00 America/Los_Angeles,-117.71,34.06
Starbucks,28506-250713,Los Olivos Market Place,Company Owned,"8539 Irvine Center Drive, #530",Irvine,CA,US,92618,9492337860,GMT-08:00 America/Los_Angeles,-117.74,33.65
Starbucks,5427-1315,Alton & Technology,Company Owned,15342 Alton Parkway,Irvine,CA,US,926182362,949-788-0034,GMT-08:00 America/Los_Angeles,-117.74,33.65
Starbucks,11456-103990,Woodbury Town Center,Company Owned,6364 Irvine Blvd.,Irvine,CA,US,926202102,949-786-0825,GMT-08:00 America/Los_Angeles,-117.74,33.7
Starbucks,29620-254406,Foothill & Lynoak,Company Owned,517 East Foothill Blvd,Pomona,CA,US,91767,(909) 973-9058,GMT-08:00 America/Los_Angeles,-117.74,34.11
Starbucks,76587-97572,Target Irvine/Spectrum T-2128,Licensed,"115 Fortune Dr, Foodpark",Irvine,CA,US,926182946,949-885-0114,GMT-08:00 America/Los_Angeles,-117.75,33.65
Starbucks,11457-103997,The Village Apartments,Company Owned,"38 Prism, Sand Canyon Plaza",Irvine,CA,US,926183139,949-453-8212,GMT-08:00 America/Los_Angeles,-117.75,33.65
Starbucks,11164-99769,Irvine Spectrum Mall,Company Owned,525 Spectrum Center Drive,Irvine,CA,US,926182951,949-585-0051,GMT-08:00 America/Los_Angeles,-117.75,33.65
Starbucks,6870-76140,"Garey & Mission, Pomona",Company Owned,"101 W. Mission Blvd., Suite 106",Pomona,CA,US,917661709,909-469-4721,GMT-08:00 America/Los_Angeles,-117.75,34.06
Starbucks,23599-231366,Garey & Alvarado,Company Owned,1010 North Garey Avenue,Pomona,CA,US,91768,9097849273,GMT-08:00 America/Los_Angeles,-117.75,34.07
Starbucks,10999-102287,Irvine Center Drive & Sand Canyon,Company Owned,6580 Irvine Center Drive,Irvine,CA,US,926182115,949-450-0534,GMT-08:00 America/Los_Angeles,-117.76,33.67
Starbucks,6863-83065,Jeffrey & Trabuco,Company Owned,14061 Jeffrey Road,Irvine,CA,US,926203402,949-726-0874,GMT-08:00 America/Los_Angeles,-117.76,33.7
Starbucks,10112-97117,"Rio Rancho & The 71, Pomona",Company Owned,"68 Rio Ranch Road, 101",Pomona,CA,US,917664771,909-623-9285,GMT-08:00 America/Los_Angeles,-117.76,34.03
Starbucks,76577-99296,Target La Verne T-226,Licensed,2462 Foothill Blvd,La Verne,CA,US,917503056,909-593-2421,GMT-08:00 America/Los_Angeles,-117.76,34.11
Starbucks,7972-95559,"Foothill & D Street, La Verne",Company Owned,"2145 Foothill Blvd., #C",La Verne,CA,US,917502910,909-593-1271,GMT-08:00 America/Los_Angeles,-117.76,34.11
Starbucks,5741-5526,Culver & Irvine,Company Owned,3997 Irvine Blvd.,Irvine,CA,US,926022400,714-734-9757,GMT-08:00 America/Los_Angeles,-117.77,33.72
Starbucks,19857-198885,Target Pomona T-2831,Licensed,701 Rio Rancho Rd,Pomona,CA,US,91766,909-634-3151,GMT-08:00 America/Los_Angeles,-117.77,34.03
Starbucks,79737-104055,Vons - La Verne #2832,Licensed,"1500 FOOTHILL BL., Gateway Pointe",LA VERNE,CA,US,917503434,909-513-2572,GMT-08:00 America/Los_Angeles,-117.77,34.12
Starbucks,8641-93571,Quail Hill & Shady Canyon,Company Owned,6783 Quail Hill Parkway,Irvine,CA,US,926034233,949-509-6436,GMT-08:00 America/Los_Angeles,-117.78,33.65
Starbucks,5450-1464,Yorba Linda & Village Center Dr,Company Owned,"20355 Yorba Linda Blvd, Valley View Shopping Center",Yorba Linda,CA,US,928863074,714-701-0809,GMT-08:00 America/Los_Angeles,-117.78,33.89
Starbucks,5779-16456,Foothill & Wheeler- La Verne,Company Owned,1181 Foothill Boulevard,La Verne,CA,US,917503328,909-392-3335,GMT-08:00 America/Los_Angeles,-117.78,34.12
Starbucks,5416-1261,Alton Pkwy & Jeffrey Rd,Company Owned,5365-B Alton Parkway,Irvine,CA,US,926048612,(949) 857-8102,GMT-08:00 America/Los_Angeles,-117.79,33.67
Starbucks,515-459,Walnut Village,Company Owned,14437 Culver Drive,Irvine,CA,US,926040305,949-857-2737,GMT-08:00 America/Los_Angeles,-117.79,33.71
Starbucks,11028-87826,Tustin Marketplace,Company Owned,2959 El Camino Real,Tustin,CA,US,927828905,714-505-3466,GMT-08:00 America/Los_Angeles,-117.79,33.72
Starbucks,47758-258884,Target Irvine North T1238,Licensed,13200 Jamboree Rd,Irvine,CA,US,92602,714-838-1209,GMT-08:00 America/Los_Angeles,-117.79,33.73
Starbucks,23518-215007,Jamboree & Bryan,Company Owned,13384 Jamboree Rd.,Irvine,CA,US,92602,949-447-9482,GMT-08:00 America/Los_Angeles,-117.79,33.73
Starbucks,21925-156786,"Ralph's-Tustin Ranch, CA #139",Licensed,13321 Jamboree Rd,Tustin,CA,US,927829159,,GMT-08:00 America/Los_Angeles,-117.79,33.73
Starbucks,13226-106936,"Fairplex & I-10, Pomona",Company Owned,2101 Murchison Ave,Pomona,CA,US,917681145,909-629-3194,GMT-08:00 America/Los_Angeles,-117.79,34.07
Starbucks,73565-67160,Albertsons-Orange #6585,Licensed,4550 E Chapman Ave,Orange,CA,US,928694109,714-771-3139,GMT-08:00 America/Los_Angeles,-117.8,33.79
Starbucks,6461-46581,"Temple & Mission, Pomona",Company Owned,3044 Temple Avenue,Pomona,CA,US,917666816,909-865-7767,GMT-08:00 America/Los_Angeles,-117.8,34.04
Starbucks,73584-23068,Albertsons-San Dimas #6594,Licensed,SEC San Dimas & Bonita,San Dimas,CA,US,91773,909-599-8836,GMT-08:00 America/Los_Angeles,-117.8,34.11
Starbucks,3454-91640,Alton & Culver,Company Owned,3995 Alton Pkwy,Irvine,CA,US,926068270,949-553-0071,GMT-08:00 America/Los_Angeles,-117.81,33.68
Starbucks,20913-208486,Target Irvine T-336,Licensed,"3750 Barraca Pkwy, Irwindale Commerce Center",Irvine,CA,US,92606,949-857-8337,GMT-08:00 America/Los_Angeles,-117.81,33.69
Starbucks,29895-254545,Albertsons #6574 @ Tustin,Licensed,13270 Newport Avenue,Tustin,CA,US,92780,714-544-8525,GMT-08:00 America/Los_Angeles,-117.81,33.75
Starbucks,5894-17215,Chapman & Swidler,Company Owned,3630 E. Chapman Ave,Orange,CA,US,928693847,714-997-9174,GMT-08:00 America/Los_Angeles,-117.81,33.79
Starbucks,28053-248946,Pomona & Temple,Company Owned,3423 Pomona Boulevard,Pomona,CA,US,91768,909-973-9053,GMT-08:00 America/Los_Angeles,-117.81,34.05
Starbucks,9253-96095,"Bonita & San Dimas, San Dimas",Company Owned,"114 E. Bonita Avenue, Mission Plaza",San Dimas,CA,US,917733003,909-592-2791,GMT-08:00 America/Los_Angeles,-117.81,34.11
Starbucks,73668-93063,Albertsons-Irvine #6596,Licensed,"3825 Alton Pkwy, Woodbury Town Center",Irvine,CA,US,926068203,949-476-1922,GMT-08:00 America/Los_Angeles,-117.82,33.68
Starbucks,6475-60801,Redhill & El Camino Real,Company Owned,"1450 El Camino Real, A",Tustin,CA,US,927804680,714-368-3462,GMT-08:00 America/Los_Angeles,-117.82,33.73
Starbucks,552-494,Newport & Bryan,Company Owned,"552 E First Street, The Market Place",Tustin,CA,US,927803313,(714) 730-4743,GMT-08:00 America/Los_Angeles,-117.82,33.74
Starbucks,76687-102983,Target Diamond Bar T-2179,Licensed,747 Grand Ave,Diamond Bar,CA,US,917658400,909-610-2149,GMT-08:00 America/Los_Angeles,-117.82,34
Starbucks,5681-219126,Grand & Golden Springs,Company Owned,"22438 Golden Springs Drive, Suite 100",Diamond Bar,CA,US,91765,9098607030,GMT-08:00 America/Los_Angeles,-117.82,34.01
Starbucks,75469-107379,Cal Poly Pomona Library,Licensed,"3801 West Temple Ave, Mission Promenade",Pomona,CA,US,917682557,909-869-4744,GMT-08:00 America/Los_Angeles,-117.82,34.06
Starbucks,76658-99293,Target San Dimas T-767,Licensed,"888 W Arrow Hwy, San Dimas",San Dimas,CA,US,917732495,9093940335,GMT-08:00 America/Los_Angeles,-117.82,34.1
Starbucks,622-345,Campus & California,Company Owned,4545 Campus Drive,Irvine,CA,US,926122621,(949) 854-2301,GMT-08:00 America/Los_Angeles,-117.83,33.65
Starbucks,17356-160395,Von Karman & Barranca,Company Owned,16567 Von Karman Avenue,Irvine,CA,US,926064928,949-474-0613,GMT-08:00 America/Los_Angeles,-117.83,33.7
Starbucks,76729-97571,Target Irvine/Tustin T-2151,Licensed,2340 Park Ave,Tustin,CA,US,927822702,714-361-2100,GMT-08:00 America/Los_Angeles,-117.83,33.7
Starbucks,9256-95342,Red Hill & Edinger,Company Owned,"1631 Edinger Avenue, 101",Tustin,CA,US,927806535,714-259-0362,GMT-08:00 America/Los_Angeles,-117.83,33.72
Starbucks,6843-82601,17th & Tustin,Company Owned,2302 E. 17th Street,Santa Ana,CA,US,927058609,714-568-9884,GMT-08:00 America/Los_Angeles,-117.83,33.76
Starbucks,5506-746,17th & Yorba Street,Company Owned,17245 17th Street,Tustin,CA,US,927801974,(714) 832-6883,GMT-08:00 America/Los_Angeles,-117.83,33.76
Starbucks,6488-53879,Yorba Linda & Valley View,Company Owned,17474 Yorba Linda Boulevard,Yorba Linda,CA,US,928863847,714-524-0019,GMT-08:00 America/Los_Angeles,-117.83,33.89
Starbucks,5317-861,San Dimas,Company Owned,942 W. Arrow Highway,San Dimas,CA,US,917732419,(909) 599-7338,GMT-08:00 America/Los_Angeles,-117.83,34.11
Starbucks,9548-96260,"Route 66 & Lone Hill, Glendora",Company Owned,"1832 East Route 66, A",Glendora,CA,US,917403804,626-857-1879,GMT-08:00 America/Los_Angeles,-117.83,34.13
Starbucks,23943-212684,U of California Irvine-Business Sch,Licensed,4293 Pereira Dr,Irvine,CA,US,92697,949-824-0493,GMT-08:00 America/Los_Angeles,-117.84,33.65
Starbucks,75398-103405,University of California-Irvine,Licensed,"203 B Student Ctr, Trabuco Grove",Irvine,CA,US,92697,949-824-2233,GMT-08:00 America/Los_Angeles,-117.84,33.65
Starbucks,20537-206365,Edinger & 55 Fwy,Company Owned,15071 Newport Avenue,Tustin,CA,US,92780,7142590587,GMT-08:00 America/Los_Angeles,-117.84,33.72
Starbucks,20437-201808,Crevier BMW,Licensed,1500 Auto Mall Dr,Santa Ana,CA,US,92705,,GMT-08:00 America/Los_Angeles,-117.84,33.73
Starbucks,20402-160226,Chapman & Tustin,Company Owned,1630 E. Chapman Blvd.,Orange,CA,US,92866,7142893682,GMT-08:00 America/Los_Angeles,-117.84,33.79
Starbucks,73398-23312,Albertsons-Orange #6534,Licensed,940 N Tustin Ave,Orange,CA,US,928675956,714-633-2570,GMT-08:00 America/Los_Angeles,-117.84,33.8
Starbucks,5704-6593,Tustin & Meats,Company Owned,"2115 Tustin St, #2",Orange,CA,US,928653745,714-921-2109,GMT-08:00 America/Los_Angeles,-117.84,33.82
Starbucks,74566-79465,Vons-Orange #2335,Licensed,2684 N Tustin Ave,Orange,CA,US,928652438,714-637-6651,GMT-08:00 America/Los_Angeles,-117.84,33.83
Starbucks,23600-231364,Tustin & Lincoln,Company Owned,2734 Tustin Avenue,Orange,CA,US,92865,714-685-0287,GMT-08:00 America/Los_Angeles,-117.84,33.83
Starbucks,19835-195004,Ralph's - Placentia #756,Licensed,"710 N Rose Dr, Missouri Flat Village",Placentia,CA,US,92870,714-524-3984,GMT-08:00 America/Los_Angeles,-117.84,33.88
Starbucks,11224-103807,"Diamond Bar & Cold Spring, Diamond",Company Owned,2837 Diamond Bar Blvd.,Diamond Bar,CA,US,917653417,909-595-4719,GMT-08:00 America/Los_Angeles,-117.84,33.97
Starbucks,6803-41819,"Valley & Grand, Walnut",Company Owned,505-A Grand Avenue,Walnut,CA,US,917892144,909-598-4459,GMT-08:00 America/Los_Angeles,-117.84,34.03
Starbucks,14009-108044,Jamboree & Michelson - Park Place,Company Owned,"2961 Michelson Drive, Westpark Plaza",Irvine,CA,US,926122628,(949) 250-9250,GMT-08:00 America/Los_Angeles,-117.85,33.67
Starbucks,75578-51201,Marriott Irvine - Lobby,Licensed,18000 Von Karman,Irvine,CA,US,926121004,949-724-3630,GMT-08:00 America/Los_Angeles,-117.85,33.68
Starbucks,49184-252850,Embassy Suites Irvine Lobby,Licensed,2120 Main Street,Irvine,CA,US,92614,9495538332,GMT-08:00 America/Los_Angeles,-117.85,33.68
Starbucks,9255-95871,17th & Grand,Company Owned,"1248 East 17th Street, Bristol Plaza",Santa Ana,CA,US,927012621,714-836-6975,GMT-08:00 America/Los_Angeles,-117.85,33.76
Starbucks,22365-220168,Target Santa Ana T-286,Licensed,1330 E 17th St,Santa Ana,CA,US,92705,714-541-4593,GMT-08:00 America/Los_Angeles,-117.85,33.76
Starbucks,24461-235456,Sodexo @ Chapman University,Licensed,"393 N Glassell St, Galleria L'Orange",Orange,CA,US,92866,714-628-7338,GMT-08:00 America/Los_Angeles,-117.85,33.79
Starbucks,5511-1447,Plaza Square & East Chapman,Company Owned,101 East Chapman Avenue,Orange,CA,US,928661483,(714) 628-9622,GMT-08:00 America/Los_Angeles,-117.85,33.79
Starbucks,14020-108042,Chapman & Glassell,Company Owned,44 Plaza Square,Orange,CA,US,928661432,(714) 288-9754,GMT-08:00 America/Los_Angeles,-117.85,33.79
Starbucks,5661-1948,Jamboree & Birch,Company Owned,4551 Jamboree Road,Newport Beach,CA,US,926602519,949-261-1779,GMT-08:00 America/Los_Angeles,-117.86,33.66
Starbucks,5216-429,Mac Arthur & Campus,Company Owned,4678 Campus Drive,Newport Beach,CA,US,926601840,(949) 553-0629,GMT-08:00 America/Los_Angeles,-117.86,33.67
Starbucks,26857-245668,SNA - Baggage Claim,Licensed,18601 Airport Wy,Santa Ana,CA,US,92707,949-252-6125,GMT-08:00 America/Los_Angeles,-117.86,33.68
Starbucks,16398-168226,SNA-Terminal C,Licensed,18601 Airport Way,Santa Ana,CA,US,927075200,,GMT-08:00 America/Los_Angeles,-117.86,33.68
Starbucks,16396-168225,SNA-Terminal B,Licensed,"18601 Airport Way, #135",Santa Ana,CA,US,927075200,949-252-6125,GMT-08:00 America/Los_Angeles,-117.86,33.68
Starbucks,16395-168224,SNA-Terminal A,Licensed,"18601 Airport Way, #135, Bristol Warner Village",Santa Ana,CA,US,927075200,,GMT-08:00 America/Los_Angeles,-117.86,33.68
Starbucks,5951-7750,MacArthur & Main,Company Owned,17913 MacArthur Blvd.,Irvine,CA,US,926146505,949-752-0681,GMT-08:00 America/Los_Angeles,-117.86,33.69
Starbucks,24801-220165,Aramark @ St. Joseph Hospital,Licensed,1100 W Stewart Dr,Orange,CA,US,92868,,GMT-08:00 America/Los_Angeles,-117.86,33.78
Starbucks,17655-168485,Valley & Lemon,Company Owned,"20373 East Valley Blvd, Suite A, Broadway Plaza",Walnut,CA,US,91789,9094685109,GMT-08:00 America/Los_Angeles,-117.86,34.01
Starbucks,73523-36440,Albertsons-Glendora #6601,Licensed,133 West Route 66,Glendora,CA,US,917406208,626-963-5358,GMT-08:00 America/Los_Angeles,-117.86,34.13
Starbucks,74624-94035,Vons-Glendora #2169,Licensed,435 E Foothill Blvd,Glendora,CA,US,917412653,626-963-2913,GMT-08:00 America/Los_Angeles,-117.86,34.14
Starbucks,14018-108041,Jamboree & Bristol,Company Owned,3601 Jamboree Road,Newport Beach,CA,US,926602961,(949) 474-0839,GMT-08:00 America/Los_Angeles,-117.87,33.66
Starbucks,6604-15916,MacArthur & Hutton,Company Owned,"2 Hutton Centre Drive, #100",Santa Ana,CA,US,927075704,714-545-5154,GMT-08:00 America/Los_Angeles,-117.87,33.7
Starbucks,8941-95244,4th & Broadway,Company Owned,301 W. 4th Street,Santa Ana,CA,US,927014502,714-564-0591,GMT-08:00 America/Los_Angeles,-117.87,33.75
Starbucks,5724-5909,Main & Town and Country,Company Owned,"691 S. Main Street, #100",Orange,CA,US,928684686,714-647-0871,GMT-08:00 America/Los_Angeles,-117.87,33.78
Starbucks,22998-208625,Westfield Mainplace Mall-Lower Lvl,Company Owned,2800 N. Main Street,Santa Ana,CA,US,927056607,714-547-7140,GMT-08:00 America/Los_Angeles,-117.87,33.78
Starbucks,6526-46619,Chapman & Main,Company Owned,"130 S. Main Street, E",Orange,CA,US,928682869,714-634-2338,GMT-08:00 America/Los_Angeles,-117.87,33.79
Starbucks,10713-100776,Katella & Main,Company Owned,1627 West Katella Avenue,Orange,CA,US,928673412,714-744-4162,GMT-08:00 America/Los_Angeles,-117.87,33.81
Starbucks,73502-69562,Albertsons-Fullerton #6119,Licensed,1930 N Placentia Ave,Fullerton,CA,US,928311522,714-792-2880,GMT-08:00 America/Los_Angeles,-117.87,33.89
Starbucks,541-91363,Yorba Linda & Bradford,Company Owned,3362 Yorba Linda Blvd,Fullerton,CA,US,928311709,714-577-8620,GMT-08:00 America/Los_Angeles,-117.87,33.89
Starbucks,5582-1849,Colima Rd. & Fairway Dr.,Company Owned,"19759 E. Colima Rd., Suite #1",Rowland Heights,CA,US,917483211,909-869-6127,GMT-08:00 America/Los_Angeles,-117.87,33.99
Starbucks,8747-94755,"N. Grand Ave & Badillo St, Covina.",Company Owned,966 E. Badillo Street,Covina,CA,US,917242950,626-858-9744,GMT-08:00 America/Los_Angeles,-117.87,34.09
Starbucks,5424-1330,Foothill & Grand - Glendora,Company Owned,459 W. Foothill Blvd.,Glendora,CA,US,917413363,(626) 852-0093,GMT-08:00 America/Los_Angeles,-117.87,34.14
Starbucks,22637-222604,Bristol & Red Hill,Company Owned,250 Bristol Street,Costa Mesa,CA,US,92626,7147082961,GMT-08:00 America/Los_Angeles,-117.88,33.67
Starbucks,6466-56439,Anton & Sakioka,Company Owned,"545 Anton Blvd, Suite 101",Costa Mesa,CA,US,926267168,714-557-4377,GMT-08:00 America/Los_Angeles,-117.88,33.69
Starbucks,2884-92820,Bristol & MacArthur,Company Owned,3345 S. Bristol Street,Santa Ana,CA,US,927047245,714-437-7323,GMT-08:00 America/Los_Angeles,-117.88,33.7
Starbucks,10005-97691,Bristol & Warner,Company Owned,2303 S. Bristol Street,Santa Ana,CA,US,927045755,714-957-2749,GMT-08:00 America/Los_Angeles,-117.88,33.72
Starbucks,6754-69680,Bristol & Memory Lane,Company Owned,"2701 N. Bristol Street, #A, MacArthur & Hutton Centre",Santa Ana,CA,US,927061447,714-834-9568,GMT-08:00 America/Los_Angeles,-117.88,33.77
Starbucks,70070-103406,Cal State Fullerton-School Business,Licensed,800 N State College Blvd,Fullerton,CA,US,928313547,714-278-8648,GMT-08:00 America/Los_Angeles,-117.88,33.88
Starbucks,11031-95816,"Barranca & I-10, West Covina",Company Owned,101 N. Barranca,West Covina,CA,US,917911629,626-966-5841,GMT-08:00 America/Los_Angeles,-117.88,34.07
Starbucks,16012-155904,Macy's South Coast Plaza #523,Licensed,"3333 Bristol St, Costa Mesa Square",Costa Mesa,CA,US,926261873,7145560611,GMT-08:00 America/Los_Angeles,-117.89,33.69
Starbucks,26039-243267,Bear & South Coast Plaza,Company Owned,3333 Bear Street,Costa Mesa,CA,US,92626,949-244-2082,GMT-08:00 America/Los_Angeles,-117.89,33.69
Starbucks,6751-27533,South Coast Plaza 2nd Floor,Company Owned,"3333 Bristol Street, #2066",Costa Mesa,CA,US,926261822,714-545-8306,GMT-08:00 America/Los_Angeles,-117.89,33.69
Starbucks,5302-446,Metro Pointe,Company Owned,"901 South Coast Drive, South Coast Plaza",Costa Mesa,CA,US,926261747,(714) 429-1782,GMT-08:00 America/Los_Angeles,-117.89,33.69
Teavana,28361-249859,Teavana - South Coast Plaza,Company Owned,"3333 Bristol St., #2009, Harbor Center",Costa Mesa,CA,US,92626,714-545-3574,GMT-08:00 America/Los_Angeles,-117.89,33.69
Starbucks,74824-99595,Vons - Santa Ana #1626,Licensed,3650 Bristol St,Santa Ana,CA,US,927047302,714-540-0510,GMT-08:00 America/Los_Angeles,-117.89,33.7
Starbucks,15843-156788,Target Santa Ana T-250,Licensed,3300 S Bristol St,Santa Ana,CA,US,927047246,714-641-4944,GMT-08:00 America/Los_Angeles,-117.89,33.7
Starbucks,15729-160027,17th & Bristol,Company Owned,"1702 N. Bristol Street, A",Santa Ana,CA,US,927063327,7145507048,GMT-08:00 America/Los_Angeles,-117.89,33.76
Starbucks,76266-90565,Target Santa Ana T-1936,Licensed,"1441 W 17th St, Floral Park Promenade",Santa Ana,CA,US,927063301,714-481-0030,GMT-08:00 America/Los_Angeles,-117.89,33.76
Starbucks,5540-1551,The Outlets at Orange,Company Owned,"20 City Blvd W, Bld K; #41",Orange,CA,US,928683100,714-769-3175,GMT-08:00 America/Los_Angeles,-117.89,33.78
Starbucks,9550-97298,Chapman & The City Drive,Company Owned,"3743 W. Chapman Avenue, A",Orange,CA,US,928681631,714-938-0401,GMT-08:00 America/Los_Angeles,-117.89,33.79
Starbucks,5525-1668,State College & Chapman,Company Owned,"505 N. State College Blvd., Suite A",Fullerton,CA,US,928313545,714-738-8629,GMT-08:00 America/Los_Angeles,-117.89,33.87
Starbucks,19633-178489,Cal State Fullerton-Salz Pollak Lib,Licensed,800 N State College Blvd,Fullerton,CA,US,928313547,657-278-2364,GMT-08:00 America/Los_Angeles,-117.89,33.88
Starbucks,76509-99294,Target West Covina T-1028,Licensed,2831 Eastland Ctr Dr,West Covina,CA,US,917911624,626-859-0221,GMT-08:00 America/Los_Angeles,-117.89,34.07
Starbucks,5583-231345,Citrus & Rowland,Company Owned,611 South Citrus Ave,Covina,CA,US,91723,6269151647,GMT-08:00 America/Los_Angeles,-117.89,34.08
Starbucks,9685-97224,"Citrus & College, Covina",Company Owned,145 N. Citrus Avenue,Covina,CA,US,917232002,6268592760,GMT-08:00 America/Los_Angeles,-117.89,34.09
Starbucks,25057-238336,Citrus & Arrow,Company Owned,108 East Arrow Highway,Covina,CA,US,91702,626-222-3912,GMT-08:00 America/Los_Angeles,-117.89,34.11
Starbucks,11093-104235,Newport & Del Mar,Company Owned,"2590 Newport Blvd, Suite ""A""",Costa Mesa,CA,US,926277452,949-642-3667,GMT-08:00 America/Los_Angeles,-117.9,33.66
Starbucks,11228-101110,Fairview & Garden Grove,Company Owned,13172 Garden Grove,Garden Grove,CA,US,928432249,714-621-0908,GMT-08:00 America/Los_Angeles,-117.9,33.77
Starbucks,75367-102972,Orange Coast College,Licensed,"2701 Fairview Road, South Coast Plaza",Costa Mesa,CA,US,926265563,714-432-5854,GMT-08:00 America/Los_Angeles,-117.91,33.67
Starbucks,14005-108040,Fairview & Baker,Company Owned,1170 W. Baker Street,Costa Mesa,CA,US,926264100,(714) 708-2856,GMT-08:00 America/Los_Angeles,-117.91,33.68
Starbucks,76893-102970,Target West Covina T-2147,Licensed,2370 S Azusa Ave,West covina,CA,US,917921511,626-667-5400,GMT-08:00 America/Los_Angeles,-117.91,34.03
Starbucks,10226-98369,"Azusa & Amar, West Covina",Company Owned,2320 S. Azusa Avenue,West Covina,CA,US,917921511,626-964-5145,GMT-08:00 America/Los_Angeles,-117.91,34.04
Starbucks,23741-228807,Azusa and Badillo,Company Owned,127 North Azusa Avenue,Covina,CA,US,91722,626-967-7294,GMT-08:00 America/Los_Angeles,-117.91,34.09
Starbucks,5783-17134,Harbor & Wilson,Company Owned,"2300 Harbor Blvd., N-1",Costa Mesa,CA,US,926266250,949-574-1881,GMT-08:00 America/Los_Angeles,-117.92,33.66
Starbucks,5539-722,Harbor & Adams,Company Owned,"2701 Harbor Blvd, Ste D1",Costa Mesa,CA,US,926265153,714-434-8478,GMT-08:00 America/Los_Angeles,-117.92,33.67
Starbucks,5984-45779,Harbor & Baker,Company Owned,"3030 Harbor Blvd., #J-2",Costa Mesa,CA,US,926262562,714-557-9964,GMT-08:00 America/Los_Angeles,-117.92,33.68
Starbucks,15820-142347,Target Costa Mesa T-1293,Licensed,3030 Harbor Blvd Ste A,Costa Mesa,CA,US,926262562,714-979-0372,GMT-08:00 America/Los_Angeles,-117.92,33.68
Starbucks,10817-40120,Harbor & McFadden,Company Owned,721 S. Harbor Blvd.,Santa Ana,CA,US,927042336,714-531-3751,GMT-08:00 America/Los_Angeles,-117.92,33.74
Starbucks,75548-38899,Hyatt Regency Orange County,Licensed,11999 Harbor Blvd,Garden Grove,CA,US,928402703,714-750-1234,GMT-08:00 America/Los_Angeles,-117.92,33.79
Starbucks,75530-46519,Anaheim Marriott Suites -Lobby,Licensed,"12015 Harbor Blvd, Chapman Retail Center",Garden Grove,CA,US,928404001,714-383-6042,GMT-08:00 America/Los_Angeles,-117.92,33.79
Starbucks,5823-7308,Harbor & Orangethorpe,Company Owned,1137 S. Harbor Blvd.,Fullerton,CA,US,928323028,714-278-0047,GMT-08:00 America/Los_Angeles,-117.92,33.86
Starbucks,5841-27067,Harbor & Chapman,Company Owned,444 Harbor Blvd.,Fullerton,CA,US,92832,714-879-6995,GMT-08:00 America/Los_Angeles,-117.92,33.87
Starbucks,76189-93365,Target Rowland Heights T-222,Licensed,17751 Colima Rd,Rowland Heights,CA,US,917481714,626-913-2880,GMT-08:00 America/Los_Angeles,-117.92,33.99
Starbucks,5969-38179,Newhope & Southpark,Company Owned,"17850 Newhope Street, #101",Fountain Valley,CA,US,927085410,714-979-5374,GMT-08:00 America/Los_Angeles,-117.93,33.7
Starbucks,24595-237150,Target Fullerton T-1418,Licensed,200 W Orangethorpe Ave,Fullerton,CA,US,92832,714-992-4565,GMT-08:00 America/Los_Angeles,-117.93,33.86
Starbucks,6671-17216,Imperial & Harbor,Company Owned,147 E. Imperial Highway,Fullerton,CA,US,928351018,714-525-5097,GMT-08:00 America/Los_Angeles,-117.93,33.92
Starbucks,9819-96515,Harbor & La Habra,Company Owned,"1201 E. La Habra Blvd., #A",La Habra,CA,US,906315673,562-691-9929,GMT-08:00 America/Los_Angeles,-117.93,33.93
Starbucks,5288-228806,Azusa and 60 Fwy,Company Owned,"17416 ""A"" Colima Road",Rowland Heights,CA,US,917481613,(626) 912-4778,GMT-08:00 America/Los_Angeles,-117.93,33.99
Starbucks,6744-77941,Vincent & West Covina Pkwy,Company Owned,333 S. Vincent Avenue,West Covina,CA,US,917902922,626-960-0087,GMT-08:00 America/Los_Angeles,-117.93,34.07
Starbucks,78097-108705,Edwards AFB TRAVEL CENTER,Licensed,240 West Fitzgerald Blvd,Edwards,CA,US,935246007,661-258-4510,GMT-08:00 America/Los_Angeles,-117.93,34.92
Starbucks,6669-65900,Euclid & Chapman,Company Owned,"11001 Chapman Avenue, #A",Garden Grove,CA,US,928403300,714-638-1716,GMT-08:00 America/Los_Angeles,-117.94,33.79
Starbucks,19829-166024,Euclid & Orangethorpe,Company Owned,1201 South Euclid Street,Fullerton,CA,US,92832,(714) 578-5996,GMT-08:00 America/Los_Angeles,-117.94,33.86
Starbucks,3419-93205,"Arrow Hwy & 4th, Irwindale",Company Owned,15700 Arrow Highway,Irwindale,CA,US,917062005,626-960-6132,GMT-08:00 America/Los_Angeles,-117.94,34.11
Starbucks,8705-94274,Brookhurst & Adams,Company Owned,"10001 Adams Avenue, Bolsa Edwards Retail",Huntington Beach,CA,US,926464904,714-962-3478,GMT-08:00 America/Los_Angeles,-117.95,33.67
Starbucks,5769-5239,Brookhurst & Ellis,Company Owned,"18523 Brookhurst Street, Costco Plaza",Fountain Valley,CA,US,927086707,714-378-5931,GMT-08:00 America/Los_Angeles,-117.95,33.69
Starbucks,73661-96303,Albertsons-Fountain Vly #6157,Licensed,"16061 Brookhurst St, Magnolia Plaza",Fountain Valley,CA,US,927081544,714-531-0417,GMT-08:00 America/Los_Angeles,-117.95,33.73
Starbucks,5614-1947,Brookhurst & Edinger,Company Owned,"16051 A Brookhurst Street, Suite A",Fountain Valley,CA,US,927081556,714-531-1984,GMT-08:00 America/Los_Angeles,-117.95,33.73
Starbucks,22635-222685,Brookhurst & Westminster,Company Owned,13992 Brookhurst Street,Garden Grove,CA,US,92843,714-638-8019,GMT-08:00 America/Los_Angeles,-117.95,33.76
Starbucks,23260-228804,Hacienda and Fairgrove,Company Owned,"1283 North Hacienda Blvd., Suite A, La Quinta Village",La Puente,CA,US,91744,626-918-0427,GMT-08:00 America/Los_Angeles,-117.95,34.04
Starbucks,76447-97175,Target Huntington Beach T-2051,Licensed,9882 Adams Ave,Huntington Beach,CA,US,926464808,714-849-1814,GMT-08:00 America/Los_Angeles,-117.96,33.67
Starbucks,27549-237604,Target Garden Grove T-193,Licensed,13831 Brookhurst St,Garden Grove,CA,US,92843,714-534-2142,GMT-08:00 America/Los_Angeles,-117.96,33.76
Starbucks,17416-164226,Brookhurst & Stanford,Company Owned,12711 Brookhurst Street,Garden Grove,CA,US,92840,714-590-6092,GMT-08:00 America/Los_Angeles,-117.96,33.78
Starbucks,5947-35919,Gilbert & Malvern,Company Owned,1951 W Malvern,Fullerton,CA,US,928332177,714-447-0767,GMT-08:00 America/Los_Angeles,-117.96,33.88
Starbucks,20870-208190,Target Fullerton T-1383,Licensed,1893 W Malvern Ave,Fullerton,CA,US,92833,714-278-1024,GMT-08:00 America/Los_Angeles,-117.96,33.88
Starbucks,5298-432,Imperial & South Idaho,Company Owned,"1331 W. Imperial Hwy., Suite 8-A, La Habra Town Center",La Habra,CA,US,906316997,(562) 691-3457,GMT-08:00 America/Los_Angeles,-117.96,33.92
Starbucks,76929-126184,Target La Habra T-2397,Licensed,1000 W Imperial Hwy,La Habra,CA,US,906316901,(714) 459-6034,GMT-08:00 America/Los_Angeles,-117.96,33.92
Starbucks,8658-93562,"Hacienda & Valley, City of Industry",Company Owned,209 S. Hacienda Blvd,Hacienda Heights,CA,US,917451104,626-369-0946,GMT-08:00 America/Los_Angeles,-117.96,34.02
Starbucks,8822-93465,Atlanta & Magnolia,Company Owned,9021 Atlanta Ave.,Huntington Beach,CA,US,926466332,714-968-6097,GMT-08:00 America/Los_Angeles,-117.97,33.66
Starbucks,74595-86102,Vons-Huntington Beach #3160,Licensed,8891 Atlanta Ave,Huntington Beach,CA,US,926467119,714-960-4747,GMT-08:00 America/Los_Angeles,-117.97,33.66
Starbucks,6549-5512,Magnolia & Warner,Company Owned,"9025 Warner Avenue, A",Fountain Valley,CA,US,927082700,714-375-2868,GMT-08:00 America/Los_Angeles,-117.97,33.72
Starbucks,10136-96989,Magnolia & Trask,Company Owned,13471 Magnolia St.,Garden Grove,CA,US,928442228,714-534-3081,GMT-08:00 America/Los_Angeles,-117.97,33.77
Starbucks,73503-58919,Albertsons - Fullerton #6165,Licensed,2291 West Malvern Avenue,Fullerton,CA,US,928332106,714-992-6099,GMT-08:00 America/Los_Angeles,-117.97,33.88
Starbucks,74515-38979,Vons-La Habra #2524,Licensed,2101 W Imperial Hwy,La Habra,CA,US,906316382,562-905-2800,GMT-08:00 America/Los_Angeles,-117.97,33.92
Starbucks,5631-1996,Beach & Whittier,Company Owned,1950 W Whittier Rd,La Habra,CA,US,906313661,562-690-0277,GMT-08:00 America/Los_Angeles,-117.97,33.94
Starbucks,74766-98352,Vons-Hacienda Heights #3086,Licensed,"2122 S Hacienda Blvd, Strawflower Village Shopping Center",Hacienda Heights,CA,US,917454242,626-330-4216,GMT-08:00 America/Los_Angeles,-117.97,34
Starbucks,20075-198884,City of Hope,Licensed,1500 East Duarte Rd,Duarte,CA,US,91010-300,,GMT-08:00 America/Los_Angeles,-117.97,34.13
Starbucks,24175-235449,Target Duarte T-302,Licensed,1050 Huntington Dr,Duarte,CA,US,91010,626-303-8858,GMT-08:00 America/Los_Angeles,-117.98,34.14
Starbucks,5473-244109,Huntington Drive & Buena Vista,Company Owned,1263 Hungtington Drive,Monrovia,CA,US,91010,(626) 930-0651,GMT-08:00 America/Los_Angeles,-117.98,34.14
Starbucks,17851-180365,Beach Blvd. & Atlanta,Company Owned,21000 Beach Blvd.,Huntington Beach,CA,US,926485404,714 5368048,GMT-08:00 America/Los_Angeles,-117.99,33.66
Starbucks,73536-53359,Albertsons-Huntngtn Bch #6124,Licensed,19640 Beach Blvd.,Huntington Beach,CA,US,926482905,714-964-7979,GMT-08:00 America/Los_Angeles,-117.99,33.68
Starbucks,11230-102881,Beach & Garfield,Company Owned,"18922 Beach Blvd, 101, Meadowlark Plaza",Huntington Beach,CA,US,926482098,714-968-8324,GMT-08:00 America/Los_Angeles,-117.99,33.69
Starbucks,74724-96537,Pavillions - Westminster #2206,Licensed,16450 Beach Blvd,Westminster,CA,US,926837859,714-842-8515,GMT-08:00 America/Los_Angeles,-117.99,33.72
Starbucks,29832-255224,Target Westminster Ca T-0249,Licensed,16400 Beach Blvd,Westminster,CA,US,92683,714-841-4449,GMT-08:00 America/Los_Angeles,-117.99,33.72
Starbucks,5210-416,Bella Terra Mall,Company Owned,"7881 Edinger Ave, Ste 83",Huntington Beach,CA,US,926477637,714-890-9577,GMT-08:00 America/Los_Angeles,-117.99,33.73
Starbucks,5309-585,Beach & McDonald,Company Owned,16302 Beach Blvd,Westminster,CA,US,926837857,(714) 848-2698,GMT-08:00 America/Los_Angeles,-117.99,33.73
Starbucks,6990-15917,Beach & Westminster,Company Owned,14002 Beach Blvd,Westminster,CA,US,926834439,714-898-9202,GMT-08:00 America/Los_Angeles,-117.99,33.76
Starbucks,6576-15934,Beach & Chapman,Company Owned,11931 Beach Blvd.,Stanton,CA,US,906803613,714-890-4388,GMT-08:00 America/Los_Angeles,-117.99,33.79
Starbucks,74921-101340,Vons - Whittier #2027,Licensed,15740 Laforge St,Whittier,CA,US,906032334,562-943-0516,GMT-08:00 America/Los_Angeles,-117.99,33.94
Starbucks,575-297,Main & Olive,Company Owned,"221 Main Street, Harbor Point",Huntington Beach,CA,US,926488111,(714) 536-3228,GMT-08:00 America/Los_Angeles,-118,33.66
Starbucks,73293-108341,Albertsons - Huntington Beach #6110,Licensed,"7201 W Yorktown Ave, Peter's Landing Retail Center",Huntington Beach,CA,US,926482465,714-536-6449,GMT-08:00 America/Los_Angeles,-118,33.68
Starbucks,5807-5544,Goldenwest & Yorktown,Company Owned,"7101 Yorktown, #104",Huntington Beach,CA,US,926482485,714-374-3325,GMT-08:00 America/Los_Angeles,-118,33.68
Starbucks,73293-27207,Albertsons-Huntngtn Bch #6110,Licensed,7201 W Yorktown Ave,Huntington Beach,CA,US,926482465,714-536-6449,GMT-08:00 America/Los_Angeles,-118,33.68
Starbucks,16876-164124,Edinger & Sher,Company Owned,7622 Edinger Avenue,Huntington Beach,CA,US,92647,7148432612,GMT-08:00 America/Los_Angeles,-118,33.73
Starbucks,76398-95640,Target Whittier T-2019,Licensed,15614 Whittwood Ln,Whittier,CA,US,906032324,5623719003,GMT-08:00 America/Los_Angeles,-118,33.94
Starbucks,5593-1450,Foothill & Myrtle - Monrovia,Company Owned,"140 West Foothill Blvd., Suite E-3",Monrovia,CA,US,910162175,(626) 303-2986,GMT-08:00 America/Los_Angeles,-118,34.15
Starbucks,74659-94830,Vons-Monrovia #2200,Licensed,"130 W Foothill Blvd, Montclair Plaza",Monrovia,CA,US,910162171,626-303-4547,GMT-08:00 America/Los_Angeles,-118,34.15
Starbucks,28273-249442,Ralphs Huntington Beach #650,Licensed,19081 Goldenwest Street,Huntington Beach,CA,US,92648,714-960-8756,GMT-08:00 America/Los_Angeles,-118.01,33.69
Starbucks,19353-183744,Goldenwest & McFadden,Company Owned,15388 Goldenwest Street,Westminster,CA,US,926836150,7148926306,GMT-08:00 America/Los_Angeles,-118.01,33.74
Starbucks,76797-108113,Target Westminster NW T-2304,Licensed,200 Westminster Mall,Westminster,CA,US,926834984,714-657-1351,GMT-08:00 America/Los_Angeles,-118.01,33.75
Starbucks,6800-80380,Goldenwest & Natal,Company Owned,"13102 Goldenwest Street, #A",Westminster,CA,US,926832240,714-894-1733,GMT-08:00 America/Los_Angeles,-118.01,33.77
Starbucks,5817-5525,Katella & Meridian,Company Owned,"10953 Meridian Drive, A",Cypress,CA,US,906305143,714-761-3255,GMT-08:00 America/Los_Angeles,-118.01,33.8
Starbucks,21423-211904,Target Cypress T-229,Licensed,"6835 Katella Ave, Cypress East Shopping Center",Cypress,CA,US,90630,714-220-2000,GMT-08:00 America/Los_Angeles,-118.01,33.8
Starbucks,73570-79972,Albertsons-La Mirada #6148,Licensed,15200 E Rosecrans Blvd,La Mirada,CA,US,906384735,714-521-2310,GMT-08:00 America/Los_Angeles,-118.01,33.9
Starbucks,10342-97367,"Rosecrans & La Mirada, La Mirada",Company Owned,"15220 Rosecrans Avenue, 120",La Mirada,CA,US,906384735,714-523-7809,GMT-08:00 America/Los_Angeles,-118.01,33.9
Starbucks,5716-220264,Imperial & La Mirada,Company Owned,15010 Imperial Hwy,La Mirada,CA,US,90638,562-943-3458,GMT-08:00 America/Los_Angeles,-118.01,33.92
Starbucks,5680-182264,Whittier & Colima,Company Owned,14940 Whittier Blvd.,Whittier,CA,US,90605,,GMT-08:00 America/Los_Angeles,-118.01,33.95
Starbucks,5239-406,Monrovia,Company Owned,621 W. Huntington Drive,Monrovia,CA,US,910163205,626-357-5057,GMT-08:00 America/Los_Angeles,-118.01,34.14
Starbucks,9630-97661,Bolsa & Edwards,Company Owned,"6502 Bolsa Avenue, #101",Huntington Beach,CA,US,926472662,714-898-0349,GMT-08:00 America/Los_Angeles,-118.02,33.74
Starbucks,6828-83041,Springdale & Westminster,Company Owned,"14022 Springdale Street, Suite M",Westminster,CA,US,926839521,714-903-7807,GMT-08:00 America/Los_Angeles,-118.02,33.76
Starbucks,8749-94565,"Valley & Garvey, El Monte",Company Owned,11979 E. Garvey Avenue,El Monte,CA,US,917323513,626-258-2931,GMT-08:00 America/Los_Angeles,-118.02,34.06
Starbucks,15831-152239,Longo Toyota-El Monte,Licensed,"3534 Peck Rd, Flair Plaza",El Monte,CA,US,917313526,626-452-0499,GMT-08:00 America/Los_Angeles,-118.02,34.07
Starbucks,28507-249685,Foothill & Madison,Company Owned,860 West Foothill Blvd,Monrovia,CA,US,91016,626-222-8046,GMT-08:00 America/Los_Angeles,-118.02,34.15
Starbucks,74691-91323,Vons-Huntington Beach #2090,Licensed,5922 Edinger Ave,Huntington Beach,CA,US,926491706,714-846-6356,GMT-08:00 America/Los_Angeles,-118.03,33.73
Starbucks,16779-161664,Valley View & Lampson,Company Owned,12452 Valley View Street,Garden Grove,CA,US,928452033,7148914825,GMT-08:00 America/Los_Angeles,-118.03,33.78
Starbucks,74575-82501,Vons-Garden Grove #2041,Licensed,11861 Valley View St,Garden Grove,CA,US,928451236,714-889-9955,GMT-08:00 America/Los_Angeles,-118.03,33.79
Starbucks,10131-99101,Valley View & Ball,Company Owned,"10031 Valley View Street, 1K",Cypress,CA,US,906304601,714-527-2024,GMT-08:00 America/Los_Angeles,-118.03,33.82
Starbucks,9327-96152,Valley View & Alondra,Company Owned,"15905 Valley View Avenue, Santa Fe Springs Mall",Santa Fe Springs,CA,US,906705817,562-483-6051,GMT-08:00 America/Los_Angeles,-118.03,33.89
Starbucks,8657-94407,"Whittier & Painter, Whittier",Company Owned,"13520 Whittier Blvd, #A, Oak Creek Center",Whittier,CA,US,906051999,562-945-0054,GMT-08:00 America/Los_Angeles,-118.03,33.96
Starbucks,27215-245385,Durfee & Thienes,Company Owned,"11331 Thienes Avenue, Suite A",South El Monte,CA,US,91733,626-277-7880,GMT-08:00 America/Los_Angeles,-118.03,34.04
Starbucks,662-428,Warner & Bolsa Chica,Company Owned,5141 Warner Avenue,Huntington Beach,CA,US,926494080,(714) 846-2294,GMT-08:00 America/Los_Angeles,-118.04,33.72
Starbucks,9289-95415,Bolsa Chica & Heil,Company Owned,16471 Bolsa Chica Street,Huntington Beach,CA,US,926492602,714-840-9676,GMT-08:00 America/Los_Angeles,-118.04,33.72
Starbucks,5507-1460,Greenleaf & Philadelphia - Whittier,Company Owned,6756 S. Greenleaf Avenue,Whittier,CA,US,906014109,(562) 789-9258,GMT-08:00 America/Los_Angeles,-118.04,33.98
Starbucks,17415-158784,"Santa Anita & Valley, El Monte",Company Owned,10601 E. Valley Blvd.,El Monte,CA,US,917312404,(626) 452-9250,GMT-08:00 America/Los_Angeles,-118.04,34.08
Starbucks,76818-111371,Super Target Palmdale East ST-2350,Licensed,38019 47th St E,Palmdale,CA,US,935523103,(661) 265-0906,GMT-08:00 America/Los_Angeles,-118.04,34.58
Starbucks,10140-99707,"Rosecrans & Shoemaker, Norwalk",Company Owned,13001 Rosecrans Avenue,Norwalk,CA,US,906504593,562-802-3103,GMT-08:00 America/Los_Angeles,-118.05,33.9
Starbucks,6518-64461,Imperial & Carmenita,Company Owned,13248 Imperial Highway,Santa Fe Springs,CA,US,906704818,5629269770,GMT-08:00 America/Los_Angeles,-118.05,33.92
Starbucks,6613-68460,Carmenita & Telegraph,Company Owned,"13352 E. Telegraph Road, Golden Springs Center",Santa Fe Springs,CA,US,906704016,562-944-4443,GMT-08:00 America/Los_Angeles,-118.05,33.94
Starbucks,9351-95997,"Washington & Lambert, Whittier",Company Owned,12376 Washington Blvd.,Whittier,CA,US,906063810,562-693-6160,GMT-08:00 America/Los_Angeles,-118.05,33.97
Starbucks,5266-693,Sierra Madre,Company Owned,1 Kersting Court,Sierra Madre,CA,US,910241929,(626) 355-8222,GMT-08:00 America/Los_Angeles,-118.05,34.16
Starbucks,10111-99529,East Ave S & 47th St East,Company Owned,4631 East Avenue S,Palmdale,CA,US,935524417,661-533-1241,GMT-08:00 America/Los_Angeles,-118.05,34.56
Starbucks,25204-236912,47th Street East & Palmdale Blvd,Company Owned,"38135 47th Street East, Suite 605-38, Palmdale Shopping Center",Palmdale,CA,US,93552,661-433-9056,GMT-08:00 America/Los_Angeles,-118.05,34.58
Starbucks,19834-195005,Ralph's - Cypress #233,Licensed,4033 Ball Rd,Cypress,CA,US,90630,714-827-7947,GMT-08:00 America/Los_Angeles,-118.06,33.82
Starbucks,26334-244304,Whittier & Broadway,Company Owned,11270 Whittier Boulevard,Whittier,CA,US,90606,562-332-4400,GMT-08:00 America/Los_Angeles,-118.06,33.99
Starbucks,9452-218446,Beverly & Workman Mill,Company Owned,10737 Beverly Blvd.,Whittier,CA,US,90601,,GMT-08:00 America/Los_Angeles,-118.06,34
Starbucks,29836-255024,Target Seal Beach T-1328,Licensed,"12300 Seal Beach, Old Ranch Town Center",Seal Beach,CA,US,90740,562-596-9887,GMT-08:00 America/Los_Angeles,-118.07,33.78
Starbucks,5961-15935,Seal Beach Blvd. & St. Cloud,Company Owned,"12430 Seal Beach Blvd, #G, Pacific Getaway Plaza",Seal Beach,CA,US,907402791,562-431-7973,GMT-08:00 America/Los_Angeles,-118.07,33.78
Starbucks,49343-267857,Ralphs - Seal Beach #604,Licensed,12470 Seal Beach Blvd,SEAL BEACH,CA,US,90740,562-598-3128,GMT-08:00 America/Los_Angeles,-118.07,33.78
Starbucks,10810-101571,Katella & Los Alamitos,Company Owned,3575 Katella Avenue,Los Alamitos,CA,US,907203103,562-431-2739,GMT-08:00 America/Los_Angeles,-118.07,33.8
Starbucks,20390-205006,Carson & Norwalk,Company Owned,"12161 Carson Street, Hawthorne Gateway Center",Hawaiian Gardens,CA,US,90716,5624020293,GMT-08:00 America/Los_Angeles,-118.07,33.83
Starbucks,24168-231371,Washington & Norwalk,Company Owned,7930 Norwalk Blvd,Santa Fe Springs,CA,US,90606,5623225612,GMT-08:00 America/Los_Angeles,-118.07,33.97
Starbucks,6713-76480,"Flair & Aerojet, El Monte",Company Owned,"9208 Flair Drive, 1A",El Monte,CA,US,917312846,626-280-0683,GMT-08:00 America/Los_Angeles,-118.07,34.07
Starbucks,21249-210126,Target Rosemead T-1411,Licensed,"3600 Rosemead Boulevard, San Gabriel Plaza",Rosemead,CA,US,91770,626-280-8040,GMT-08:00 America/Los_Angeles,-118.07,34.07
Starbucks,5976-43199,"Rosemead & The 10 Fwy, Rosemead",Company Owned,"3620 Rosemead Blvd., Palisades Plaza",Rosemead,CA,US,917702077,626-572-8820,GMT-08:00 America/Los_Angeles,-118.07,34.07
Starbucks,6746-77940,"Las Tunas & Rosemead, Temple City",Company Owned,5705 Rosemead Blvd,Temple City,CA,US,917801830,626-614-8004,GMT-08:00 America/Los_Angeles,-118.07,34.1
Starbucks,26031-243127,Rosemead & Duarte,Company Owned,6850 Rosemead Boulevard,San Gabriel,CA,US,91775,626-632-8401,GMT-08:00 America/Los_Angeles,-118.07,34.12
Starbucks,19571-190724,Rosemead & Del Mar,Company Owned,230 S. Rosemead Blvd.,Pasadena,CA,US,91107,6268445067,GMT-08:00 America/Los_Angeles,-118.07,34.14
Starbucks,577-226,Hastings Ranch,Company Owned,3699 E Foothill Blvd,Pasadena,CA,US,911072219,626-351-9994,GMT-08:00 America/Los_Angeles,-118.07,34.15
Starbucks,5872-28807,Pacific Coast Hwy & Anderson,Company Owned,"16470 Pacific Coast Hwy, Seacliff Village",Huntington Beach,CA,US,926491810,562-592-1789,GMT-08:00 America/Los_Angeles,-118.08,33.72
Starbucks,13748-107954,Seal Beach & Westminster,Company Owned,"2311 Seal Beach Blvd, Suite 101",Seal Beach,CA,US,907405635,562-430-9290,GMT-08:00 America/Los_Angeles,-118.08,33.76
Starbucks,27974-249305,Pioneer & Rosecrans,Company Owned,14322 Pioneer Boulevard,Norwalk,CA,US,90650,562-207-7556,GMT-08:00 America/Los_Angeles,-118.08,33.9
Starbucks,9546-97058,"Firestone & Pioneer, Norwalk",Company Owned,"11790 Firestone Blvd., San Marin Plaza",Norwalk,CA,US,906502899,562-863-7138,GMT-08:00 America/Los_Angeles,-118.08,33.91
Starbucks,25006-237487,Target Norwalk T-1424,Licensed,12051 Imperial Hwy,Norwalk,CA,US,90650,562-409-5036,GMT-08:00 America/Los_Angeles,-118.08,33.92
Starbucks,8799-95014,"Whittier & Passons, Pico Rivera",Company Owned,"9329 Whittier Blvd, Pico Rivera Towne Center",Pico Rivera,CA,US,906602746,562-692-6327,GMT-08:00 America/Los_Angeles,-118.08,34
Starbucks,5444-1461,Montebello Town Center Mall,Company Owned,"1780 Montebello Town Center, Unit A-21",Montebello,CA,US,906402163,(323) 721-1020,GMT-08:00 America/Los_Angeles,-118.08,34.04
Starbucks,5657-1751,Sierra Madre Villa & Foothill,Company Owned,3429 East Foothill Blvd.,Pasadena,CA,US,911076024,626-351-8065,GMT-08:00 America/Los_Angeles,-118.08,34.15
Starbucks,14995-156785,Target Pasadena East T-1332,Licensed,3121 E Colorado Blvd,Pasadena,CA,US,911073814,626-854-2931,GMT-08:00 America/Los_Angeles,-118.08,34.15
Starbucks,5578-1516,Carson & Long Beach Towne Center Dr,Company Owned,7565 Carson Blvd,Long Beach,CA,US,908082365,562-429-1317,GMT-08:00 America/Los_Angeles,-118.09,33.83
Starbucks,24287-231369,Telegraph & Orr and Day,Company Owned,11570 East Telegraph Rd,Santa Fe Springs,CA,US,90670,562-322-8650,GMT-08:00 America/Los_Angeles,-118.09,33.95
Starbucks,29625-254250,Target - Pico Rivera T-1425,Licensed,8800 Whittier Blvd,Pico Rivera,CA,US,90660,562-949-6200,GMT-08:00 America/Los_Angeles,-118.09,34
Starbucks,6651-74906,"San Gabriel & Garvey, Rosemead",Company Owned,"3000 San Gabriel Blvd., Rosemead Place",Rosemead,CA,US,917702536,626-280-1584,GMT-08:00 America/Los_Angeles,-118.09,34.06
Starbucks,5674-5159,Huntington Drive & San Gabriel,Company Owned,3007 Huntington Drive,Pasadena,CA,US,911075522,626-792-7111,GMT-08:00 America/Los_Angeles,-118.09,34.13
Starbucks,79741-126993,Von's-Seal Beach #2803,Licensed,1101 Pacific Coast Highway,Seal Beach,CA,US,907406245,(562) 370-1937,GMT-08:00 America/Los_Angeles,-118.1,33.74
Starbucks,6951-212904,Rosecrans & Studebaker,Company Owned,"11023 Rosecrans Avenue, Target Center",Norwalk,CA,US,90650,5629292535,GMT-08:00 America/Los_Angeles,-118.1,33.9
Starbucks,15626-157284,"Firestone & Studebaker, Norwalk",Company Owned,11031 Firestone Blvd.,Norwalk,CA,US,906502244,562-807-3715,GMT-08:00 America/Los_Angeles,-118.1,33.92
Starbucks,6545-62659,"Washington & Rosemead, Pico Rivera",Company Owned,8754 Washington Blvd.,Pico Rivera,CA,US,906603793,562-949-5677,GMT-08:00 America/Los_Angeles,-118.1,33.98
Starbucks,15554-161368,Vons-Pasadena #2858,Licensed,2355 E Colorado Blvd,Pasadena,CA,US,911073644,626-744-2615,GMT-08:00 America/Los_Angeles,-118.1,34.15
Starbucks,21821-215006,Ralph's - Long Beach #178,Licensed,6290 E Pacific Coast Hwy,Long Beach,CA,US,90803,562-795-0167,GMT-08:00 America/Los_Angeles,-118.11,33.76
Starbucks,5255-289,PCH & Marina Pacifica Mall,Company Owned,"6324 East Pacific Coast Hwy., Suite B",Long Beach,CA,US,908034841,(562) 431-2022,GMT-08:00 America/Los_Angeles,-118.11,33.76
Starbucks,75370-102971,CSU Long Beach - Dining Plaza,Licensed,6049 East Seventh street,Long Beach,CA,US,908400007,562-561-2391,GMT-08:00 America/Los_Angeles,-118.11,33.78
Starbucks,75377-103561,CSU long beach/long beach Library,Licensed,"6049 East Seventh Street, Bixby Knolls",Long Beach,CA,US,908400007,562-985-4138,GMT-08:00 America/Los_Angeles,-118.11,33.78
Starbucks,6865-84720,Stearns & Palo Verde,Company Owned,"2221 Palo Verde Ave, 1-A",Long Beach,CA,US,908152364,5625947838,GMT-08:00 America/Los_Angeles,-118.11,33.8
Starbucks,22821-224705,Spring & Palo Verde,Company Owned,6560 East Spring Street,Long Beach,CA,US,90815,562-429-5262,GMT-08:00 America/Los_Angeles,-118.11,33.81
Starbucks,6502-62019,"Firestone & 605 Frwy, Norwalk",Company Owned,10716 Firestone Blvd,Norwalk,CA,US,906507412,562-465-0148,GMT-08:00 America/Los_Angeles,-118.11,33.92
Starbucks,15586-142024,Target Norwalk T-1340,Licensed,10600 Firestone Blvd,Norwalk,CA,US,906507410,562-406-8870,GMT-08:00 America/Los_Angeles,-118.11,33.93
Starbucks,10659-101520,"Lakewood & Telegraph, Downey",Company Owned,"8801 Lakewood Blvd., Downey Landing",Downey,CA,US,902402301,562-862-6326,GMT-08:00 America/Los_Angeles,-118.11,33.96
Starbucks,6750-87601,"Beverly and Montebello, Montebello",Company Owned,"800 W. Beverly Blvd., 34",Montebello,CA,US,906404213,323-721-5110,GMT-08:00 America/Los_Angeles,-118.11,34.02
Starbucks,610-325,San Marino,Company Owned,2265 Huntington Drive,San Marino,CA,US,911082640,626-683-0807,GMT-08:00 America/Los_Angeles,-118.11,34.12
Starbucks,74647-94461,Vons-Pasadena #2139,Licensed,1390 N Allen Ave,Pasadena,CA,US,911041617,626-798-7603,GMT-08:00 America/Los_Angeles,-118.11,34.17
Starbucks,5735-8709,"Washington & Allen, Pasadena",Company Owned,1830 E. Washington Blvd.,Pasadena,CA,US,911041647,626-296-1248,GMT-08:00 America/Los_Angeles,-118.11,34.17
Starbucks,6984-85681,Challenger Way & East Ave K,Company Owned,"805 E. Avenue K, #101",Lancaster,CA,US,935354733,661-940-0992,GMT-08:00 America/Los_Angeles,-118.11,34.68
Starbucks,29629-254259,Target Express - Long Beach T-3225,Licensed,5760 East 7th Street,Long Beach,CA,US,90803,562-343-9142,GMT-08:00 America/Los_Angeles,-118.12,33.77
Starbucks,17553-164224,Bellflower & Stearns,Company Owned,5501 East Stearns Street,Long Beach,CA,US,908153125,562-430-2460,GMT-08:00 America/Los_Angeles,-118.12,33.8
Starbucks,74605-79833,Pavilions-Long Beach #2203,Licensed,5949 E Spring St,Long Beach,CA,US,908083752,(562) 496-2151,GMT-08:00 America/Los_Angeles,-118.12,33.81
Starbucks,5808-16794,Bellflower & Spring,Company Owned,"2890 N Bellflower Blvd, #A-1, City Place",Long Beach,CA,US,908151125,562-420-1317,GMT-08:00 America/Los_Angeles,-118.12,33.81
Starbucks,74923-102348,Vons - Lakewood #1638,Licensed,"4226 Woodruff Ave, Lakewood Center Mall",Lakewood,CA,US,907133143,562-496-4144,GMT-08:00 America/Los_Angeles,-118.12,33.84
Starbucks,9419-95886,"Del Amo & Woodruff, Lakewood",Company Owned,"5906 Del Amo Blvd, A",Lakewood,CA,US,907131900,562-377-0187,GMT-08:00 America/Los_Angeles,-118.12,33.85
Starbucks,6571-65302,"South & Woodruff, Lakewood",Company Owned,5538 Woodruff Ave.,Lakewood,CA,US,907131535,562-867-8105,GMT-08:00 America/Los_Angeles,-118.12,33.86
Starbucks,74761-92740,Pavilions-Lakewood #2209,Licensed,5500 Woodruff Ave,Lakewood,CA,US,907131535,562-866-3781,GMT-08:00 America/Los_Angeles,-118.12,33.86
Starbucks,5813-21161,"Firestone & Lakewood, Downey",Company Owned,"9001 East Firestone Blvd., 101",Downey,CA,US,902415317,562-861-6588,GMT-08:00 America/Los_Angeles,-118.12,33.94
Starbucks,8779-94589,"Slauson & I-5, Commerce",Company Owned,7724 Telegraph Road,Los Angeles,CA,US,900403235,323-725-8774,GMT-08:00 America/Los_Angeles,-118.12,33.98
Starbucks,73688-128624,Albertsons - Montebello #6181,Licensed,2469 Via Campo,Montebello,CA,US,906401805,323-888-2250,GMT-08:00 America/Los_Angeles,-118.12,34.03
Starbucks,6594-64802,"Hill & Walnut, East Pasadena",Company Owned,161 N. Hill Avenue,Pasadena,CA,US,911061955,626-440-1282,GMT-08:00 America/Los_Angeles,-118.12,34.15
Starbucks,6838-82304,"Colorado & Bonnie, Pasadena",Company Owned,1687 E. Colorado Blvd,Pasadena,CA,US,911062112,626-578-7244,GMT-08:00 America/Los_Angeles,-118.12,34.15
Starbucks,579-301,2nd & Covina,Company Owned,5251 E 2nd Street,Long Beach,CA,US,908035327,562-987-5043,GMT-08:00 America/Los_Angeles,-118.13,33.76
Starbucks,29755-254260,Target Long Beach T-0195,Licensed,2270 N Bellflower Blvd,Long Beach,CA,US,90815,562-493-5411,GMT-08:00 America/Los_Angeles,-118.13,33.8
Starbucks,6672-68905,"Lakewood & Stewart and Gray, Downey",Company Owned,12016 Lakewood Blvd.,Downey,CA,US,902422661,562-803-0950,GMT-08:00 America/Los_Angeles,-118.13,33.93
Starbucks,28281-247824,Ralphs Downey #295,Licensed,8626 Firestone Blvd,Downey,CA,US,90241,562-869-2733,GMT-08:00 America/Los_Angeles,-118.13,33.94
Starbucks,535-480,Pasadena,Company Owned,575 South Lake Avenue,Pasadena,CA,US,911013511,626-795-0918,GMT-08:00 America/Los_Angeles,-118.13,34.14
Starbucks,5514-1448,Pasadena Lake - Wells Fargo,Company Owned,82 South Lake Avenue,Pasadena,CA,US,911012656,626-405-1592,GMT-08:00 America/Los_Angeles,-118.13,34.14
Starbucks,76198-94545,Target Pasadena T-883,Licensed,777 E Colorado Blvd,Pasadena,CA,US,911012104,626-584-1606,GMT-08:00 America/Los_Angeles,-118.13,34.15
Starbucks,20839-185185,Ralphs Pasadena #96,Licensed,"160 N Lake Ave, Fair Oaks Renaissance Plaza",Pasadena,CA,US,91101,626-793-7480,GMT-08:00 America/Los_Angeles,-118.13,34.15
Starbucks,23004-226864,"Lake & Orange Grove, Pasadena",Company Owned,743 N. Lake Ave,Pasadena,CA,US,91104,626-797-1908,GMT-08:00 America/Los_Angeles,-118.13,34.16
Starbucks,9739-96736,Palmdale Blvd & 3rd,Company Owned,280 East Palmdale Blvd.,Palmdale,CA,US,935504515,661-947-5844,GMT-08:00 America/Los_Angeles,-118.13,34.58
Starbucks,10138-99888,7th & Park,Company Owned,4740 E. 7th Street,Long Beach,CA,US,908044329,562-433-8714,GMT-08:00 America/Los_Angeles,-118.14,33.78
Starbucks,5795-18980,4549 E. Pacific Coast Hwy,Company Owned,4549 E. Pacific Coast Hwy,Long Beach,CA,US,908043228,562-986-2840,GMT-08:00 America/Los_Angeles,-118.14,33.79
Starbucks,79666-114970,Von's - Long Beach #3076,Licensed,"1820 Ximeno Ave, The Los Altos Marketplace",Long Beach,CA,US,908152849,562-498-2111,GMT-08:00 America/Los_Angeles,-118.14,33.79
Starbucks,19665-192265,Lakewood & Cover,Company Owned,"3821 Lakewood Blvd., 103",Long Beach,CA,US,90808,5624295237,GMT-08:00 America/Los_Angeles,-118.14,33.83
Starbucks,5650-2075,Candlewood St. & Lakewood Blvd.,Company Owned,4833 Candlewood Street,Lakewood,CA,US,907121832,562-634-7028,GMT-08:00 America/Los_Angeles,-118.14,33.85
Starbucks,5702-6746,Lakewood Center Breve Floor 1,Company Owned,"208 LAKEWOOD CENTER MALL, K",Lakewood,CA,US,907122422,562-531-4533,GMT-08:00 America/Los_Angeles,-118.14,33.85
Starbucks,11459-103349,"Alondra & Lakewood, Paramount",Company Owned,8819 Alondra Blvd.,Paramount,CA,US,907234603,562-531-8973,GMT-08:00 America/Los_Angeles,-118.14,33.89
Starbucks,5348-860,Atlantic Square,Company Owned,2100 South Atlantic Blvd.,Monterey Park,CA,US,917546802,(323) 888-2382,GMT-08:00 America/Los_Angeles,-118.14,34.04
Starbucks,17348-173405,Pasadena Convention Ctr-Green Stree,Licensed,300 E Green St,Pasadena,CA,US,911012308,626-796-9976,GMT-08:00 America/Los_Angeles,-118.14,34.14
Starbucks,5881-231045,Colorado & Marengo,Company Owned,"300 East Colorado Blvd, Suite 152, East Village Shopping Center",Pasadena,CA,US,91101,626-564-0914,GMT-08:00 America/Los_Angeles,-118.14,34.15
Starbucks,5924-40339,Rancho Vista & Lowes Drive,Company Owned,39570 Lowes Drive,Palmdale,CA,US,935513754,661-540-0881,GMT-08:00 America/Los_Angeles,-118.14,34.6
Starbucks,79747-136393,Von's - Long Beach #2280,Licensed,3900 E OCEAN AVENUE,Long Beach,CA,US,908032817,(562) 866-3781,GMT-08:00 America/Los_Angeles,-118.15,33.76
Starbucks,9382-96453,Redondo & 7th,Company Owned,3390 E. 7th Street,Long Beach,CA,US,908045003,562-433-4595,GMT-08:00 America/Los_Angeles,-118.15,33.78
Starbucks,29700-254775,Rosecrans & Downey,Company Owned,8522 Rosecrans Ave,Paramount,CA,US,90723,562-204-4053,GMT-08:00 America/Los_Angeles,-118.15,33.9
Starbucks,25583-241264,Paramount & Imperial,Company Owned,7954 Imperial Highway,Downey,CA,US,90242,(562) 922-3045,GMT-08:00 America/Los_Angeles,-118.15,33.92
Starbucks,6980-86481,"Huntington & Fremont, S. Pasadena",Company Owned,"1318 Huntington Drive, Transit Village",South Pasadena,CA,US,910304579,323-255-1684,GMT-08:00 America/Los_Angeles,-118.15,34.1
Starbucks,5513-1445,South Pasadena - Wells Fargo,Company Owned,1000 Fair Oaks Ave,Pasadena,CA,US,910303310,(626) 441-2754,GMT-08:00 America/Los_Angeles,-118.15,34.11
Starbucks,74686-96297,Vons-South Pasadena #2228,Licensed,1213 Fair Oaks Ave,South Pasadena,CA,US,910303805,626-799-2261,GMT-08:00 America/Los_Angeles,-118.15,34.11
Starbucks,5648-1811,Fair Oaks & State Street,Company Owned,454 North Fair Oaks Ave,South Pasadena,CA,US,910301817,626-441-7354,GMT-08:00 America/Los_Angeles,-118.15,34.12
Starbucks,14449-122584,"Arroyo & Fillmore, Pasadena",Company Owned,"753 South Arroyo Parkway, 3",Pasadena,CA,US,911053902,626-796-7330,GMT-08:00 America/Los_Angeles,-118.15,34.13
Starbucks,74762-98340,Vons-Pasadena #2152,Licensed,155 W California Blvd,Pasadena,CA,US,911053005,626-577-7149,GMT-08:00 America/Los_Angeles,-118.15,34.14
Starbucks,5383-1153,Fairoaks & California - Pasadena,Company Owned,"556 S. Fair Oaks Avenue, Suite 102",Pasadena,CA,US,911052658,(626) 395-0626,GMT-08:00 America/Los_Angeles,-118.15,34.14
Starbucks,582-212444,Colorado & De Lacey,Company Owned,93 W. Colorado Blvd.,Pasadena,CA,US,91105,6265774622,GMT-08:00 America/Los_Angeles,-118.15,34.15
Starbucks,5860-29255,"Fair Oaks & Orange Grove, Pasadena",Company Owned,671 N. Fair Oaks Avenue,Pasadena,CA,US,911033383,626-440-9962,GMT-08:00 America/Los_Angeles,-118.15,34.16
Starbucks,73671-93060,Albertsons-Palmdale #6333,Licensed,38727 N Tierra Subida Ave,Palmdale,CA,US,935514248,661-274-9557,GMT-08:00 America/Los_Angeles,-118.15,34.59
Starbucks,8823-94943,10th St West & West Ave O-8,Company Owned,"39904 10th Street West, D",Palmdale,CA,US,935513003,661-266-2314,GMT-08:00 America/Los_Angeles,-118.15,34.61
Starbucks,19566-174784,Avenue K & 10th Street West,Company Owned,"855 West Ave. K, Suite 105",Lancaster,CA,US,935346021,661-726-5040,GMT-08:00 America/Los_Angeles,-118.15,34.68
Starbucks,5842-20739,"Paramount & Jackson, Paramount",Company Owned,16280-C Paramount Blvd.,Paramount,CA,US,907235466,562-272-8038,GMT-08:00 America/Los_Angeles,-118.16,33.89
Starbucks,5834-22761,"Firestone & Garfield, Southgate",Company Owned,"8620 Garfield Ave, Ste 102",Southgate,CA,US,902803700,562-806-8009,GMT-08:00 America/Los_Angeles,-118.16,33.95
Starbucks,5787-10754,Willow & Cherry,Company Owned,"1788 E. Willow Street, A",Signal Hill,CA,US,907551937,562-595-9336,GMT-08:00 America/Los_Angeles,-118.17,33.8
Starbucks,76983-136851,Target Long Beach NW T-2424,Licensed,6750 Cherry Ave,Long Beach,CA,US,908051717,562-295-2971,GMT-08:00 America/Los_Angeles,-118.17,33.88
Starbucks,3973-146285,Target South Gate T-190,Licensed,"5700 Firestone Blvd, Town Center at Lake Tahoe",South Gate,CA,US,902803704,562-806-2911,GMT-08:00 America/Los_Angeles,-118.17,33.95
Starbucks,75476-103411,Barnes And Noble @ Cal State Univ L,Licensed,"5151 State University Drive, The Coliseum Center",Los Angeles,CA,US,900324226,323-343-5370,GMT-08:00 America/Los_Angeles,-118.17,34.07
Starbucks,6982-88600,Ave K & 20th St. West,Company Owned,2062 West Avenue K,Lancaster,CA,US,935365216,661-726-4678,GMT-08:00 America/Los_Angeles,-118.17,34.67
Starbucks,23285-226124,Valley Central & West Ave J,Company Owned,"44600 Valley Central Way, Albertson's Shopping Center",Lancaster,CA,US,93536,661-942-0890,GMT-08:00 America/Los_Angeles,-118.17,34.69
Starbucks,13220-107230,Avenue I & 20th St West,Company Owned,1845 W. Avenue I,Lancaster,CA,US,935341453,661-723-5708,GMT-08:00 America/Los_Angeles,-118.17,34.7
Starbucks,12956-152240,Vons-Long Beach #2861,Licensed,"600 E Broadway, Long Beach Towne Center",Long Beach,CA,US,908025124,562-491-1210,GMT-08:00 America/Los_Angeles,-118.18,33.77
Starbucks,29579-254224,Ocean & Alamitos,Company Owned,"707 E Ocean Blvd, # B",Long Beach,CA,US,90802,(562) 335-1122,GMT-08:00 America/Los_Angeles,-118.18,33.77
Starbucks,23315-218444,Spring & California,Company Owned,"999 Spring Street, Town Center West Shopping Center",Signal Hill,CA,US,90755,5629889304,GMT-08:00 America/Los_Angeles,-118.18,33.81
Starbucks,76769-107980,Target Long Beach/Sgnal Hill T-2319,Licensed,950 E 33rd St,Long Beach,CA,US,907555114,562-427-7751,GMT-08:00 America/Los_Angeles,-118.18,33.82
Starbucks,74620-93749,Vons-Long Beach #3519,Licensed,"4550 Atlantic Avenue, Wrigley Marketplace",Long Beach,CA,US,908071513,562-984-1421,GMT-08:00 America/Los_Angeles,-118.18,33.84
Starbucks,5774-5505,Atlantic & San Antonio,Company Owned,"4406 Atlantic Avenue, A",Long Beach,CA,US,908072239,562-423-7900,GMT-08:00 America/Los_Angeles,-118.18,33.84
Starbucks,6580-65700,"Atlantic & Imperial, Lynwood",Company Owned,10925 Atlantic Avenue,Lynwood,CA,US,902622310,310-764-4969,GMT-08:00 America/Los_Angeles,-118.18,33.93
Starbucks,9328-96241,"3rd & Gage, Los Angeles",Company Owned,"3853 E. 3rd Street, E, LAX International Airport",Los Angeles,CA,US,900632403,323-265-4124,GMT-08:00 America/Los_Angeles,-118.18,34.03
Starbucks,19848-168484,Figueroa & York,Company Owned,6240 York Ave.,Los Angeles,CA,US,90042,323-478-7365,GMT-08:00 America/Los_Angeles,-118.18,34.11
Starbucks,74585-83082,Vons-Palmdale #3017,Licensed,"3027 Rancho Vista Blvd, Park Plaza",Palmdale,CA,US,935513582,661-265-9285,GMT-08:00 America/Los_Angeles,-118.18,34.6
Starbucks,17458-178487,Albertsons-Rosamond #6337,Licensed,2547 W Rosamond Blvd,Rosamond,CA,US,93560,661-256-0756,GMT-08:00 America/Los_Angeles,-118.18,34.86
Starbucks,75948-104482,Renaissance Long Beach - Gift Shop,Licensed,111 east ocean Boulevard,Long Beach,CA,US,908024794,562-437-5900,GMT-08:00 America/Los_Angeles,-118.19,33.77
Starbucks,5221-290,Pine & 3rd,Company Owned,242 Pine Avenue,Long Beach,CA,US,908023042,562-436-6883,GMT-08:00 America/Los_Angeles,-118.19,33.77
Starbucks,27432-247557,The Pike Outlets,Company Owned,"11 The Paseo, 430",Long Beach,CA,US,90802,(562) 233-4674,GMT-08:00 America/Los_Angeles,-118.19,33.77
Starbucks,6655-69821,Long Beach & 5th,Company Owned,500 Long Beach Blvd.,Long Beach,CA,US,908022401,562-590-5996,GMT-08:00 America/Los_Angeles,-118.19,33.77
Starbucks,5721-8305,Long Beach Blvd & Willow,Company Owned,"141 E Willow St, Suite U",Long Beach,CA,US,908062635,562-290-0711,GMT-08:00 America/Los_Angeles,-118.19,33.81
Starbucks,75980-98881,Vons- Los Angeles #2655,Licensed,7311 N Figueroa St,Los Angeles,CA,US,900412512,323-254-5716,GMT-08:00 America/Los_Angeles,-118.19,34.14
Starbucks,649-383,La Canada,Company Owned,"475 Foothill Blvd., Suite M",La Canada,CA,US,910113555,818-790-7151,GMT-08:00 America/Los_Angeles,-118.19,34.2
Starbucks,23924-234244,Broadway & Magnolia,Company Owned,"421 West Broadway, 800",Long Beach,CA,US,90802,562-495-9527,GMT-08:00 America/Los_Angeles,-118.2,33.77
Starbucks,16783-164227,MLK & Bullis,Company Owned,"3801 MARTIN LUTHER KING JR BLVD, #1",Lynwood,CA,US,90262,310-764-1321,GMT-08:00 America/Los_Angeles,-118.2,33.93
Starbucks,23531-196824,Rancho Vista & Town Center,Company Owned,3869 West Rancho Vista Blvd,Palmdale,CA,US,93551,6617221807,GMT-08:00 America/Los_Angeles,-118.2,34.61
Starbucks,74623-93726,Vons-Lancaster #2029,Licensed,"4033 W Ave L, Challenger Center",Lancaster,CA,US,935364213,661-722-7291,GMT-08:00 America/Los_Angeles,-118.2,34.66
Starbucks,8780-94588,Slauson & State,Company Owned,3060 E. Slauson Ave.,Huntington Park,CA,US,902553138,323-585-6735,GMT-08:00 America/Los_Angeles,-118.21,33.99
Starbucks,13045-153025,Health Science Campus - USC,Licensed,1969 Zonal Ave,Los Angeles,CA,US,900335422,323-442-1943,GMT-08:00 America/Los_Angeles,-118.21,34.06
Starbucks,8636-93711,"Firestone & Long Beach, Southg",Company Owned,8924 Long Beach Blvd.,Southgate,CA,US,902802808,323-569-0274,GMT-08:00 America/Los_Angeles,-118.22,33.96
Starbucks,22477-221164,Olympic & Soto,Company Owned,2675 E Olympic Blvd,Los Angeles,CA,US,90023,323-265-3457,GMT-08:00 America/Los_Angeles,-118.22,34.02
Starbucks,13286-106226,"Eagle Rock & York, Eagle Rock",Company Owned,4430 York Blvd.,Los Angeles,CA,US,900413328,323-340-8059,GMT-08:00 America/Los_Angeles,-118.22,34.12
Starbucks,8617-93468,"Colorado & Eagle Rock, Eagle Rock",Company Owned,"2218 W. Colorado Blvd., Wilshire Union Center",Los Angeles,CA,US,900411143,323-349-0671,GMT-08:00 America/Los_Angeles,-118.22,34.14
Starbucks,3941-141830,Target Los Angeles Eagle T-1408,Licensed,2626 Colorado Blvd,Los Angeles,CA,US,900411070,323-258-1355,GMT-08:00 America/Los_Angeles,-118.22,34.14
Starbucks,5705-7827,Verdugo & 2 Freeway,Company Owned,"1929 Verdugo, #A",La Canada,CA,US,910113002,818-790-4681,GMT-08:00 America/Los_Angeles,-118.22,34.21
Starbucks,5788-17554,Pacific & Belgrave,Company Owned,6021 Pacific Blvd.,Huntington Park,CA,US,902552953,323-584-0492,GMT-08:00 America/Los_Angeles,-118.23,33.99
Starbucks,16782-10773,Honolulu & Ocean View,Company Owned,2284 Honolulu Avenue,Montrose,CA,US,910201638,818-248-7001,GMT-08:00 America/Los_Angeles,-118.23,34.21
Starbucks,26328-243763,Alameda & 14th,Company Owned,"1401 Alameda St, Cahuenga Plaza",Los Angeles,CA,US,90021,213-334-9270,GMT-08:00 America/Los_Angeles,-118.24,34.03
Starbucks,6557-65159,2nd & Central,Company Owned,138 S. Central Avenue,Los Angeles,CA,US,900123913,213-613-0393,GMT-08:00 America/Los_Angeles,-118.24,34.05
Starbucks,27702-248365,2nd & San Pedro,Company Owned,232 East 2nd Street,Los Angeles,CA,US,90012,(213) 266-1207,GMT-08:00 America/Los_Angeles,-118.24,34.05
Starbucks,9973-98128,1st & Los Angeles (Doubletree),Company Owned,"120 S. Los Angeles Street, #110",Los Angeles,CA,US,900123724,213-687-9849,GMT-08:00 America/Los_Angeles,-118.24,34.05
Starbucks,15062-155325,Dwntn LA Union Station Main Concrse,Company Owned,"800 N. Alameda Street, S2",Los Angeles,CA,US,900122177,213-621-2862,GMT-08:00 America/Los_Angeles,-118.24,34.06
Starbucks,19883-190684,Cesar Chavez & Broadway,Company Owned,639 N Broadway,Los Angeles,CA,US,90012,213-680-7825,GMT-08:00 America/Los_Angeles,-118.24,34.06
Starbucks,23261-228525,Colorado & Griswold,Company Owned,1360 Colorado St,Glendale,CA,US,91205,8182401387,GMT-08:00 America/Los_Angeles,-118.24,34.14
Starbucks,74571-79835,Vons-Glendale #1707,Licensed,561 N Glendale Ave,Glendale,CA,US,912063307,818-242-5926,GMT-08:00 America/Los_Angeles,-118.24,34.15
Starbucks,5301-219,La Crescenta - Foothill & Rosemont,Company Owned,"2627 Foothill Blvd., #13",La Crescenta,CA,US,912143511,(818) 541-1477,GMT-08:00 America/Los_Angeles,-118.24,34.22
Starbucks,8819-94823,"Gage & Compton, Huntington Park",Company Owned,1437 E. Gage Avenue,Los Angeles,CA,US,900011789,323-585-1928,GMT-08:00 America/Los_Angeles,-118.25,33.98
Starbucks,6608-65303,9th & Santee,Company Owned,300 E. 9th Street,Los Angeles,CA,US,900151802,213-489-0913,GMT-08:00 America/Los_Angeles,-118.25,34.04
Starbucks,17989-179004,6th & Spring,Company Owned,603 S. Spring Street,Los Angeles,CA,US,90014,213-623-2751,GMT-08:00 America/Los_Angeles,-118.25,34.05
Starbucks,9234-9075,5th & Olive (The Gas Co),Company Owned,555 West 5th Street,Los Angeles,CA,US,900131007,(213) 892-0306,GMT-08:00 America/Los_Angeles,-118.25,34.05
Starbucks,47015-254564,Cafe @ Colburn School Of Music,Licensed,"200 S. GRAND AVE, Cheviot Hills Shopping Center",LOS ANGELES,CA,US,90012,2136214515,GMT-08:00 America/Los_Angeles,-118.25,34.05
Starbucks,9225-8789,SE Corner 3rd & Hope (Wells Fargo),Company Owned,330 South Hope Street,Los Angeles,CA,US,900713115,(213) 620-1945,GMT-08:00 America/Los_Angeles,-118.25,34.05
Starbucks,24871-239146,5th & Hill,Company Owned,"401 West 5th Street, Venice Crossroads Shopping Center",Los Angeles,CA,US,90013,213-393-5383,GMT-08:00 America/Los_Angeles,-118.25,34.05
Starbucks,5289-886,Two Cal Plaza,Company Owned,"350 South Grand Avenue, Suite #B-5",Los Angeles,CA,US,90071,(213) 626-0466,GMT-08:00 America/Los_Angeles,-118.25,34.05
Starbucks,9227-159869,SWC 3rd & Hope (Bank of America),Company Owned,333 South Hope Street,Los Angeles,CA,US,90071,2136214191,GMT-08:00 America/Los_Angeles,-118.25,34.05
Starbucks,9230-154245,Grand & 1st (Grand Park),Company Owned,"217 N. Hill Street, Elleven Condominium",Los Angeles,CA,US,900122705,(213) 625-2205,GMT-08:00 America/Los_Angeles,-118.25,34.06
Starbucks,520-464,Glendale,Company Owned,"114 North Brand Blvd., Bank of America",Glendale,CA,US,912034610,(818) 547-3694,GMT-08:00 America/Los_Angeles,-118.25,34.15
Starbucks,6979-78181,"Glendale & Wilson, Glendale",Company Owned,"203-A North Glendale Avenue, Pacifico Plaza",Glendale,CA,US,912064455,818-637-2749,GMT-08:00 America/Los_Angeles,-118.25,34.15
Starbucks,74599-87828,Vons-La Crescenta #2598,Licensed,3233 Foothill Blvd,La Crescenta,CA,US,912142636,8186581018,GMT-08:00 America/Los_Angeles,-118.25,34.23
Starbucks,21800-197225,Central & Slauson,Company Owned,5857 S. Central Ave.,Los Angeles,CA,US,90001,323-521-1535,GMT-08:00 America/Los_Angeles,-118.26,33.99
Starbucks,13397-107450,12th & Hill,Company Owned,"1149 S. Hill Street, H-120",Los Angeles,CA,US,900152212,213-749-0487,GMT-08:00 America/Los_Angeles,-118.26,34.04
Starbucks,10939-100965,11th & Grand,Company Owned,"1111 South Grand Avenue, Aroma Wilshire Center",Los Angeles,CA,US,900152176,2137491751,GMT-08:00 America/Los_Angeles,-118.26,34.04
Starbucks,6577-66220,Figueroa & 7th (FIGat7th),Company Owned,"735 S. Figueroa Street, #308",Los Angeles,CA,US,900172563,213-488-9902,GMT-08:00 America/Los_Angeles,-118.26,34.05
Starbucks,16281-166729,Target LA Central T-2776,Licensed,735 S Figueroa St,Los Angeles,CA,US,900172571,213-330-4543,GMT-08:00 America/Los_Angeles,-118.26,34.05
Starbucks,5284-718,6th & Flower-CityNatPlz lower level,Company Owned,"505 S. Flower Street, Suite #B-13",Los Angeles,CA,US,90071,(213) 488-9049,GMT-08:00 America/Los_Angeles,-118.26,34.05
Starbucks,5256-714,5th & Figueroa-Union Bank 2nd Level,Company Owned,"445 S. Figueroa Street, #205, Office Depot Center",Los Angeles,CA,US,900711600,(213) 623-9191,GMT-08:00 America/Los_Angeles,-118.26,34.05
Starbucks,10586-101074,Wilshire & Bixel,Company Owned,1090 Wilshire Blvd.,Los Angeles,CA,US,900172416,213-250-8291,GMT-08:00 America/Los_Angeles,-118.26,34.05
Starbucks,11233-104456,6th & Grand,Company Owned,523 West 6th Street,Los Angeles,CA,US,900141217,213-327-0208,GMT-08:00 America/Los_Angeles,-118.26,34.05
Starbucks,5291-794,5th & Flower (Citibank),Company Owned,"444 South Flower Street, Suite #170",Los Angeles,CA,US,90071,(213) 622-4493,GMT-08:00 America/Los_Angeles,-118.26,34.05
Starbucks,17331-172467,9th & Flower,Company Owned,"600 West 9th Street, 135",Los Angeles,CA,US,900154300,213-239-9713,GMT-08:00 America/Los_Angeles,-118.26,34.05
Starbucks,5683-4410,Glendale & Fletcher,Company Owned,2560 Glendale Blvd.,Los Angeles,CA,US,900393220,323-913-3506,GMT-08:00 America/Los_Angeles,-118.26,34.1
Starbucks,10940-102763,Glendale & Glenfeliz,Company Owned,3111 Glendale Blvd,Los Angeles,CA,US,900391841,3236671457,GMT-08:00 America/Los_Angeles,-118.26,34.12
Starbucks,24874-238884,Central Ave & San Fernando Rd,Company Owned,"3900 San Fernando Road, Retail E",Glendale,CA,US,91204,8182546339,GMT-08:00 America/Los_Angeles,-118.26,34.13
Starbucks,79602-106070,Vons - Glendale #2254,Licensed,311 W LOS FELIZ BLVD,GLENDALE,CA,US,912042513,818-246-7161,GMT-08:00 America/Los_Angeles,-118.26,34.13
Starbucks,5793-8030,Los Feliz & Seneca,Company Owned,"2919 Los Feliz Blvd., #6",Los Angeles,CA,US,900391544,323-665-1347,GMT-08:00 America/Los_Angeles,-118.26,34.13
Starbucks,76784-111370,Target Glendale T-2307,Licensed,"241 S Central Ave, Glendale Galleria",Glendale,CA,US,91204-134,818-547-9687,GMT-08:00 America/Los_Angeles,-118.26,34.14
Starbucks,11894-105944,"Central & Acacia, Glendale",Company Owned,"919 S. Central Ave., F",Glendale,CA,US,912042004,818-545-4122,GMT-08:00 America/Los_Angeles,-118.26,34.14
Teavana,28350-249747,Teavana - Glendale Galleria,Company Owned,1153 GLENDALE GALLERIA,Glendale,CA,US,91210,818-956-1063,GMT-08:00 America/Los_Angeles,-118.26,34.15
Starbucks,20827-185184,Ralphs Glendale #97,Licensed,1200 N Central Ave,Glendale,CA,US,91202,818-246-1752,GMT-08:00 America/Los_Angeles,-118.26,34.16
Starbucks,14152-113347,"Pacific & Stocker, Glendale",Company Owned,"1200 North Pacific Avenue, 103",Glendale,CA,US,912021602,818-956-7540,GMT-08:00 America/Los_Angeles,-118.26,34.16
Starbucks,5814-15013,"Pacific & Burchett, Glendale",Company Owned,469 Burchett Street,Glendale,CA,US,912031357,818-291-1890,GMT-08:00 America/Los_Angeles,-118.26,34.16
Starbucks,11445-251305,Foothill & Willalee,Company Owned,3517 Foothill Boulevard,Glendale,CA,US,91214,8185417693,GMT-08:00 America/Los_Angeles,-118.26,34.23
Starbucks,13222-106449,Olympic & Figueroa (LA LIVE),Company Owned,"800 W. Olympic Blvd., 102, LAX International Airport",Los Angeles,CA,US,900151360,213-748-1009,GMT-08:00 America/Los_Angeles,-118.27,34.04
Starbucks,6688-75720,Wilshire & Union,Company Owned,"1601 Wilshire Blvd, LAX International Airport",Los Angeles,CA,US,900171610,213-484-0958,GMT-08:00 America/Los_Angeles,-118.27,34.06
Starbucks,24851-239027,Griffith Park & Hyperion,Company Owned,2720 Griffith Park Blvd.,Los Angeles,CA,US,90027,323-828-9251,GMT-08:00 America/Los_Angeles,-118.27,34.11
Starbucks,47590-258972,Albertsons - Tujunga #3175,Licensed,"6240 Foothill Blvd, Monte Vista Shopping Center",Tujunga,CA,US,910422724,818-248-2745,GMT-08:00 America/Los_Angeles,-118.27,34.24
Starbucks,15244-113064,Trojan Grounds @ USC,Licensed,642 W 34th St,Los Angeles,CA,US,90007,213-740-6285,GMT-08:00 America/Los_Angeles,-118.28,34.02
Starbucks,17413-168644,Figueroa & Exposition,Company Owned,"3584 S. Figueroa St., #1B, Farmers Market",Los Angeles,CA,US,90007,213-749-9302,GMT-08:00 America/Los_Angeles,-118.28,34.02
Starbucks,24005-234864,Figueroa & 28th,Company Owned,2735 S. Figueroa St.,Los Angeles,CA,US,90007,213-618-5477,GMT-08:00 America/Los_Angeles,-118.28,34.03
Starbucks,29377-252209,6th & Occidental,Company Owned,534 S. Occidental,Los Angeles,CA,US,90057,213-215-4691,GMT-08:00 America/Los_Angeles,-118.28,34.06
Starbucks,11868-105618,"Gaffey & 5th, San Pedro",Company Owned,438 S. Gaffey Ave,San Pedro,CA,US,907312436,310-519-3496,GMT-08:00 America/Los_Angeles,-118.29,33.74
Starbucks,79519-103403,Vons - San Pedro #2283,Licensed,1221 S. GAFFEY Street,San Pedro,CA,US,90731,310-832-7063,GMT-08:00 America/Los_Angeles,-118.29,33.74
Starbucks,76985-136849,Target San Pedro T-2470,Licensed,"1701 N Gaffey St, Garden Village",San Pedro,CA,US,90731,310-214-1561,GMT-08:00 America/Los_Angeles,-118.29,33.76
Starbucks,5960-40859,"Sepulveda & Vermont, Harbor City",Company Owned,898 Sepulveda Blvd.,Harbor City,CA,US,907101605,310-891-1915,GMT-08:00 America/Los_Angeles,-118.29,33.81
Starbucks,22525-213345,Vermont & Wilshire,Company Owned,3150 Wilshire Blvd,Los Angeles,CA,US,90010,213-384-3578,GMT-08:00 America/Los_Angeles,-118.29,34.06
Starbucks,74543-52099,Vons-Los Angeles #2261,Licensed,3461 W 3rd St,Los Angeles,CA,US,900201604,2133846552,GMT-08:00 America/Los_Angeles,-118.29,34.07
Starbucks,5794-19180,Vermont & Prospect,Company Owned,1700 N. Vermont Avenue,Los Angeles,CA,US,900274306,323-662-7705,GMT-08:00 America/Los_Angeles,-118.29,34.1
Starbucks,74664-94345,Vons-Los Angeles #2665,Licensed,4520 Sunset Blvd,Los Angeles,CA,US,90028,323-662-8107,GMT-08:00 America/Los_Angeles,-118.29,34.1
Starbucks,17878-171164,Compass @ Walt Disney Imagineering,Licensed,1401 Flower St,Glendale,CA,US,912012421,818-544-0890,GMT-08:00 America/Los_Angeles,-118.29,34.16
Starbucks,75385-104362,Compass @ Disney GC3,Licensed,1101 Flower Street,Glendale,CA,US,912012415,818-544-0898,GMT-08:00 America/Los_Angeles,-118.29,34.16
Starbucks,6814-81120,"Glenoaks & Western, Glendale",Company Owned,1703 W. Glenoaks Blvd.,Glendale,CA,US,912011815,818-244-9488,GMT-08:00 America/Los_Angeles,-118.29,34.17
Starbucks,6856-82370,"Carson & Normandie, Torrance",Company Owned,1171 W. Carson Street,Torrance,CA,US,905022018,310-533-0972,GMT-08:00 America/Los_Angeles,-118.3,33.83
Starbucks,5651-1915,190th & Normandie,Company Owned,"1450 190th Street, Suite F",Torrance,CA,US,905011138,310-618-8339,GMT-08:00 America/Los_Angeles,-118.3,33.86
Starbucks,5644-2381,Redondo Beach & Normandie,Company Owned,1258 W Redondo Beach Blvd,Gardena,CA,US,902473468,310-532-2262,GMT-08:00 America/Los_Angeles,-118.3,33.89
Starbucks,25053-238705,Rosecrans & Normandie,Company Owned,"1346 West Rosecrans Avenue, Gardena Marketplace",Gardena,CA,US,90247,310-508-8117,GMT-08:00 America/Los_Angeles,-118.3,33.9
Starbucks,17848-181484,Wilshire & Normandie,Company Owned,3450 Wilshire Blvd.,Los Angeles,CA,US,90010,(213) 382-3351,GMT-08:00 America/Los_Angeles,-118.3,34.06
Starbucks,74887-99591,Vons - Tujunga #2124,Licensed,7789 Foothill Blvd,Tujunga,CA,US,910422137,818-353-4917,GMT-08:00 America/Los_Angeles,-118.3,34.26
Starbucks,5694-5504,Western & 25th,Company Owned,"2470 S Western Ave, Fifth Gaffey Plaza",San Pedro,CA,US,907324359,310-514-0047,GMT-08:00 America/Los_Angeles,-118.31,33.72
Starbucks,74609-90934,Vons-San Pedro #2162,Licensed,1440 W 25th St,San Pedro,CA,US,907324418,310-832-8459,GMT-08:00 America/Los_Angeles,-118.31,33.72
Starbucks,6431-37099,"Western & Westmont, San Pedro",Company Owned,28166 S. Western Ave.,San Pedro,CA,US,907321248,310-514-2550,GMT-08:00 America/Los_Angeles,-118.31,33.76
Starbucks,5843-27328,"Palos Verdes & Western, Harbor City",Company Owned,"26650 Western Ave, #C, The Makena Vermont Retail Center",Harbor City,CA,US,907103655,310-534-1961,GMT-08:00 America/Los_Angeles,-118.31,33.78
Starbucks,20680-207644,Western & Lomita,Company Owned,1680 W. Lomita Blvd.,Harbor City,CA,US,90710,3105344907,GMT-08:00 America/Los_Angeles,-118.31,33.8
Starbucks,5645-1961,"Artesia & Western, Gardena",Company Owned,1759 W. Artesia Blvd.,Gardena,CA,US,902483220,310-771-0524,GMT-08:00 America/Los_Angeles,-118.31,33.87
Starbucks,5995-88000,Western & Slauson,Company Owned,1850 W. Slauson Avenue,Los Angeles,CA,US,900471126,323-292-4429,GMT-08:00 America/Los_Angeles,-118.31,33.99
Starbucks,5911-34399,Wilshire & Serrano,Company Owned,"3680 Wilshire Blvd., 102",Los Angeles,CA,US,900102707,213-383-5370,GMT-08:00 America/Los_Angeles,-118.31,34.06
Starbucks,5379-98393,Sunset Blvd & St Andrews Place,Company Owned,"5545 W.  Sunset Blvd., 106",Hollywood,CA,US,900288521,323-962-4525,GMT-08:00 America/Los_Angeles,-118.31,34.1
Starbucks,5877-29275,Hollywood & Western,Company Owned,"5453 Hollywood Boulevard, D",Los Angeles,CA,US,900273467,323-462-5506,GMT-08:00 America/Los_Angeles,-118.31,34.1
Starbucks,6915-197405,8241 Foothill Blvd.,Company Owned,"8241 Foothill Blvd., Cherry Orchard Center",Sunland,CA,US,91040,8189513616,GMT-08:00 America/Los_Angeles,-118.31,34.26
Starbucks,76505-99301,Target Gardena T-290,Licensed,2169 W Redono Beach Blvd,Gardena,CA,US,902473625,310-327-0762,GMT-08:00 America/Los_Angeles,-118.32,33.89
Starbucks,76944-131626,Target Hawthorne T-2280,Licensed,"2700 120th St, The Exchange",Hawthorne,CA,US,902503388,310-839-5200,GMT-08:00 America/Los_Angeles,-118.32,33.92
Starbucks,507-450,Larchmont & Beverly,Company Owned,"206 North Larchmont, Beverly Center",Los Angeles,CA,US,900043707,323-469-1081,GMT-08:00 America/Los_Angeles,-118.32,34.07
Starbucks,5461-1452,Sunset & Gower,Company Owned,"6102 W. Sunset Blvd., Unit 6102, Franciscan Metro Center",Los Angeles,CA,US,900286424,(323) 467-6404,GMT-08:00 America/Los_Angeles,-118.32,34.1
Starbucks,6849-79123,"Crenshaw & Airport, Torrance",Company Owned,"25348 Crenshaw Blvd., Corral Hollow Shopping Center",Torrance,CA,US,905056100,310-534-4835,GMT-08:00 America/Los_Angeles,-118.33,33.79
Starbucks,524-468,Torrance Crossroads,Company Owned,"24427 Crenshaw, Suite F, Triangle Center",Torrance,CA,US,905055346,310-530-2034,GMT-08:00 America/Los_Angeles,-118.33,33.8
Starbucks,74511-25707,Vons-Torrance #3517,Licensed,"24325 Crenshaw Blvd., Torrance Gateway",Torrance,CA,US,905055349,310-784-1020,GMT-08:00 America/Los_Angeles,-118.33,33.8
Starbucks,6656-71400,"Crenshaw & Sepulveda, Torrance",Company Owned,"2370 Crenshaw Blvd, Suite A",Torrance,CA,US,905013352,310-212-3150,GMT-08:00 America/Los_Angeles,-118.33,33.82
Starbucks,3425-85640,"Crenshaw & I-105, Hawthorne",Company Owned,"2909 W. 120th Street, Suite A",Hawthorne,CA,US,902503398,323-756-1898,GMT-08:00 America/Los_Angeles,-118.33,33.92
Starbucks,15491-155987,Target Inglewood T-1329,Licensed,"3471 W Century Blvd, Hollywood Park Marketplace",Inglewood,CA,US,903031218,310-677-2436,GMT-08:00 America/Los_Angeles,-118.33,33.95
Starbucks,6767-79220,Century & Club Dr,Company Owned,"3351 W. Century Blvd, 105, La Brea Plaza",Inglewood,CA,US,903031300,310-412-1620,GMT-08:00 America/Los_Angeles,-118.33,33.95
Starbucks,6593-64760,"Crenshaw & Coliseum, Los Angeles",Company Owned,3722 Crenshaw Blvd.,Los Angeles,CA,US,900165804,323-292-7911,GMT-08:00 America/Los_Angeles,-118.33,34.02
Starbucks,9505-96843,"Crenshaw & Washington, Los Angeles",Company Owned,"4177 W. Washington Blvd., Ernst & Young Plaza",Los Angeles,CA,US,900181055,323-734-0281,GMT-08:00 America/Los_Angeles,-118.33,34.04
Starbucks,74586-39039,Vons-Los Angeles #2229,Licensed,727 N Vine St,Los Angeles,CA,US,900383713,323-461-4167,GMT-08:00 America/Los_Angeles,-118.33,34.08
Starbucks,16980-167664,Hollywood & Vine,Company Owned,6290 West Hollywood Blvd,Hollywood,CA,US,90028,323-464-4601,GMT-08:00 America/Los_Angeles,-118.33,34.1
Starbucks,22916-225624,Sunset & Vine,Company Owned,"6290 Sunset Blvd., Hollywood Place",Hollywood,CA,US,90028,323-464-1859,GMT-08:00 America/Los_Angeles,-118.33,34.1
Starbucks,6687-69960,"Artesia & Prairie, Torrance",Company Owned,3931 W. Artesia Blvd.,Torrance,CA,US,905043210,310-371-4442,GMT-08:00 America/Los_Angeles,-118.34,33.87
Starbucks,9506-95463,Pico & San Vicente,Company Owned,4700 West Pico Blvd,Los Angeles,CA,US,900194267,323-936-5032,GMT-08:00 America/Los_Angeles,-118.34,34.05
Starbucks,5698-2402,La Brea & San Vicente,Company Owned,1258 South La Brea Ave,Los Angeles,CA,US,900191628,323-934-2408,GMT-08:00 America/Los_Angeles,-118.34,34.05
Starbucks,5488-1453,Wilshire & Highland,Company Owned,5020 Wilshire Blvd.,Los Angeles,CA,US,900364315,(323) 936-2989,GMT-08:00 America/Los_Angeles,-118.34,34.06
Starbucks,28131-250071,4th and La Brea,Company Owned,359 South La Brea,Los Angeles,CA,US,90036,(323) 627-5619,GMT-08:00 America/Los_Angeles,-118.34,34.07
Starbucks,25200-156784,"Ralph's-Los Angeles, CA #39",Licensed,260 S La Brea Ave,Los Angeles,CA,US,900363023,323-937-3264,GMT-08:00 America/Los_Angeles,-118.34,34.07
Starbucks,5373-931,Beverly & Detroit,Company Owned,7122 Beverly Boulevard,Los Angeles,CA,US,900362569,(323) 939-1793,GMT-08:00 America/Los_Angeles,-118.34,34.08
Starbucks,22601-215486,Highland & Willoughby,Company Owned,"859 N. Highland Avenue, Westside Pavilion",Los Angeles,CA,US,90038,323-493-1868,GMT-08:00 America/Los_Angeles,-118.34,34.09
Starbucks,21467-212349,Target @ West Hollywood T-1884,Licensed,"7100 Santa Monca Blvd, Suite 201",Los Angeles,CA,US,90046,323-603-0004,GMT-08:00 America/Los_Angeles,-118.34,34.09
Starbucks,6729-74640,Santa Monica & La Brea,Company Owned,"7100 Santa Monica Blvd, Suite 140",West Hollywood,CA,US,900466174,323-874-2135,GMT-08:00 America/Los_Angeles,-118.34,34.09
Starbucks,6467-56379,Hollywood & Highland,Company Owned,"6801 Hollywood Blvd, 257",Hollywood,CA,US,900286136,323-962-7414,GMT-08:00 America/Los_Angeles,-118.34,34.1
Starbucks,5775-16414,Hollywood & McCadden,Company Owned,6745 Hollywood Blvd.,Hollywood,CA,US,900284604,323-467-5534,GMT-08:00 America/Los_Angeles,-118.34,34.1
Starbucks,5402-1195,Sunset & La Brea,Company Owned,7055 SUNSET BLVD,Los Angeles,CA,US,900287509,(323) 469-6994,GMT-08:00 America/Los_Angeles,-118.34,34.1
Starbucks,15177-8708,Hollywood & Orange -Madame Tussauds,Company Owned,"6933 Hollywood Blvd., A",Los Angeles,CA,US,900286149,(323) 462-1602,GMT-08:00 America/Los_Angeles,-118.34,34.1
Starbucks,5620-1957,Highland & Franklin,Company Owned,"1900 N Highland, #1",Hollywood,CA,US,900682998,323-850-7360,GMT-08:00 America/Los_Angeles,-118.34,34.11
Starbucks,5551-1764,Pacific Coast Hwy. & Hawthorne,Company Owned,"3737 Pacific Coast Highway, Del Amo Shopping Center",Torrance,CA,US,905055953,(310) 791-9966,GMT-08:00 America/Los_Angeles,-118.35,33.81
Starbucks,656-219067,Del Amo FashCtr-Level 2/Macys Court,Company Owned,"21713 Carson St., VC11",Torrance,CA,US,90503,,GMT-08:00 America/Los_Angeles,-118.35,33.83
Teavana,28238-250164,Teavana - Del Amo Fashion Center,Company Owned,"3525 W. Carson St., Rm. 229A",Torrance,CA,US,90503,310-370-1614,GMT-08:00 America/Los_Angeles,-118.35,33.83
Starbucks,10819-102571,Del Amo Fashion Center,Company Owned,"3525 Carson Street, Suite 78, Westgate Shopping Center",Torrance,CA,US,905035751,3103710241,GMT-08:00 America/Los_Angeles,-118.35,33.83
Starbucks,29628-254251,Target Torrance T-0200,Licensed,"3433 Sepulveda Blvd, Rolling Hills Plaza",Torrance,CA,US,90505,310-214-1561,GMT-08:00 America/Los_Angeles,-118.35,33.83
Starbucks,75867-86520,Marriott Torrance,Licensed,3635 Fashion Way,Torrance,CA,US,905034897,310-792-6154,GMT-08:00 America/Los_Angeles,-118.35,33.84
Starbucks,5630-1960,South Bay Galleria - Redondo Beach,Company Owned,"1815 Hawthorne Blvd, #144",Redondo Beach,CA,US,902783432,310-214-7808,GMT-08:00 America/Los_Angeles,-118.35,33.87
Starbucks,27005-97579,Ralphs-Redondo Beach #120,Licensed,1413 Hawthorne Blvd,Redondo Beach,CA,US,90278,310-370-9446,GMT-08:00 America/Los_Angeles,-118.35,33.87
Starbucks,5859-27698,"Hawthorne & Artesia, Torrance",Company Owned,17400 Hawthorne Boulevard,Torrance,CA,US,905043109,310-921-2836,GMT-08:00 America/Los_Angeles,-118.35,33.87
Starbucks,14154-113344,"Hawthorne Blvd & 149th St, Lawndale",Company Owned,"14828 Hawthorne Blvd, Tejon Ranch Complex",Lawndale,CA,US,902601525,310-973-4079,GMT-08:00 America/Los_Angeles,-118.35,33.9
Starbucks,5688-5364,Hawthorne & El Segundo,Company Owned,12770 Hawthorne Blvd,Hawthorne,CA,US,902503949,310-973-7334,GMT-08:00 America/Los_Angeles,-118.35,33.92
Starbucks,25941-242286,Hawthorne Blvd & Imperial,Company Owned,4410 West Imperial Highway,Hawthorne,CA,US,90250,310-743-9963,GMT-08:00 America/Los_Angeles,-118.35,33.93
Starbucks,74581-83081,Vons-Inglewood #2502,Licensed,500 E Manchester Blvd,Inglewood,CA,US,903019294,310-677-0286,GMT-08:00 America/Los_Angeles,-118.35,33.96
Starbucks,21687-212688,Ralphs - Los Angeles #283,Licensed,5080 Rodeo Road,Los Angeles,CA,US,90016,323-292-0633,GMT-08:00 America/Los_Angeles,-118.35,34.02
Starbucks,22415-184968,Ralphs Los Angeles #289,Licensed,5601 Wilshire Blvd,Los Angeles,CA,US,90036,323-936-4954,GMT-08:00 America/Los_Angeles,-118.35,34.06
Starbucks,9998-98124,Wilshire & Detroit,Company Owned,5353 Wilshire Blvd.,Los Angeles,CA,US,900364284,(323) 939-2071,GMT-08:00 America/Los_Angeles,-118.35,34.06
Starbucks,12900-154604,Wilshire & Curson,Company Owned,"5757 Wilshire Blvd, #106",Los Angeles,CA,US,900363684,323-931-1013,GMT-08:00 America/Los_Angeles,-118.35,34.06
Starbucks,21866-169146,"Ralph's- Hollywood, CA #100",Licensed,7257 W Sunset Blvd,Los Angeles,CA,US,900463409,323-512-8382,GMT-08:00 America/Los_Angeles,-118.35,34.1
Starbucks,11991-105620,Cahuenga & Barham,Company Owned,3242 West Cahuenga Blvd.,Los Angeles,CA,US,900681302,323-876-8032,GMT-08:00 America/Los_Angeles,-118.35,34.13
Starbucks,75557-71180,Universal City Walk,Licensed,"100 Universal City Plaza, Upland Convenience Center",Universal City,CA,US,916081085,818-622-2233,GMT-08:00 America/Los_Angeles,-118.35,34.14
Starbucks,6802-81661,"Sepulveda & Anza, Torrance",Company Owned,"4437 Sepulveda Bl., Torrance Star Plaza",Torrance,CA,US,905052200,310-540-2806,GMT-08:00 America/Los_Angeles,-118.36,33.83
Starbucks,5714-7927,Torrance & Hawthorne,Company Owned,"21209-A Hawthorne Blvd, Unit 107-42, Del Amo Fashion Center",Torrance,CA,US,905035501,310-316-2719,GMT-08:00 America/Los_Angeles,-118.36,33.84
Starbucks,76433-95641,Target Redondo Beach T-1980,Licensed,1601 Kingsdale Ave,Redondo Beach,CA,US,902783928,310-750-0003,GMT-08:00 America/Los_Angeles,-118.36,33.87
Starbucks,74868-94831,Vons - Redondo Beach #1623,Licensed,4001 Inglewood Ave,Redondo Beach,CA,US,902781121,310-349-0860,GMT-08:00 America/Los_Angeles,-118.36,33.89
Starbucks,2820-88441,La Brea & Centinela,Company Owned,941 N. La Brea Avenue,Inglewood,CA,US,903022207,310-412-2370,GMT-08:00 America/Los_Angeles,-118.36,33.98
Starbucks,5577-1851,Fairfax & Olympic,Company Owned,6066 West Olympic Boulevard,Los Angeles,CA,US,900364402,(323) 634-7845,GMT-08:00 America/Los_Angeles,-118.36,34.06
Starbucks,5277-313,3rd & Fairfax (Farmers Market),Company Owned,6333 W. 3rd Street,Los Angeles,CA,US,900363109,(323) 965-9594,GMT-08:00 America/Los_Angeles,-118.36,34.07
Starbucks,624-346,Melrose & Stanley,Company Owned,7624 Melrose Avenue,Los Angeles,CA,US,900467420,323-852-9690,GMT-08:00 America/Los_Angeles,-118.36,34.08
Starbucks,6512-60520,Santa Monica & Fairfax,Company Owned,"7901 Santa Monica Blvd, #107, West Hollywood Gateway",West Hollywood,CA,US,900465178,323-822-9733,GMT-08:00 America/Los_Angeles,-118.36,34.09
Starbucks,27774-238927,Universal Studios Hollywood - Upper,Licensed,100 Universal City Plaza,Universal City,CA,US,91608,(818) 622-6785,GMT-08:00 America/Los_Angeles,-118.36,34.14
Starbucks,23352-223786,Universal Studios Hollywood Studio,Licensed,100 Universal City Plaza,Universal City,CA,US,91608,818-777-8002,GMT-08:00 America/Los_Angeles,-118.36,34.14
Starbucks,5819-21121,Promenade on the Peninsula,Company Owned,"550 Deep Valley Drive, #179",Rolling Hills,CA,US,902747617,310-265-8071,GMT-08:00 America/Los_Angeles,-118.37,33.77
Starbucks,5246-316,Pacific Plaza (PCH/Calle Mayor),Company Owned,5005 Pacific Coast Highway,Torrance,CA,US,905055441,(310) 373-6537,GMT-08:00 America/Los_Angeles,-118.37,33.81
Starbucks,5720-5663,190th & Anza,Company Owned,5050 190th Street,Torrance,CA,US,905031004,310-542-1072,GMT-08:00 America/Los_Angeles,-118.37,33.86
Starbucks,5840-26567,"Rosecrans & The 405 Fwy, Hawthorne",Company Owned,5378 W. Rosecrans Avenue,Hawthorne,CA,US,902506646,310-725-7001,GMT-08:00 America/Los_Angeles,-118.37,33.9
Starbucks,5878-29655,"Rosecrans & Oceangate, Hawthorne",Company Owned,"5030 W. Rosecrans Ave, Hawthorne Plaza Village",Hawthorne,CA,US,902506618,310-263-7290,GMT-08:00 America/Los_Angeles,-118.37,33.9
Starbucks,25054-238704,Manchester & Oak,Company Owned,601 West Manchester Blvd,Inglewood,CA,US,90301,310-256-0063,GMT-08:00 America/Los_Angeles,-118.37,33.96
Starbucks,49341-237439,Ralph's - Los Angeles #185,Licensed,5245 W Centinela Ave,Los Angeles,CA,US,90045,310 6412813,GMT-08:00 America/Los_Angeles,-118.37,33.98
Starbucks,5491-717,Centinela & La Tijera,Company Owned,5301 Centinela Ave,Los Angeles,CA,US,900452003,(310) 338-1297,GMT-08:00 America/Los_Angeles,-118.37,33.98
Starbucks,76949-131627,Target Los Angeles T-1306,Licensed,3535 S La Cienega Blvd,Los Angeles,CA,US,900164407,(310) 895-1131,GMT-08:00 America/Los_Angeles,-118.37,34.02
Starbucks,14412-118485,La Cienega & Jefferson,Company Owned,3344 S. La Cienega Blvd,Los Angeles,CA,US,900163115,323-938-0821,GMT-08:00 America/Los_Angeles,-118.37,34.03
Starbucks,14629-128224,Sunset & Crescent Heights,Company Owned,"8000 Sunset Blvd., B110",Los Angeles,CA,US,900462439,323-656-1812,GMT-08:00 America/Los_Angeles,-118.37,34.1
Starbucks,5350-902,Sunset Blvd & N. Kings Rd,Company Owned,"8363 N.E. Sunset Blvd., Santa Monica & Fairfax",West Hollywood,CA,US,900691515,(323) 848-8663,GMT-08:00 America/Los_Angeles,-118.37,34.1
Starbucks,5734-8710,Ventura  Vineland,Company Owned,10965 Ventura Blvd,Studio City,CA,US,916043341,818-762-9121,GMT-08:00 America/Los_Angeles,-118.37,34.14
Starbucks,22417-220625,Lankershim & La Maida,Company Owned,4853 Lankershim Blvd,North Hollywood,CA,US,91601,818-299-3072,GMT-08:00 America/Los_Angeles,-118.37,34.16
Starbucks,5642-1690,Lankershim & Magnolia,Company Owned,5166 A Lankershim Blvd,North Hollywood,CA,US,916013799,818-487-9226,GMT-08:00 America/Los_Angeles,-118.37,34.16
Starbucks,76211-90561,Target North Hollywood T-294,Licensed,11051 Victory Blvd,North Hollywood,CA,US,916063719,818-761-3083,GMT-08:00 America/Los_Angeles,-118.37,34.19
Starbucks,518-462,Silver Spur & Hawthorne,Company Owned,46 A Peninsula Center,Rolling Hills Estates,CA,US,902743558,(310) 544-3942,GMT-08:00 America/Los_Angeles,-118.38,33.77
Starbucks,74241-25927,Vons-Rolling Hills Estates #2233,Licensed,7 Peninsula Ctr,Rolling Hills Estates,CA,US,902743506,310-377-1994,GMT-08:00 America/Los_Angeles,-118.38,33.78
Starbucks,5546-1686,Artesia & Flagler - Redondo Bch.,Company Owned,1904 Artesia Blvd.,Redondo Beach,CA,US,902782908,(310) 318-5886,GMT-08:00 America/Los_Angeles,-118.38,33.87
Starbucks,5349-263,Rosecrans & Douglas - El Segundo,Company Owned,2231 Rosecrans Avenue,El Segundo,CA,US,902454930,(310) 725-9110,GMT-08:00 America/Los_Angeles,-118.38,33.9
Starbucks,75497-107886,Los Angeles Airforce Base El Segund,Licensed,200 N. Douglas Street Bldg 252,El Segundo,CA,US,902454616,310-414-9404,GMT-08:00 America/Los_Angeles,-118.38,33.92
Starbucks,14627-123604,Douglas & Maple,Company Owned,"2263 E. Maple Avenue, Appian Valley Crossing",El Segundo,CA,US,902456508,310-648-7671,GMT-08:00 America/Los_Angeles,-118.38,33.93
Starbucks,75628-38879,Marriott Los Angeles Int'l Airport,Licensed,5855 W. Century Blvd,Los Angeles,CA,US,900455614,310-641-5700,GMT-08:00 America/Los_Angeles,-118.38,33.95
Starbucks,5626-1958,Pico & Robertson,Company Owned,8783 West Pico Blvd,Los Angeles,CA,US,900352212,310-860-9364,GMT-08:00 America/Los_Angeles,-118.38,34.05
Starbucks,28051-249448,La Cienega and Airdrome,Company Owned,1742 S. La Cienega,Los Angeles,CA,US,90035,323-333-1529,GMT-08:00 America/Los_Angeles,-118.38,34.05
Starbucks,16279-169147,Target LA Beverly T-2775,Licensed,8480 Beverly Blvd,Los Angeles,CA,US,900483414,323-602-0637,GMT-08:00 America/Los_Angeles,-118.38,34.08
Starbucks,75244-90562,Cedars-Sinai Medical Center,Licensed,8700 Beverly Blvd.,Los Angeles,CA,US,900481804,310-423-6260,GMT-08:00 America/Los_Angeles,-118.38,34.08
Teavana,28544-250017,Teavana - Beverly Center,Company Owned,"8500 Beverly Boulevard, #650",Los Angeles,CA,US,90048,310-358-0618,GMT-08:00 America/Los_Angeles,-118.38,34.08
Starbucks,5290-887,Beverly Center - Level 8,Company Owned,"8500 Beverly Center, Foodcourt, 8th Floor / #852B, Fashion District",Los Angeles,CA,US,90048,(310) 358-0161,GMT-08:00 America/Los_Angeles,-118.38,34.08
Starbucks,5871-30359,Beverly & Robertson,Company Owned,164 N. Robertson,West Hollywood,CA,US,900483109,310-659-7370,GMT-08:00 America/Los_Angeles,-118.38,34.08
Starbucks,633-351,Santa Monica & Westmount,Company Owned,8595 Santa Monica Blvd.,West Hollywood,CA,US,900694120,(310) 659-1856,GMT-08:00 America/Los_Angeles,-118.38,34.09
Starbucks,9596-97295,Tujunga & Camarillo,Company Owned,11331 Camarillo Street,North Hollywood,CA,US,916021216,818-761-0164,GMT-08:00 America/Los_Angeles,-118.38,34.16
Starbucks,17631-171184,Ralphs-Palos Verdes #720,Licensed,"30019 Hawthorne Blvd, Golden Cove Shopping Center",Rancho Palos Verdes,CA,US,902755434,310-377-6941,GMT-08:00 America/Los_Angeles,-118.39,33.76
Starbucks,583-232,Riviera Village (Redondo Beach),Company Owned,1749 S. Elena,Redondo Beach,CA,US,902775704,(310) 540-9080,GMT-08:00 America/Los_Angeles,-118.39,33.82
Starbucks,5617-1916,Pacific Coast Hwy & Diamond St.,Company Owned,300 N. Pacific Coast Highway,Redondo Beach,CA,US,902772837,310-798-1567,GMT-08:00 America/Los_Angeles,-118.39,33.85
Starbucks,74685-96540,Vons-Hermosa Beach #2110,Licensed,715 Pier Ave,Hermosa Beach,CA,US,902543941,310-374-4484,GMT-08:00 America/Los_Angeles,-118.39,33.86
Starbucks,5201-291,PCH & Aviation,Company Owned,1100 Pacific Coast Highway,Hermosa Beach,CA,US,902543951,(310) 372-7599,GMT-08:00 America/Los_Angeles,-118.39,33.86
Starbucks,11954-105938,"Rosecrans & Sepulveda, El Segundo",Company Owned,2005 Park Place,El Segundo,CA,US,902454754,310-615-1149,GMT-08:00 America/Los_Angeles,-118.39,33.91
Starbucks,26529-239124,Residence Inn @ LAX,Licensed,5933 W. Century Blvd.,Los Angeles,CA,US,90045,310-568-7730,GMT-08:00 America/Los_Angeles,-118.39,33.95
Starbucks,75810-94544,Sheraton Gateway Hotel,Licensed,"6101 W Century Blvd, Placita Silver Ridge",Los Angeles,CA,US,900455310,310-642-4803,GMT-08:00 America/Los_Angeles,-118.39,33.95
Starbucks,5785-5892,Promenade at Howard Hughes Center,Company Owned,"6081 Center Drive, 108",Los Angeles,CA,US,900451576,310-645-5012,GMT-08:00 America/Los_Angeles,-118.39,33.98
Starbucks,29701-179005,Slauson & Sepulveda,Company Owned,6150 Slauson Avenue,Culver City,CA,US,90230,213-334-0225,GMT-08:00 America/Los_Angeles,-118.39,33.99
Starbucks,76328-97203,Target Culver City T-198,Licensed,10820 Jefferson Blvd,Culver City,CA,US,902304935,310-839-5200,GMT-08:00 America/Los_Angeles,-118.39,34
Starbucks,74574-79834,Vons-Culver City #2212,Licensed,11030 Jefferson Blvd,Culver City,CA,US,902305520,310-398-1945,GMT-08:00 America/Los_Angeles,-118.39,34
Starbucks,5250-901,Venice & Culver,Company Owned,"8985 Venice Blvd, Ste CB-2",Los Angeles,CA,US,900343344,(310) 558-0407,GMT-08:00 America/Los_Angeles,-118.39,34.03
Starbucks,3575-126987,Von's-West Hollywood #2739,Licensed,8969 Santa Monica Blvd.,West Hollywood,CA,US,900694934,(310) 595-1737,GMT-08:00 America/Los_Angeles,-118.39,34.08
Starbucks,5232-248024,Santa Monica & Robertson,Company Owned,8951 Santa Monica Blvd.,West Hollywood,CA,US,90069,8584729420,GMT-08:00 America/Los_Angeles,-118.39,34.08
Starbucks,5821-5506,"Hermosa & 13th, Hermosa Beach",Company Owned,1303 Hermosa Avenue,Hermosa Beach,CA,US,902543560,310-406-8569,GMT-08:00 America/Los_Angeles,-118.4,33.86
Starbucks,76330-95469,Target Manhattan Beach T-199,Licensed,1200 N Sepulveda Blvd,Manhattan Beach,CA,US,902665104,310-546-5601,GMT-08:00 America/Los_Angeles,-118.4,33.89
Starbucks,14966-155986,"Ralph's-Manhattan Beach, CA #166",Licensed,2700 N Sepulveda Blvd,Manhattan Beach,CA,US,902662726,310-564-2471,GMT-08:00 America/Los_Angeles,-118.4,33.9
Starbucks,5502-1658,Sepulveda & Mariposa,Company Owned,"530 N Sepulveda Blvd, #C",El Segundo,CA,US,902455820,(310) 647-1697,GMT-08:00 America/Los_Angeles,-118.4,33.92
Starbucks,47954-244729,Ralphs El Segundo #645,Licensed,500 North Sepulveda,El Segundo,CA,US,90245,3106150537,GMT-08:00 America/Los_Angeles,-118.4,33.92
Starbucks,26137-242689,LAX T6 Evenings and Reserve,Licensed,201 World Way,Los Angeles,CA,US,90045,310-646-4054,GMT-08:00 America/Los_Angeles,-118.4,33.94
Starbucks,26131-243427,LAX T6 Baggage Claim,Licensed,201 World Way,Los Angeles,CA,US,90045,310-646-4054,GMT-08:00 America/Los_Angeles,-118.4,33.94
Starbucks,72305-4330,LAX - Terminal 2 Arrivals,Licensed,"201 World Way, The Gas Company Tower",Los Angeles,CA,US,900455807,310-646-3472,GMT-08:00 America/Los_Angeles,-118.4,33.95
Starbucks,24673-238029,LAX - Terminal 2 Departures,Licensed,201 World Way,Los Angeles,CA,US,90045,310-736-7045,GMT-08:00 America/Los_Angeles,-118.4,33.95
Starbucks,19448-193605,LAX - TBIT Evenings,Licensed,"1 World Way, Chesterfield Square",Los Angeles,CA,US,90045,310-948-5066,GMT-08:00 America/Los_Angeles,-118.4,33.95
Starbucks,16928-172185,LAX T4-Baggage Claim,Licensed,1 World Way,Los Angeles,CA,US,900455807,310-665-9445,GMT-08:00 America/Los_Angeles,-118.4,33.95
Starbucks,19087-193606,LAX - Great Hall,Licensed,"1 World Way, AT&T Building",Los Angeles,CA,US,90045,,GMT-08:00 America/Los_Angeles,-118.4,33.95
Starbucks,72307-5827,"LAX Terminal 1, Food Court",Licensed,201 World Way,Los Angeles,CA,US,900455807,310-646-3472,GMT-08:00 America/Los_Angeles,-118.4,33.95
Starbucks,29552-253805,Ralphs - Los Angeles #209,Licensed,8825 Sepulveda Blvd,Los Angeles,CA,US,90045,310-645-2035,GMT-08:00 America/Los_Angeles,-118.4,33.96
Starbucks,5244-318,La Tijera & Sepulveda,Company Owned,8817 South Sepulveda Blvd.,Los Angeles,CA,US,900454809,(310) 342-0152,GMT-08:00 America/Los_Angeles,-118.4,33.96
Starbucks,14211-113350,Sepulveda & 89th,Company Owned,8844 S. Sepulveda Blvd,Westchester,CA,US,900454833,310-645-0416,GMT-08:00 America/Los_Angeles,-118.4,33.96
Starbucks,5095-146865,Target Culver City South T-2632,Licensed,"6000 Sepulveda Blvd, Ste 2250",Culver City,CA,US,902306478,310-754-4614,GMT-08:00 America/Los_Angeles,-118.4,33.99
Starbucks,5771-15093,Washington & Culver,Company Owned,9718 Washington Blvd.,Culver City,CA,US,902322722,310-204-1075,GMT-08:00 America/Los_Angeles,-118.4,34.02
Starbucks,6451-54039,National & Castle Heights,Company Owned,9824 National Blvd,Los Angeles,CA,US,900342713,310-839-1483,GMT-08:00 America/Los_Angeles,-118.4,34.03
Starbucks,20540-196508,Ralph's - Los Angeles #198,Licensed,9616 W. Pico Blvd,Los Angeles,CA,US,90035,310-271-2672,GMT-08:00 America/Los_Angeles,-118.4,34.05
Starbucks,74702-97967,Vons-Studio City #1674,Licensed,"4033 Laurel Canyon Blvd, Studio Plaza",Studio City,CA,US,916042016,818-985-5401,GMT-08:00 America/Los_Angeles,-118.4,34.14
Starbucks,573-295,Ventura & Vantage,Company Owned,"12170 Ventura Blvd, Sunset Center",Studio City,CA,US,916042514,(818) 762-9368,GMT-08:00 America/Los_Angeles,-118.4,34.14
Starbucks,6610-66080,Laurel Canyon & Riverside,Company Owned,4800 Laurel Canyon Blvd,Valley Village,CA,US,916073717,818-754-8123,GMT-08:00 America/Los_Angeles,-118.4,34.16
Starbucks,20895-192164,Laurel Canyon & Burbank,Company Owned,12106 West Burbank Blvd,Valley Village,CA,US,91607,818-299-4968,GMT-08:00 America/Los_Angeles,-118.4,34.17
Starbucks,6926-88400,Palos Verdes Dr. West & Hawthorne,Company Owned,"31202 Palos Verdes Dr. West, Las Flores",Rancho Palos Verdes,CA,US,902755354,310-265-7230,GMT-08:00 America/Los_Angeles,-118.41,33.75
Starbucks,542-486,Manhattan Beach & Highland,Company Owned,233 Manhattan Beach,Manhattan Beach,CA,US,902665314,(310) 545-2709,GMT-08:00 America/Los_Angeles,-118.41,33.89
Starbucks,7956-95418,Grand & Eucalyptus,Company Owned,310 E. Grand Avenue,El Segundo,CA,US,902453874,3103350019,GMT-08:00 America/Los_Angeles,-118.41,33.92
Starbucks,72328-5831,LAX Terminal- 3,Licensed,201 World Way,Los Angeles,CA,US,900455807,310-646-3472,GMT-08:00 America/Los_Angeles,-118.41,33.95
Starbucks,8608-93890,Jefferson & Centinela,Company Owned,12313 Jefferson Blvd,Los Angeles,CA,US,902306225,310-823-3479,GMT-08:00 America/Los_Angeles,-118.41,33.98
Starbucks,17404-175104,Sepulveda & Washington,Company Owned,4114 Sepulveda Blvd,Culver City,CA,US,90230,310-390-3561,GMT-08:00 America/Los_Angeles,-118.41,34.01
Starbucks,5447-1377,Ventura & Alcove,Company Owned,12824 Ventura Blvd.,Studio City,CA,US,916042367,(818) 753-8886,GMT-08:00 America/Los_Angeles,-118.41,34.14
Starbucks,5839-26187,Victory & Coldwater,Company Owned,12848 Victory Blvd.,North Hollywood,CA,US,916063013,818-762-7450,GMT-08:00 America/Los_Angeles,-118.41,34.19
Starbucks,13365-107349,Sherman Way & Whitsett,Company Owned,12520 Sherman Way,North Hollywood,CA,US,916055236,818-392-7641,GMT-08:00 America/Los_Angeles,-118.41,34.2
Starbucks,25813-241711,Lincoln & 84th,Company Owned,8400 Lincoln Blvd.,Los Angeles,CA,US,90045,310-560-1760,GMT-08:00 America/Los_Angeles,-118.42,33.96
Starbucks,20401-196507,Ralph's - Los Angeles #278,Licensed,8701 Lincoln Blvd,Los Angeles,CA,US,90045,310-649-1526,GMT-08:00 America/Los_Angeles,-118.42,33.96
Starbucks,27526-235424,Loyola Marymount University - Libra,Licensed,1 LMU Drive,Los Angeles,CA,US,90045,310-338-5369,GMT-08:00 America/Los_Angeles,-118.42,33.97
Starbucks,22881-225524,Runway & McConnell,Company Owned,"12746 Jefferson Blvd., 2150",Playa Vista,CA,US,90094,213-393-2572,GMT-08:00 America/Los_Angeles,-118.42,33.98
Starbucks,5996-52599,Riverside & Fulton,Company Owned,"13351 Riverside Dr, Suite ""A""",Sherman Oaks,CA,US,914232542,818-789-1541,GMT-08:00 America/Los_Angeles,-118.42,34.16
Starbucks,70331-90574,Target Santa Clarita T-2030,Licensed,"19105 Golden Valley Rd, Westridge Village Center",Santa Clarita,CA,US,913871428,(661) 977-5154,GMT-08:00 America/Los_Angeles,-118.42,34.45
Starbucks,22640-223084,Venice & Centinela,Company Owned,"12404 W. Venice Blvd., Suite A",Los Angeles,CA,US,90066,310-390-2354,GMT-08:00 America/Los_Angeles,-118.43,34
Starbucks,74737-98608,Vons-Los Angeles #2077,Licensed,"3118 S Sepulveda Blvd, Hollywood Promenade",Los Angeles,CA,US,900344204,310-477-8717,GMT-08:00 America/Los_Angeles,-118.43,34.03
Starbucks,26527-244452,Sepulveda & National,Company Owned,3006 Sepulveda Blvd.,Los Angeles,CA,US,90064,310-963-0098,GMT-08:00 America/Los_Angeles,-118.43,34.03
Teavana,28388-250253,Teavana - Westside Pavilion,Company Owned,"10800 West Pico Blvd., Spc. #139",Los Angeles,CA,US,90064,310-474-0127,GMT-08:00 America/Los_Angeles,-118.43,34.04
Starbucks,546-489,Pico & Midvale,Company Owned,10911 W Pico Boulevard,Los Angeles,CA,US,900642111,(310) 470-8863,GMT-08:00 America/Los_Angeles,-118.43,34.04
Starbucks,5565-1850,Olympic & Westwood,Company Owned,2215 Westwood Blvd.,Los Angeles,CA,US,900642098,310-441-9002,GMT-08:00 America/Los_Angeles,-118.43,34.04
Starbucks,5777-16654,Ventura & Allot,Company Owned,"13535 Ventura Blvd., Sherman Oaks Galleria",Sherman Oaks,CA,US,914233876,818-981-2843,GMT-08:00 America/Los_Angeles,-118.43,34.15
Starbucks,25059-221464,Foothill & Hubbard,Company Owned,13686 Foothill Blvd,Sylmar,CA,US,91342,818-336-4840,GMT-08:00 America/Los_Angeles,-118.43,34.31
Starbucks,19885-173855,Vons-Santa Clarita #3138,Licensed,16550 W Soledad Canyon Rd,Santa Clarita,CA,US,913873215,661-252-3838,GMT-08:00 America/Los_Angeles,-118.43,34.43
Starbucks,20489-206264,Sand Canyon & 14 Fwy,Company Owned,"16548 Soledad Canyon Road, Valencia Crossroads",Santa Clarita,CA,US,91387,6612521324,GMT-08:00 America/Los_Angeles,-118.43,34.43
Starbucks,9545-96910,Lincoln & Fiji,Company Owned,"4724 1/2 Admiralty, Space A-22",Marina del Rey,CA,US,902926905,310-574-3941,GMT-08:00 America/Los_Angeles,-118.44,33.98
Starbucks,18449-179546,Ralphs Marina Del Rey #279,Licensed,4700 Admiralty Way,Marina Del Rey,CA,US,90292,310-821-6225,GMT-08:00 America/Los_Angeles,-118.44,33.98
Starbucks,21686-214165,Ralph's - Marina Del Rey #280,Licensed,4311 Lincoln Blvd,Marina Del Rey,CA,US,92092,310-574-0909,GMT-08:00 America/Los_Angeles,-118.44,33.98
Starbucks,616-341,Lincoln & Maxella,Company Owned,4264 Lincoln Boulevard,Marina Del Rey,CA,US,902925654,(310) 578-6832,GMT-08:00 America/Los_Angeles,-118.44,33.99
Starbucks,79706-98880,Vons - Marina Del Rey #2105,Licensed,4365 Glencoe Ave,Marina Del Rey,CA,US,902926466,,GMT-08:00 America/Los_Angeles,-118.44,33.99
Starbucks,5394-981,National & Barrington,Company Owned,11705 National Blvd.,Los Angeles,CA,US,900643644,(310) 914-4585,GMT-08:00 America/Los_Angeles,-118.44,34.02
Starbucks,5337-1197,Olympic & Sawtelle,Company Owned,11280 Olympic Blvd.,Los Angeles,CA,US,900641719,(310) 478-0045,GMT-08:00 America/Los_Angeles,-118.44,34.04
Starbucks,5567-1752,Westwood & Missouri,Company Owned,1898 Westwood Blvd.,Westwood,CA,US,900254612,(310) 470-8494,GMT-08:00 America/Los_Angeles,-118.44,34.05
Starbucks,16280-166728,Target LA Westwood T-2774,Licensed,10861 Weyburn Ave,Los Angeles,CA,US,900242957,310-893-2360,GMT-08:00 America/Los_Angeles,-118.44,34.06
Starbucks,536-364,Westwood & Lindbrook,Company Owned,1161 Westwood Blvd.,Los Angeles,CA,US,900243419,(310) 208-5505,GMT-08:00 America/Los_Angeles,-118.44,34.06
Starbucks,79355-103604,Ralphs-Westwood #759,Licensed,10861 Weyburn Ave,Westwood,CA,US,900242957,310-824-5994,GMT-08:00 America/Los_Angeles,-118.44,34.06
Starbucks,5549-1822,N Beverly Glen & Beverly Glen Crcl,Company Owned,2952 Beverly Glen Circle,Los Angeles,CA,US,900771724,(310) 470-8121,GMT-08:00 America/Los_Angeles,-118.44,34.13
Starbucks,19837-171185,Ralphs-Sherman Oaks #222,Licensed,"14049 Ventura Blvd, Riverside Knolls Shopping Center",Sherman Oaks,CA,US,91403,310-473-5238,GMT-08:00 America/Los_Angeles,-118.44,34.15
Starbucks,18356-188205,Westfield Fashion Square - Level 1,Company Owned,14006 Riverside Drive #24C,Sherman Oaks,CA,US,914231945,8189077516,GMT-08:00 America/Los_Angeles,-118.44,34.16
Starbucks,5915-34639,Truman & Maclay,Company Owned,"1135 Truman Street, San Francisco Centre",San Fernando,CA,US,913403200,818-837-0337,GMT-08:00 America/Los_Angeles,-118.44,34.28
Starbucks,5713-5903,Washington & Walnut Ave,Company Owned,13431 Washington Blvd,Marina Del Rey,CA,US,902925658,310-306-8990,GMT-08:00 America/Los_Angeles,-118.45,33.99
Starbucks,5493-1376,Ocean Park & 29th,Company Owned,2901 Ocean Park Blvd.,Santa Monica,CA,US,904052919,(310) 396-9995,GMT-08:00 America/Los_Angeles,-118.45,34.02
Starbucks,18381-179547,Ralphs Los Angeles #210,Licensed,11727 W Olympic Blvd,Los Angeles,CA,US,90064,310-473-5238,GMT-08:00 America/Los_Angeles,-118.45,34.03
Starbucks,5738-10772,Santa Monica & Pontius,Company Owned,11155 Santa Monica Blvd.,West Los Angeles,CA,US,900253313,3103122903,GMT-08:00 America/Los_Angeles,-118.45,34.05
Starbucks,5494-404,Broxton & Weyburn,Company Owned,10955 West Weyburn,Los Angeles,CA,US,900242811,310-209-1626,GMT-08:00 America/Los_Angeles,-118.45,34.06
Starbucks,548-491,Ventura & Cedros,Company Owned,"14622 Ventura Blvd., Suite 116",Sherman Oaks,CA,US,914033662,(818) 501-6535,GMT-08:00 America/Los_Angeles,-118.45,34.15
Starbucks,18373-179549,Ralphs Van Nuys #702,Licensed,14440 Burbank Blvd,Van Nuys,CA,US,91401,818-989-5640,GMT-08:00 America/Los_Angeles,-118.45,34.17
Starbucks,6630-71280,Burbank & Van Nuys,Company Owned,14431 Burbank Blvd,Van Nuys,CA,US,914014825,818-779-0347,GMT-08:00 America/Los_Angeles,-118.45,34.17
Starbucks,23369-229524,Van Nuys & Hartland,Company Owned,6833 Van Nuys Blvd.,Van Nuys,CA,US,91405,818-988-9180,GMT-08:00 America/Los_Angeles,-118.45,34.2
Starbucks,9683-97622,Van Nuys & Michaels,Company Owned,"7902 VAN NUYS BLVD, B-2",Panorama City,CA,US,914026084,(818) 787-0904,GMT-08:00 America/Los_Angeles,-118.45,34.21
Starbucks,20538-186785,Ralphs Venice #281,Licensed,910 Lincoln Blvd,Venice,CA,US,90291,310-392-4854,GMT-08:00 America/Los_Angeles,-118.46,34
Starbucks,23517-218564,Pico & Stewart,Company Owned,2727 Pico Blvd.,Santa Monica,CA,US,90405,424-272-9224,GMT-08:00 America/Los_Angeles,-118.46,34.02
Starbucks,5213-293,Santa Monica & Bundy,Company Owned,"12100 Santa Monica Blvd., Soutport Town Center",West Los Angeles,CA,US,900252516,(310) 571-9262,GMT-08:00 America/Los_Angeles,-118.46,34.04
Starbucks,5552-796,Ventura & Noble,Company Owned,"15030 Ventura Blvd., 1-A",Sherman Oaks,CA,US,914035470,(818) 783-3380,GMT-08:00 America/Los_Angeles,-118.46,34.15
Starbucks,20338-204605,Target Van Nuys T-1309,Licensed,14920 Raymer Street,Van Nuys,CA,US,91405,818-922-1001,GMT-08:00 America/Los_Angeles,-118.46,34.21
Starbucks,5275-747,Washington & Pacific,Company Owned,100 Washington Blvd.,Marina Del Rey,CA,US,902925126,(310) 821-5233,GMT-08:00 America/Los_Angeles,-118.47,33.98
Starbucks,5667-2401,Lincoln & Marine,Company Owned,3020 Lincoln Blvd,Santa Monica,CA,US,904055735,310-392-0134,GMT-08:00 America/Los_Angeles,-118.47,34
Starbucks,5826-5897,Colorado & Cloverfield,Company Owned,"2200 Colorado Blvd., 101",Santa Monica,CA,US,904043571,310-453-6745,GMT-08:00 America/Los_Angeles,-118.47,34.03
Starbucks,18380-179545,Ralphs Santa Monica #292,Licensed,1644 Cloverfield Blvd,Santa Monica,CA,US,90404,310-582-3900,GMT-08:00 America/Los_Angeles,-118.47,34.03
Starbucks,22711-223785,Ralph's - Los Angeles #44,Licensed,12057 Wilshire Blvd,Los Angeles,CA,US,90025,310-477-8746,GMT-08:00 America/Los_Angeles,-118.47,34.04
Starbucks,21893-205864,Bristol Farms - Santa Monica,Licensed,3105 Wilshire Blvd,Santa Monica,CA,US,90403,310-829-3137,GMT-08:00 America/Los_Angeles,-118.47,34.04
Starbucks,508-451,San Vicente & Barrington,Company Owned,11707 San Vicente Blvd,Los Angeles,CA,US,900496628,(310) 207-4202,GMT-08:00 America/Los_Angeles,-118.47,34.05
Starbucks,659-333,Barrington & Sunset,Company Owned,11700 Barrington Court,Los Angeles,CA,US,900492930,(310) 472-7119,GMT-08:00 America/Los_Angeles,-118.47,34.06
Starbucks,5815-8729,Sepulveda & Ventura,Company Owned,"15301 Ventura Blvd, Ste P11, Fashion Square Mall",Sherman Oaks,CA,US,914035891,818-728-1589,GMT-08:00 America/Los_Angeles,-118.47,34.16
Starbucks,15580-141904,Target Van Nuys T-1307,Licensed,5711 Sepulveda Blvd,Van Nuys,CA,US,914112918,818-779-0163,GMT-08:00 America/Los_Angeles,-118.47,34.17
Starbucks,6961-88003,Sherman Way & Sepulveda,Company Owned,"15355 Sherman Way, #A",Van Nuys,CA,US,914064200,818-787-0135,GMT-08:00 America/Los_Angeles,-118.47,34.2
Starbucks,75102-34499,Galpin Motors - Jaguar Showroom,Licensed,15500 Roscoe Blvd.,Van Nuys,CA,US,91406,818-892-3800,GMT-08:00 America/Los_Angeles,-118.47,34.22
Starbucks,8637-80485,Sepulveda & Nordhoff,Company Owned,9002 Sepulveda Blvd.,North Hills,CA,US,913434308,818-221-6907,GMT-08:00 America/Los_Angeles,-118.47,34.23
Starbucks,5833-24687,Devonshire & Langdon,Company Owned,"15501 Devonshire Blvd, Shops at Mission Viejo",Mission Hills,CA,US,913452620,818-830-5085,GMT-08:00 America/Los_Angeles,-118.47,34.26
Starbucks,6711-40579,Via Princessa & Sierra Highway,Company Owned,26925 Sierra Highway,Santa Clarita,CA,US,913212283,661-251-0167,GMT-08:00 America/Los_Angeles,-118.47,34.41
Starbucks,506-449,Main & Hill,Company Owned,2671 Main Street,Santa Monica,CA,US,904054001,(310) 392-3559,GMT-08:00 America/Los_Angeles,-118.48,34
Starbucks,22065-217151,Lincoln & Pico,Company Owned,1900 Lincoln Blvd,Santa Monica,CA,US,904051315,3106647049,GMT-08:00 America/Los_Angeles,-118.48,34.01
Starbucks,7975-95815,Santa Monica & 26th,Company Owned,2461-A Santa Monica Blvd,Santa Monica,CA,US,904042065,3108296152,GMT-08:00 America/Los_Angeles,-118.48,34.03
Starbucks,647-365,Wilshire & 26th,Company Owned,2525 Wilshire Blvd.,Santa Monica,CA,US,904034615,(310) 264-0669,GMT-08:00 America/Los_Angeles,-118.48,34.04
Starbucks,25579-237064,Santa Monica Place Mall - East Wing,Company Owned,395 Santa Monica Place,Santa Monica,CA,US,90401,424-299-2959,GMT-08:00 America/Los_Angeles,-118.49,34.01
Starbucks,22382-220265,Olympic & Main,Company Owned,"1705 Ocean Ave., Unit C",Santa Monica,CA,US,90401,310-458-2802,GMT-08:00 America/Los_Angeles,-118.49,34.01
Starbucks,17403-162764,Broadway & Lincoln,Company Owned,"1447 Lincoln Blvd., 104",Santa Monica,CA,US,90401,310-395-1051,GMT-08:00 America/Los_Angeles,-118.49,34.02
Starbucks,19895-184244,Wilshire & 11th,Company Owned,1030 Wilshire Blvd.,Santa Monica,CA,US,90403,310-917-1514,GMT-08:00 America/Los_Angeles,-118.49,34.02
Starbucks,74781-98357,Vons-Santa Monica #2262,Licensed,710 Broadway,Santa Monica,CA,US,904012608,310-260-0260,GMT-08:00 America/Los_Angeles,-118.49,34.02
Starbucks,74799-98878,Vons-Santa Monica #2002,Licensed,1311 Wilshire Blvd,Santa Monica,CA,US,904035410,310-394-1414,GMT-08:00 America/Los_Angeles,-118.49,34.03
Starbucks,574-296,15th & Montana,Company Owned,"1426 Montana Avenue, #4, Restaurants at the Arboretum Villas",Santa Monica,CA,US,904031763,(310) 394-3449,GMT-08:00 America/Los_Angeles,-118.49,34.03
Starbucks,643-360,Ventura & Hayvenhurst,Company Owned,16461A Ventura Blvd,Encino,CA,US,914364370,(818) 906-3961,GMT-08:00 America/Los_Angeles,-118.49,34.16
Starbucks,6782-80486,Nordhoff & Woodley,Company Owned,16222 Nordhoff Street,North Hills,CA,US,913433806,818-895-4877,GMT-08:00 America/Los_Angeles,-118.49,34.24
Starbucks,6861-83040,3rd & Santa Monica-3rd St Promenade,Company Owned,1356 Third Street Promenade,Santa Monica,CA,US,904011310,310-458-0266,GMT-08:00 America/Los_Angeles,-118.5,34.02
Starbucks,654-329,3rd & Wilshire (Barnes & Noble),Company Owned,308 Wilshire Blvd.,Santa Monica,CA,US,904011312,310-451-9626,GMT-08:00 America/Los_Angeles,-118.5,34.02
Starbucks,529-473,7th & Montana,Company Owned,701 Montana Avenue,Santa Monica,CA,US,904031403,(310) 394-8020,GMT-08:00 America/Los_Angeles,-118.5,34.03
Starbucks,79544-104485,Vons - Santa Monica #2231,Licensed,"820 Montana Avenue, Third Street Promenade",Santa Monica,CA,US,904031503,310-395-1682,GMT-08:00 America/Los_Angeles,-118.5,34.03
Starbucks,19305-195844,Roscoe & Balboa,Company Owned,16926 Roscoe Blvd,Van Nuys,CA,US,91406,8188818053,GMT-08:00 America/Los_Angeles,-118.5,34.22
Starbucks,76446-90560,Target Northridge T-2020,Licensed,8999 Balboa Ave,Northridge,CA,US,913252608,818-924-9001,GMT-08:00 America/Los_Angeles,-118.5,34.23
Starbucks,5207-1974,Devonshire & Balboa,Company Owned,16850 Devonshire Blvd,Granada Hills,CA,US,913447404,(818) 360-9004,GMT-08:00 America/Los_Angeles,-118.5,34.26
Starbucks,74776-98344,Vons-Granada Hills #2250,Licensed,16830 San Fernando Mission B,Granada Hills,CA,US,913444247,818-831-8511,GMT-08:00 America/Los_Angeles,-118.5,34.27
Starbucks,76487-111372,Target Granada Hills T-2329,Licensed,17055 San Fernando Mission Blvd,Granada Hills,CA,US,913444199,818-360-2999,GMT-08:00 America/Los_Angeles,-118.5,34.27
Starbucks,11895-105173,Balboa & Knollwood,Company Owned,"11850 Balboa Boulevard, B-102",Granada Hills,CA,US,913442753,818-360-9659,GMT-08:00 America/Los_Angeles,-118.5,34.29
Starbucks,20227-204225,Golden Valley & Soledad Canyon,Company Owned,"26585 Golden Valley Road, Orchard Village Plaza",Santa Clarita,CA,US,91350,661-288-1354,GMT-08:00 America/Los_Angeles,-118.5,34.42
Starbucks,544-476,Ventura & Louise,Company Owned,17308 Ventura Blvd.,Encino,CA,US,913163904,(818) 986-9621,GMT-08:00 America/Los_Angeles,-118.51,34.16
Starbucks,9456-96474,Saticoy & Louise,Company Owned,17272 Saticoy Street,Van Nuys,CA,US,914062103,818-757-3142,GMT-08:00 America/Los_Angeles,-118.51,34.21
Starbucks,73603-80601,Albertsons - Santa Clarit #6360,Licensed,27631 W Bouquet Canyon Rd,Saugus,CA,US,913501793,661-296-9655,GMT-08:00 America/Los_Angeles,-118.51,34.44
Starbucks,10144-98951,Bouquet Canyon & Haskell Canyon,Company Owned,27667 Bouquet Canyon Road,Saugus,CA,US,913501793,(661) 263-9681,GMT-08:00 America/Los_Angeles,-118.51,34.44
Starbucks,20670-184967,Ralphs Encino #6,Licensed,17840 Ventura Blvd,Encino,CA,US,91316,818-345-6882,GMT-08:00 America/Los_Angeles,-118.52,34.16
Starbucks,5643-201564,Chatsworth & Zelzah,Company Owned,17901 Chatsworth Street,Granada Hills,CA,US,91344,818-363-5973,GMT-08:00 America/Los_Angeles,-118.52,34.27
Starbucks,10182-99743,Newall & Carl Ct,Company Owned,"23790 Newhall Ave, Valencia Town Center",Santa Clarita,CA,US,913213125,6612558602,GMT-08:00 America/Los_Angeles,-118.52,34.37
Starbucks,609-324,Sunset & Swarthmore,Company Owned,15300 Sunset Boulevard,Pacific Palisades,CA,US,902723613,(310) 573-0177,GMT-08:00 America/Los_Angeles,-118.53,34.05
Starbucks,74625-94036,Vons-Tarzana #2066,Licensed,18439 Ventura Blvd,Tarzana,CA,US,913564201,818-881-5527,GMT-08:00 America/Los_Angeles,-118.53,34.17
Starbucks,18515-179548,Ralphs Granada Hills #646,Licensed,18010 Chatsworth St.,Granada Hills,CA,US,91344,818-831-6556,GMT-08:00 America/Los_Angeles,-118.53,34.26
Starbucks,5942-45259,Copper Hill & Seco Canyon,Company Owned,"27984 Seco Canyon Road, #301",Santa Clarita,CA,US,913503856,661-263-0332,GMT-08:00 America/Los_Angeles,-118.53,34.46
Starbucks,9074-139228,Ventura & Yolanda,Company Owned,"18700 Ventura Blvd., #120",Tarzana,CA,US,913563303,818-881-1639,GMT-08:00 America/Los_Angeles,-118.54,34.17
Starbucks,6745-78191,Reseda & Vanowen,Company Owned,6840 Reseda Blvd,Reseda,CA,US,913354204,818-609-9022,GMT-08:00 America/Los_Angeles,-118.54,34.19
Starbucks,20686-189424,Reseda & Nordhoff,Company Owned,"9020 N. Reseda, Unit A",Northridge,CA,US,91324,8189931472,GMT-08:00 America/Los_Angeles,-118.54,34.23
Starbucks,6459-53039,Reseda & Plummer,Company Owned,"9420 Reseda Blvd., #1, Porter Ranch Town Center",Northridge,CA,US,913246001,818-998-7001,GMT-08:00 America/Los_Angeles,-118.54,34.24
Starbucks,5208-1975,Reseda & Devonshire,Company Owned,"10235 Reseda Blvd, Ste D4 & D6",Northridge,CA,US,913241460,(818) 709-6934,GMT-08:00 America/Los_Angeles,-118.54,34.26
Starbucks,5789-18760,Lyons & Orchard Village,Company Owned,"24802-A Orchard Village Road, Highridge Center",Santa Clarita,CA,US,913553091,661-799-7898,GMT-08:00 America/Los_Angeles,-118.54,34.38
Starbucks,6572-64759,Bouquet Canyon & Newhall Ranch,Company Owned,"26441 Bouquet Canyon Road, A4",Santa Clarita,CA,US,913502396,661-263-8087,GMT-08:00 America/Los_Angeles,-118.54,34.43
Starbucks,47586-258975,VONS - Saugus #3325,Licensed,26518 Boquet Canyon Road,Saugus,CA,US,91350,661-296-0031,GMT-08:00 America/Los_Angeles,-118.54,34.43
Starbucks,20770-207884,Sunset & Palisades,Company Owned,514 Palisades Drive,Pacific Palisades,CA,US,90272,310 5734138,GMT-08:00 America/Los_Angeles,-118.55,34.04
Starbucks,79627-98609,Vons-Pacific Palisades #2266,Licensed,17380 Sunset Blvd,Pacific Palisades,CA,US,902724102,310-454-2502,GMT-08:00 America/Los_Angeles,-118.55,34.04
Starbucks,5959-45579,Tampa & Victory,Company Owned,"19313 Victory Boulevard, 1",Reseda,CA,US,913356302,818-342-7130,GMT-08:00 America/Los_Angeles,-118.55,34.19
Starbucks,562-504,McBean & Arroyo Park,Company Owned,"25912 McBean Parkway, Seco Plaza I",Santa Clarita,CA,US,913552006,661-255-9850,GMT-08:00 America/Los_Angeles,-118.55,34.4
Starbucks,5305-457,McBean & Decoro,Company Owned,"27748 West McBean Parkway, Suite A-6",Valencia,CA,US,913541430,(661) 296-1144,GMT-08:00 America/Los_Angeles,-118.55,34.45
Starbucks,11779-106400,Ventura Blvd & Shirley,Company Owned,19439 Ventura Blvd,Tarzana,CA,US,913563030,818-774-9660,GMT-08:00 America/Los_Angeles,-118.56,34.17
Starbucks,5627-249,Shirley & Plummer,Company Owned,"19500 Plummer St., Northridge Fashion Center",Northridge,CA,US,913242144,818-576-1073,GMT-08:00 America/Los_Angeles,-118.56,34.24
Teavana,28236-250145,Teavana - Northridge Fashion Center,Company Owned,"9301 Tampa Ave, #171",Northridge,CA,US,91324,818-717-8718,GMT-08:00 America/Los_Angeles,-118.56,34.24
Starbucks,5861-29276,Rinaldi & Corbin,Company Owned,19759 Rinaldi St,Northridge,CA,US,913264143,818-363-3384,GMT-08:00 America/Los_Angeles,-118.56,34.28
Starbucks,6810-82121,Valencia & McBean,Company Owned,"24286 Valencia Blvd., Bouquet Shopping Center",Santa Clarita,CA,US,913555391,661-288-0203,GMT-08:00 America/Los_Angeles,-118.56,34.41
Starbucks,6584-65300,Westfield Valencia Town Cntr -Lvl 1,Company Owned,"24201 Valencia Blvd., #1101",Santa Clarita,CA,US,913550829,661-260-1516,GMT-08:00 America/Los_Angeles,-118.56,34.42
Teavana,28305-249857,Teavana - Valencia Town Center,Company Owned,"24201 West Valencia Blvd., #2760",Valencia,CA,US,91355,661-799-7562,GMT-08:00 America/Los_Angeles,-118.56,34.42
Starbucks,76363-97160,Target Valencia T-257,Licensed,24425 W. Magic Mountain Pkwy,Valencia,CA,US,913553435,661-254-8001,GMT-08:00 America/Los_Angeles,-118.56,34.42
Starbucks,26825-235454,Urban Home @ Valencia Town Center,Licensed,24251 Town Center Dr,Valencia,CA,US,91355,6612207350,GMT-08:00 America/Los_Angeles,-118.56,34.42
Starbucks,5487-1616,Winnetka & Ventura,Company Owned,20054 Ventura Blvd.,Woodland Hills,CA,US,913642637,(818) 883-1498,GMT-08:00 America/Los_Angeles,-118.57,34.17
Starbucks,5308-314,The Old Road & Stevenson Ranch Pkwy,Company Owned,"25900 The Old Road, Sherwood Mall",Stevenson Ranch,CA,US,913811712,(661) 259-9906,GMT-08:00 America/Los_Angeles,-118.57,34.39
Starbucks,74506-25650,Vons-Valencia #2030,Licensed,"25850 N. The Old Road, Tourney Retail Plaza",Valencia,CA,US,91355,661-254-3570,GMT-08:00 America/Los_Angeles,-118.57,34.39
Starbucks,6760-78102,Copper Hill & Newhall Ranch,Company Owned,28160 Newhall Ranch Rd.,Santa Clarita,CA,US,913550990,(661) 702-8591,GMT-08:00 America/Los_Angeles,-118.57,34.44
Starbucks,76329-95471,Target Woodland Hills T-288,Licensed,20801 Ventura Blvd,Woodland Hills,CA,US,913642363,818-713-2707,GMT-08:00 America/Los_Angeles,-118.58,34.17
Starbucks,6693-75040,Valencia & The Old Road,Company Owned,"26802 The Old Road, Riverview",Santa Clarita,CA,US,913810661,661-288-0074,GMT-08:00 America/Los_Angeles,-118.58,34.41
Starbucks,9871-98346,Magic Mountain & Tourney,Company Owned,25349 Wayne Mills Place,Valencia,CA,US,913551827,661-260-0844,GMT-08:00 America/Los_Angeles,-118.58,34.42
Starbucks,21086-180308,Ventura & De Soto,Company Owned,20903 Ventura Blvd.,Woodland Hills,CA,US,91367,818-610-8637,GMT-08:00 America/Los_Angeles,-118.59,34.17
Starbucks,6902-85300,The Old Road & Rye Canyon,Company Owned,28120 The Old Road,Valencia,CA,US,913551003,661-775-0480,GMT-08:00 America/Los_Angeles,-118.59,34.43
Starbucks,75653-88912,Marriott Warner Center Lobby,Licensed,21850 Oxnard St,Woodland Hills,CA,US,913673631,8188874800,GMT-08:00 America/Los_Angeles,-118.6,34.18
Starbucks,9384-94268,Canoga & Oxnard,Company Owned,"5960 N. Canoga Ave, #1",Woodland Hills,CA,US,913675076,(818) 887-6451,GMT-08:00 America/Los_Angeles,-118.6,34.18
Starbucks,5485-1517,Victory & Canoga,Company Owned,21504 Victory Blvd.,Woodland Hills,CA,US,913672423,(818) 884-9418,GMT-08:00 America/Los_Angeles,-118.6,34.19
Starbucks,11603-104000,Topanga Canyon & Dumetz,Company Owned,4900 Topanga Canyon Blvd,Woodland Hills,CA,US,913643112,818-704-1730,GMT-08:00 America/Los_Angeles,-118.61,34.16
Starbucks,585-305,Topanga Cyn & Ventura,Company Owned,5422 Topanga Canyon Blvd,Woodland Hills,CA,US,913676313,(818) 340-5053,GMT-08:00 America/Los_Angeles,-118.61,34.17
Starbucks,10895-103501,Ventura & Shoup,Company Owned,"22435 Ventura Blvd, B",Woodland Hills,CA,US,913641544,8189921730,GMT-08:00 America/Los_Angeles,-118.62,34.17
Starbucks,5759-5899,Fallbrook & Victory,Company Owned,"22815 Victory Blvd., #A",West Hills,CA,US,913073953,818-883-0567,GMT-08:00 America/Los_Angeles,-118.62,34.19
Starbucks,20788-208089,Target West Hills T-228,Licensed,6636 Fallbrook Avenue,West Hills,CA,US,91307,818-999-2390,GMT-08:00 America/Los_Angeles,-118.62,34.19
Starbucks,18869-179006,Mulholland & Calabasas,Company Owned,23335 Mulholland Drive,Woodland Hills,CA,US,91364,818-591-1380,GMT-08:00 America/Los_Angeles,-118.63,34.16
Starbucks,47263-244530,Ralphs West Hills #213,Licensed,22915 Victory Blvd,West Hills,CA,US,91307,818-716-8199,GMT-08:00 America/Los_Angeles,-118.63,34.19
Starbucks,74573-80139,Pavilions-West Hills #2225,Licensed,6534 Platt Ave,West Hills,CA,US,913073218,818-999-5939,GMT-08:00 America/Los_Angeles,-118.64,34.19
Starbucks,563-505,Platt & Victory,Company Owned,6516 Platt Avenue,West Hills,CA,US,913073218,(818) 346-3085,GMT-08:00 America/Los_Angeles,-118.64,34.19
Starbucks,74872-96289,Vons-Simi Valley #2047,Licensed,"5805 E Los Angeles Ave, Mountaingate Plaza",Simi Valley,CA,US,930634256,805-522-1193,GMT-08:00 America/Los_Angeles,-118.68,34.27
Starbucks,14014-108039,PCH & Webb Way,Company Owned,23755 W. Malibu Road,Malibu,CA,US,902654641,(310) 317-1436,GMT-08:00 America/Los_Angeles,-118.69,34.03
Starbucks,561-503,PCH & Cross Creek,Company Owned,3900 Cross Creek Road,Malibu,CA,US,902654944,(310) 317-4515,GMT-08:00 America/Los_Angeles,-118.69,34.04
Starbucks,5554-1823,Tapo Canyon & Alamo,Company Owned,"2679 Tapo Canyon Rd, Lomas Santa Fe Towne Centre East",Simi Valley,CA,US,930636834,805-306-0412,GMT-08:00 America/Los_Angeles,-118.72,34.28
Starbucks,74669-95992,Vons-Simi Valley #2692,Licensed,2938 Tapo Canyon Road,Simi Valley,CA,US,930632171,805-527-8666,GMT-08:00 America/Los_Angeles,-118.72,34.29
Starbucks,6609-246705,Cochran and Galena,Company Owned,2991 Cochran Street,Simi Valley,CA,US,93065,,GMT-08:00 America/Los_Angeles,-118.74,34.28
Starbucks,74521-27672,Vons-Simi Valley #2501,Licensed,1855 E. Cochran St.,Simi Valley,CA,US,930652263,805-522-9394,GMT-08:00 America/Los_Angeles,-118.76,34.28
Starbucks,27481-247624,Hwy 118 and First,Company Owned,1581 Simi Town Center Way,Simi Valley,CA,US,93065,(805) 206-1813,GMT-08:00 America/Los_Angeles,-118.77,34.28
Starbucks,2887-86482,Los Angeles & 1st,Company Owned,"1197 E. Los Angeles Avenue, A",Simi Valley,CA,US,930652868,(805) 578-3580,GMT-08:00 America/Los_Angeles,-118.78,34.27
Starbucks,5628-197744,Lindero Canyon & Kanan Rd,Company Owned,688 Lindero Canyon,Thousand Oaks,CA,US,913775477,818-889-1391,GMT-08:00 America/Los_Angeles,-118.79,34.18
Starbucks,73207-21482,Albertsons-Simi Valley #6393,Licensed,1268 Madera Road,Simi Valley,CA,US,930654002,805-520-9306,GMT-08:00 America/Los_Angeles,-118.79,34.26
Starbucks,9075-151165,Target Simi Valley West T-2462,Licensed,51 East Tierra Rejada Rd,Simi Valley,CA,US,930652902,805-416-5790,GMT-08:00 America/Los_Angeles,-118.8,34.27
Starbucks,79683-108474,Vons - Malibu #2813,Licensed,29211 Heather Cliff Rd,Malibu,CA,US,902654145,310-457-2401,GMT-08:00 America/Los_Angeles,-118.81,34.02
Starbucks,9744-98033,Wood Ranch & Country Club,Company Owned,"575 Country Club Drive, A",Simi Valley,CA,US,930650639,805-582-9235,GMT-08:00 America/Los_Angeles,-118.81,34.25
Starbucks,5445-863,Westlake & Thousand Oaks,Company Owned,"111 S. Westlake Blvd., #B-4",Thousand Oaks,CA,US,913623807,(805) 777-1196,GMT-08:00 America/Los_Angeles,-118.82,34.16
Starbucks,21573-205865,Target Westlake Village T-2810,Licensed,30740 Russell Ranch Rd,Westlake Village,CA,US,91362,818-661-2361,GMT-08:00 America/Los_Angeles,-118.82,34.18
Starbucks,559-501,Agoura & Westlake,Company Owned,2755 Agoura Rd.,Westlake,CA,US,913613101,(805) 379-2499,GMT-08:00 America/Los_Angeles,-118.83,34.15
Starbucks,5562-1689,PCH & Trancas Canyon Rd.,Company Owned,30765 Pacific Coast Highway,Malibu,CA,US,902653646,(310) 589-4908,GMT-08:00 America/Los_Angeles,-118.84,34.03
Starbucks,74123-25647,Vons-Thousand Oaks #2092,Licensed,2048 Avenida De Los Arboles,Thousand Oaks,CA,US,913621356,805-492-2497,GMT-08:00 America/Los_Angeles,-118.84,34.21
Starbucks,5492-1614,Avenida de Los Arboles & Erbes Rd,Company Owned,"2072 E Avenida De Los Arboles, Suite C",Thousand Oaks,CA,US,913626145,(805) 241-8026,GMT-08:00 America/Los_Angeles,-118.84,34.21
Starbucks,10109-99407,"Campus Park & Collins, Moorpark",Company Owned,"6595 Collins, unit A",Moorpark,CA,US,930211496,805-553-9270,GMT-08:00 America/Los_Angeles,-118.84,34.3
Starbucks,17656-175784,Thousand Oaks & Rancho,Company Owned,1195 East Thousand Oaks Blvd.,Thousand Oaks,CA,US,91362,805-379-1750,GMT-08:00 America/Los_Angeles,-118.86,34.18
Starbucks,8746-94662,"Janss & Moorpark, Thousand Oaks",Company Owned,"605 E. Janss Road, B",Thousand Oaks,CA,US,913605175,805-497-3499,GMT-08:00 America/Los_Angeles,-118.87,34.2
Starbucks,74939-99028,Vons - Thousand Oaks #1610,Licensed,1790 N Moorpark Rd,Thousand Oaks,CA,US,913605133,805-497-8652,GMT-08:00 America/Los_Angeles,-118.87,34.2
Starbucks,22799-210125,California Lutheran University/Thou,Licensed,"60 W Olsen Rd, The Oaks",Thousand Oaks,CA,US,91360,805-492-2411,GMT-08:00 America/Los_Angeles,-118.87,34.23
Starbucks,5452-1532,Los Angeles & Spring,Company Owned,"561 NEW LOS ANGELES AVE, Campus Plaza",Moorpark,CA,US,930212001,(805) 552-9431,GMT-08:00 America/Los_Angeles,-118.87,34.28
Starbucks,25207-237782,Target Moorpark T-1547,Licensed,"800 New Los Angelese Ave, The Park at Rheem Valley",Moorpark,CA,US,93021,805-530-0028,GMT-08:00 America/Los_Angeles,-118.87,34.28
Starbucks,5219-423,Moorpark & Hillcrest,Company Owned,"33 N. Moorpark Road, Suite 'E', North Torrance Shopping Center",Thousand Oaks,CA,US,913604425,(805) 381-1848,GMT-08:00 America/Los_Angeles,-118.88,34.18
Starbucks,26639-244261,Ralphs Moorpark #723,Licensed,101 W Los Angeles Ave,Moorpark,CA,US,93021,805-529-1604,GMT-08:00 America/Los_Angeles,-118.88,34.28
Starbucks,19684-200324,The Oaks Mall,Company Owned,"350 West Hillcrest Drive, CL121",Thousand Oaks,CA,US,91360,8053714399,GMT-08:00 America/Los_Angeles,-118.89,34.18
Teavana,28593-249827,Teavana - The Oaks,Company Owned,224 W. HILLCREST DRIVE,THOUSAND OAKS,CA,US,91360,805-230-2552,GMT-08:00 America/Los_Angeles,-118.89,34.18
Starbucks,74788-98373,Vons - Moorpark #1735,Licensed,4241 Tierra Rejada Rd,Moorpark,CA,US,930213772,805-530-3770,GMT-08:00 America/Los_Angeles,-118.9,34.27
Starbucks,8785-238824,Hillcrest & Ventu Park,Company Owned,540 North Ventu Park Rd,Thousand Oaks,CA,US,91320,8054992581,GMT-08:00 America/Los_Angeles,-118.91,34.19
Starbucks,9790-98069,"Newbury & Kelly, Newbury Park",Company Owned,"1940 Newbury Road, 500",Thousand Oaks,CA,US,913203393,805-376-9739,GMT-08:00 America/Los_Angeles,-118.92,34.18
Starbucks,6771-78101,Highway 126 & A Street. Fillmore,Company Owned,650 W. Ventura Street,Fillmore,CA,US,930151925,805-524-4150,GMT-08:00 America/Los_Angeles,-118.92,34.4
Starbucks,76897-131630,Target Thousand Oaks T-1100,Licensed,2705 Teller Rd,Thousand Oaks,CA,US,913201190,805-480-9114,GMT-08:00 America/Los_Angeles,-118.93,34.19
Starbucks,5830-159944,Wendy & Grande Vista,Company Owned,"975 Broadbeck Dr., Newbury Park Gateway",Thousand Oaks,CA,US,91320,,GMT-08:00 America/Los_Angeles,-118.94,34.19
Starbucks,6689-36179,"Laval & I-5 Fwy, Lebec",Company Owned,5844 Dennis McCarthy Drive,Lebec,CA,US,932439713,661-858-2034,GMT-08:00 America/Los_Angeles,-118.95,34.98
Starbucks,5909-10775,Reino Road & Kimber Drive,Company Owned,"421 S Reino Rd, Ste A",Newbury Park,CA,US,913204272,805-498-8287,GMT-08:00 America/Los_Angeles,-118.96,34.17
